{
"type": "FeatureCollection",
"name": "107383_FAZENDA_GUARANI_23-03-2026_02-07-2026_15h40m",
"crs": { "type": "name", "properties": { "name": "urn:ogc:def:crs:OGC:1.3:CRS84" } },
"features": [
{ "type": "Feature", "properties": { "CHAVE": "1073834", "FAZENDA": "107383", "NOME_FAZ": "FAZENDA GUARANI", "ZONA": 1.0, "TALHAO": 4.0, "AREA_TOTAL": 2.0710387916645039, "TIPO_GEO": "TALHAO", "DATA_INICI": null, "DATA_FINAL": null, "HORA_INICI": null, "HORA_FINAL": null, "CLASSE": null, "PILOTO": null, "AERONAVE": null, "AREA_HA": null }, "geometry": { "type": "Polygon", "coordinates": [ [ [ -50.4151508798995, -21.564900645237593 ], [ -50.415169191262599, -21.564913772983587 ], [ -50.415187232201099, -21.56492675181719 ], [ -50.415204959053, -21.564939555027895 ], [ -50.415222317138202, -21.564952147820001 ], [ -50.415239291256697, -21.564964526734904 ], [ -50.415256184022397, -21.564976930495696 ], [ -50.415273436256101, -21.564989701514403 ], [ -50.415291505495802, -21.565003195529297 ], [ -50.415310842892197, -21.565017764909296 ], [ -50.415331885663903, -21.565033752743403 ], [ -50.415355055214903, -21.565051490844798 ], [ -50.415380786271001, -21.5650713216186 ], [ -50.4154094178596, -21.565093500348297 ], [ -50.415441223653502, -21.565118178949604 ], [ -50.415475557636398, -21.565144780894208 ], [ -50.415512464315, -21.565173263535996 ], [ -50.415551669939099, -21.565203336786002 ], [ -50.415592977539298, -21.565234769491198 ], [ -50.415636198312704, -21.565267336284496 ], [ -50.415681115706001, -21.565300790677487 ], [ -50.415727290078799, -21.565334748069496 ], [ -50.415773894709403, -21.565368644694704 ], [ -50.415820142195599, -21.565401971141995 ], [ -50.415865268186799, -21.565434233458195 ], [ -50.415908499918302, -21.565464930660088 ], [ -50.415949059466797, -21.565493557459799 ], [ -50.415986166416999, -21.565519606377308 ], [ -50.416019054146602, -21.565542579244894 ], [ -50.416047257062203, -21.565562181192711 ], [ -50.416071286372102, -21.565578772780487 ], [ -50.416091853165199, -21.565592845796601 ], [ -50.416109648005801, -21.565604875049893 ], [ -50.416125318245697, -21.565615303109897 ], [ -50.416139412690399, -21.565624506413798 ], [ -50.416152339430099, -21.5656327758435 ], [ -50.4161644712418, -21.565640392729794 ], [ -50.416176413140406, -21.56564778252519 ], [ -50.416188586564701, -21.5656552124616 ], [ -50.416201144093606, -21.565662771329499 ], [ -50.416214184220699, -21.565670515811103 ], [ -50.4162278149957, -21.565678509349208 ], [ -50.416242155261799, -21.565686822323595 ], [ -50.416257334068, -21.565695531203392 ], [ -50.416273496092906, -21.5657047212473 ], [ -50.416290763809997, -21.565714463252203 ], [ -50.416309025298297, -21.565724688689102 ], [ -50.416328082257401, -21.565735278076598 ], [ -50.416347727658298, -21.565746106573595 ], [ -50.416367755606998, -21.565757049477195 ], [ -50.416387964521597, -21.565767983820702 ], [ -50.416408160885602, -21.565778790113395 ], [ -50.416428140773, -21.56578934207969 ], [ -50.416447636045802, -21.565799483997296 ], [ -50.416466465785703, -21.565809128376092 ], [ -50.416484554781398, -21.565818248811901 ], [ -50.416501853628297, -21.565826831727598 ], [ -50.416518318784703, -21.565834865760898 ], [ -50.416533915823109, -21.565842343027903 ], [ -50.416548624960797, -21.565849261209188 ], [ -50.416562463917302, -21.5658556331272 ], [ -50.416575561697201, -21.565861515638801 ], [ -50.416588190799303, -21.565867015611193 ], [ -50.4166005255071, -21.565872191711993 ], [ -50.416612629780403, -21.565877060344292 ], [ -50.416624479695805, -21.565881615478791 ], [ -50.416636009183897, -21.565885853556008 ], [ -50.416647183188999, -21.5658897994334 ], [ -50.416658125536202, -21.565893541554605 ], [ -50.4166692739336, -21.565897264369394 ], [ -50.416680933884997, -21.565901071938089 ], [ -50.416693124155501, -21.565904961645899 ], [ -50.416705798323598, -21.565908908134901 ], [ -50.416718909168203, -21.565912884772594 ], [ -50.416732410963498, -21.565916864239696 ], [ -50.416746261566502, -21.5659208188967 ], [ -50.416760415391202, -21.565924718456895 ], [ -50.4167748101044, -21.565928527432998 ], [ -50.4167895087988, -21.565932250662701 ], [ -50.416804614028699, -21.565935911273993 ], [ -50.416820266011001, -21.565939547415201 ], [ -50.416836652726097, -21.565943211489206 ], [ -50.416854008633003, -21.565946966800894 ], [ -50.416872603852497, -21.565950883166288 ], [ -50.416892965858302, -21.565955081709305 ], [ -50.416916492575808, -21.565959809695904 ], [ -50.416944616115501, -21.565965115824199 ], [ -50.416977748598903, -21.565970798391692 ], [ -50.417016297516, -21.565976691986101 ], [ -50.41706094762511, -21.565982712567287 ], [ -50.417112587461197, -21.565988823743101 ], [ -50.41717222787711, -21.565995009541698 ], [ -50.417239546768002, -21.566001132382389 ], [ -50.417326064523998, -21.566009001372699 ], [ -50.417412582290503, -21.566016870318393 ], [ -50.417499100067502, -21.566024739219309 ], [ -50.417544975616501, -21.566028911639794 ], [ -50.417528857899804, -21.566015822346493 ], [ -50.417492280592, -21.565984515367692 ], [ -50.417455112262203, -21.565951989696892 ], [ -50.417419615998099, -21.565919679246402 ], [ -50.4173823425267, -21.565888827186502 ], [ -50.417344527252105, -21.565858087084401 ], [ -50.417306640167098, -21.5658248630989 ], [ -50.417268483448503, -21.565794031539497 ], [ -50.417231441124002, -21.565763126365397 ], [ -50.417192676810799, -21.565731119380391 ], [ -50.417155911171797, -21.565698925081989 ], [ -50.4171187842366, -21.565665442270895 ], [ -50.417083040655598, -21.5656317850116 ], [ -50.417049328085199, -21.565599096262392 ], [ -50.417015236030998, -21.565567038196008 ], [ -50.416980651449997, -21.565536004011602 ], [ -50.416944566768002, -21.565504904080189 ], [ -50.416907932762598, -21.565473658962294 ], [ -50.416870853982999, -21.565442021005296 ], [ -50.4168345414041, -21.565409414326602 ], [ -50.416799319301397, -21.565377228620005 ], [ -50.416762928200598, -21.565345626554404 ], [ -50.416727237719002, -21.565314995807 ], [ -50.4166907817118, -21.565284723349698 ], [ -50.416652366633002, -21.565253646250003 ], [ -50.416613886453007, -21.5652209794622 ], [ -50.416577551429, -21.565189775998398 ], [ -50.416539872131899, -21.565157096776893 ], [ -50.416503595978497, -21.565125385043892 ], [ -50.416466147275202, -21.565093569162592 ], [ -50.416429359969101, -21.5650620758481 ], [ -50.416392420760005, -21.565031495470901 ], [ -50.416353954629898, -21.565000380722793 ], [ -50.4163162566038, -21.564969140220501 ], [ -50.416278986253403, -21.564936659045799 ], [ -50.416241692997097, -21.564903923610093 ], [ -50.416204796927097, -21.564871878813602 ], [ -50.4161669610803, -21.564841030897199 ], [ -50.416129397501798, -21.564809362330404 ], [ -50.416091584144901, -21.564777651524196 ], [ -50.416054303673597, -21.564746102883188 ], [ -50.416016281227897, -21.564714541452993 ], [ -50.415978561773301, -21.564683043087694 ], [ -50.4159406395639, -21.564651631960803 ], [ -50.415903349905399, -21.564619053057704 ], [ -50.415867741277303, -21.56458663956699 ], [ -50.415831385289998, -21.564556493064796 ], [ -50.415793733096002, -21.564525125584687 ], [ -50.415756775949298, -21.564492393325608 ], [ -50.415720629549497, -21.564460676821692 ], [ -50.4156840533376, -21.564429921675 ], [ -50.415646957630798, -21.564397777498506 ], [ -50.415609069297901, -21.564365066951503 ], [ -50.415572628182403, -21.564333821510804 ], [ -50.415536151805298, -21.564302196316792 ], [ -50.415499373968103, -21.564270481403298 ], [ -50.415478653159497, -21.564253046896589 ], [ -50.415412456723999, -21.564215204288303 ], [ -50.415369597353603, -21.564192837470497 ], [ -50.415324407144503, -21.564171230971898 ], [ -50.415278759695397, -21.564151850375005 ], [ -50.415234112996103, -21.564133415162988 ], [ -50.4151856813112, -21.564114428821295 ], [ -50.415139098849302, -21.564095893785794 ], [ -50.415090544151198, -21.564077579469505 ], [ -50.415042461806898, -21.564059982376904 ], [ -50.4149948786336, -21.564044149551098 ], [ -50.414946589530899, -21.564030158271994 ], [ -50.414897628521302, -21.564018253226802 ], [ -50.414847254311503, -21.564008937920502 ], [ -50.414796290152999, -21.564001213042197 ], [ -50.414765110794299, -21.563998183461997 ], [ -50.414763196147, -21.564025219677493 ], [ -50.414763049805799, -21.564071061150006 ], [ -50.414762928360602, -21.564119055345497 ], [ -50.414762593487303, -21.564166799961697 ], [ -50.414761394875399, -21.564213483771304 ], [ -50.414760468904298, -21.564258953632802 ], [ -50.414759421492299, -21.564307222849699 ], [ -50.414758331837298, -21.564353291390695 ], [ -50.414757282652502, -21.564400233601692 ], [ -50.414755404797198, -21.5644480054391 ], [ -50.4147522897199, -21.564495292215099 ], [ -50.414748859213603, -21.5645415987569 ], [ -50.414746489609698, -21.564588942014193 ], [ -50.414744568537799, -21.5646353673493 ], [ -50.41474342242249, -21.564652957361098 ], [ -50.4147588703172, -21.564659047974288 ], [ -50.414772667606499, -21.564664626466293 ], [ -50.4147865517863, -21.564670436169809 ], [ -50.414799770836609, -21.564676217426392 ], [ -50.4148120628005, -21.5646818979708 ], [ -50.414825029744499, -21.564688220943598 ], [ -50.414839320855499, -21.564695501807485 ], [ -50.414855781744997, -21.564704164713888 ], [ -50.414869207015599, -21.564711392937099 ], [ -50.414878126839, -21.564716270978607 ], [ -50.414887185648006, -21.564721328367 ], [ -50.414896573299998, -21.564726698180891 ], [ -50.414906467861996, -21.564732510869998 ], [ -50.4149170312648, -21.564738892434907 ], [ -50.414928407869802, -21.564745963253497 ], [ -50.414940772526897, -21.564753867844793 ], [ -50.414954399239406, -21.564762812967594 ], [ -50.414969335753, -21.564772828430602 ], [ -50.414985385446698, -21.564783769257897 ], [ -50.415002339862298, -21.564795475891795 ], [ -50.415020017407201, -21.564807802832593 ], [ -50.415038254609399, -21.564820614536192 ], [ -50.415056900956102, -21.564833782890005 ], [ -50.415075712943498, -21.564847112645602 ], [ -50.415094664618103, -21.564860566791399 ], [ -50.415113617527702, -21.5648740473267 ], [ -50.415132341153097, -21.56488739476961 ], [ -50.4151508798995, -21.564900645237593 ] ] ] } },
{ "type": "Feature", "properties": { "CHAVE": "1073834", "FAZENDA": "107383", "NOME_FAZ": "FAZENDA GUARANI", "ZONA": 1.0, "TALHAO": 4.0, "AREA_TOTAL": 2.951425784795755, "TIPO_GEO": "TALHAO", "DATA_INICI": null, "DATA_FINAL": null, "HORA_INICI": null, "HORA_FINAL": null, "CLASSE": null, "PILOTO": null, "AERONAVE": null, "AREA_HA": null }, "geometry": { "type": "Polygon", "coordinates": [ [ [ -50.414699968142898, -21.565749383435104 ], [ -50.414698588119101, -21.565795827490597 ], [ -50.4146968567388, -21.565842218415597 ], [ -50.414696034004109, -21.565887917544586 ], [ -50.414696033182103, -21.565934771254906 ], [ -50.4146960892934, -21.5659823783669 ], [ -50.414696977714399, -21.566030536065785 ], [ -50.414696359161702, -21.566078433456696 ], [ -50.414694842370103, -21.566123956231301 ], [ -50.414693272803099, -21.566170169697298 ], [ -50.414693162829899, -21.566182958037096 ], [ -50.414703673927598, -21.566184608040093 ], [ -50.414752317483597, -21.566191468982705 ], [ -50.414801133652603, -21.566198088566914 ], [ -50.414850648692102, -21.566204753601902 ], [ -50.414899127276797, -21.566210878089887 ], [ -50.414950958584299, -21.566217914552603 ], [ -50.4149994854005, -21.566224453011099 ], [ -50.415049587582601, -21.566230512108106 ], [ -50.4150990842898, -21.566237189863589 ], [ -50.415147782142697, -21.566243737304497 ], [ -50.415200517952002, -21.566250763155296 ], [ -50.415249037869899, -21.566256522889397 ], [ -50.415298743001202, -21.566262519995405 ], [ -50.415347759372096, -21.566268519541197 ], [ -50.415396069666699, -21.566275088215605 ], [ -50.415445356987497, -21.566281969996698 ], [ -50.4154964734185, -21.566288923571793 ], [ -50.415544379778702, -21.566295243966305 ], [ -50.415591980059297, -21.5663021058418 ], [ -50.4156399827081, -21.566307114198011 ], [ -50.415690790049503, -21.566311630906103 ], [ -50.415854810105898, -21.566334052768092 ], [ -50.41590571087, -21.566343304109896 ], [ -50.415956643305002, -21.566350847461294 ], [ -50.416004834493997, -21.566357088236281 ], [ -50.416053706370697, -21.566363279251092 ], [ -50.416101958782598, -21.566369741021798 ], [ -50.4161497470092, -21.566376101887393 ], [ -50.416201439554399, -21.566382740727995 ], [ -50.416249321796897, -21.566389069713807 ], [ -50.416300433382801, -21.566395053844989 ], [ -50.416351185903302, -21.566402435498496 ], [ -50.416400753715898, -21.566408578046701 ], [ -50.416449647015597, -21.566415806645292 ], [ -50.416498097871902, -21.566421669574698 ], [ -50.4165468012391, -21.566427573527793 ], [ -50.416595442743301, -21.566433351667797 ], [ -50.417398468399703, -21.566547281097787 ], [ -50.417640680637398, -21.566577067059601 ], [ -50.417765255488497, -21.566592576191493 ], [ -50.417833786608803, -21.566599239061393 ], [ -50.417968037236299, -21.566613480591698 ], [ -50.418018676594997, -21.566620682219902 ], [ -50.418069524230503, -21.566627089726598 ], [ -50.418119311560702, -21.5666329895685 ], [ -50.4181685625122, -21.566638026665004 ], [ -50.418219727097402, -21.566642200361603 ], [ -50.418268154754102, -21.566644559485496 ], [ -50.418277571889099, -21.566644847803893 ], [ -50.418239856582197, -21.566607100300487 ], [ -50.418205767708407, -21.566575423445393 ], [ -50.418168354580899, -21.566542025716501 ], [ -50.418133650316797, -21.566511016861202 ], [ -50.4180955032828, -21.566478750769996 ], [ -50.418056575026498, -21.566446275031897 ], [ -50.418020965173298, -21.566414527462094 ], [ -50.417983748482598, -21.566384189470003 ], [ -50.417946011115497, -21.566353951412498 ], [ -50.417907031361302, -21.566323462784599 ], [ -50.417867831539603, -21.566292367803801 ], [ -50.4178319683854, -21.566261171370186 ], [ -50.4177931625334, -21.566230566061797 ], [ -50.417755772149, -21.566202023747195 ], [ -50.417715339236203, -21.566171184051488 ], [ -50.417674912647499, -21.566140432649309 ], [ -50.417638298791303, -21.566108426884398 ], [ -50.417602509464899, -21.566077413867401 ], [ -50.417581659110297, -21.566059479747487 ], [ -50.417496296008608, -21.566051715910184 ], [ -50.417409778215898, -21.5660438470074 ], [ -50.417323260433498, -21.566035978060004 ], [ -50.4172367426618, -21.566028109067805 ], [ -50.417169229090298, -21.566021968520097 ], [ -50.41710917228481, -21.566015739534102 ], [ -50.417057061943801, -21.566009572677501 ], [ -50.417011893236499, -21.566003482168703 ], [ -50.416972798476998, -21.56599750512251 ], [ -50.416939138456002, -21.565991732076487 ], [ -50.416910584840799, -21.565986344804898 ], [ -50.4168868041058, -21.565981565770215 ], [ -50.4168663028995, -21.565977338524601 ], [ -50.416847561391101, -21.56597339134899 ], [ -50.416830019509199, -21.565969595797696 ], [ -50.416813405729698, -21.565965880951889 ], [ -50.416797488512799, -21.565962183193495 ], [ -50.416782088431297, -21.565958451127504 ], [ -50.4167670796107, -21.565954649341602 ], [ -50.416752378404709, -21.565950759264592 ], [ -50.416737938611803, -21.565946780916395 ], [ -50.416723827461901, -21.565942751867311 ], [ -50.4167100866078, -21.565938701940791 ], [ -50.416696753842501, -21.565934657992386 ], [ -50.416683870975497, -21.565930646518499 ], [ -50.416671481493303, -21.565926693245505 ], [ -50.416659627985702, -21.565922822470792 ], [ -50.416648279954501, -21.565919032991488 ], [ -50.416637091547997, -21.565915206721591 ], [ -50.416625593252, -21.565911146327199 ], [ -50.416613673623402, -21.565906764839688 ], [ -50.4166013993581, -21.565902046583894 ], [ -50.416588871924809, -21.565897007746187 ], [ -50.416576145537697, -21.565891667282092 ], [ -50.416563175875403, -21.565886018995489 ], [ -50.416549794920201, -21.565880009303001 ], [ -50.416535718582303, -21.565873528086396 ], [ -50.416520799853807, -21.565866511327489 ], [ -50.416505010549201, -21.5658589418872 ], [ -50.416488364531403, -21.565850819603689 ], [ -50.416470892082799, -21.565842150553998 ], [ -50.4164526337048, -21.565832944715488 ], [ -50.416433636472398, -21.565823214548399 ], [ -50.416413976395702, -21.565812986895295 ], [ -50.416393844708601, -21.565802354758404 ], [ -50.416373517254101, -21.565791478323689 ], [ -50.416353194584609, -21.565780482430597 ], [ -50.416333065580801, -21.565769484311598 ], [ -50.416313328166503, -21.565758605096494 ], [ -50.416294185100703, -21.565747967861398 ], [ -50.416275840414499, -21.565737695837612 ], [ -50.416258488352703, -21.565727906246877 ], [ -50.4162422337998, -21.565718663589205 ], [ -50.416226948792101, -21.565709893775395 ], [ -50.416212487958497, -21.565701510908092 ], [ -50.416198723452297, -21.56569343894509 ], [ -50.416185538869499, -21.565685608671291 ], [ -50.4161728299079, -21.565677958649495 ], [ -50.416160502979601, -21.565670435022898 ], [ -50.4161484038558, -21.565662947934094 ], [ -50.416136086986697, -21.565655214859905 ], [ -50.416122941506003, -21.565646805497693 ], [ -50.416108627063998, -21.5656374585405 ], [ -50.416092763716797, -21.565626901972788 ], [ -50.416074813749198, -21.565614767853091 ], [ -50.416054128954102, -21.565600614091892 ], [ -50.416030012674398, -21.565583962452301 ], [ -50.416001745240102, -21.565564315660197 ], [ -50.415968802040901, -21.565541304043691 ], [ -50.415931637472198, -21.565515214675905 ], [ -50.415891014397502, -21.565486543037089 ], [ -50.415847711145304, -21.565455795048397 ], [ -50.415802503250703, -21.565423474173198 ], [ -50.415756160464298, -21.565390079048495 ], [ -50.415709443103303, -21.565356100428691 ], [ -50.415663137330803, -21.565322046399995 ], [ -50.415618085811097, -21.565288492106706 ], [ -50.415574746871002, -21.565255836271696 ], [ -50.415533341125197, -21.565224328880095 ], [ -50.415494058074103, -21.565194196235701 ], [ -50.415457096374702, -21.56516567112881 ], [ -50.415422740771604, -21.565139052430112 ], [ -50.415390919207098, -21.565114361598507 ], [ -50.415362333744397, -21.565092218608395 ], [ -50.415336667143407, -21.565072437507801 ], [ -50.415313575976398, -21.565054759413695 ], [ -50.415292621223998, -21.565038838453102 ], [ -50.415273378826697, -21.5650243406469 ], [ -50.415255406993303, -21.565010919373297 ], [ -50.415238248311901, -21.564998217605698 ], [ -50.415221438208697, -21.564985874539904 ], [ -50.415204530853899, -21.5649735443134 ], [ -50.415187226494503, -21.564960990496502 ], [ -50.415169546187101, -21.564948220901403 ], [ -50.415151546371902, -21.564935271651194 ], [ -50.415133271135403, -21.56492216980379 ], [ -50.415114763868203, -21.564908941834197 ], [ -50.415096067359102, -21.564895613720292 ], [ -50.415077126952298, -21.564882142076581 ], [ -50.415058196333902, -21.564868702891985 ], [ -50.415039423912198, -21.564855401184591 ], [ -50.415020825422197, -21.564842266626894 ], [ -50.415002658703202, -21.564829504436801 ], [ -50.414985077236402, -21.564817244492289 ], [ -50.414968249080303, -21.564805625036698 ], [ -50.414952362610201, -21.564794795475496 ], [ -50.4149376363236, -21.564784920976408 ], [ -50.414924275445898, -21.564776150357496 ], [ -50.414912215231105, -21.564768440392182 ], [ -50.414901153311298, -21.564761565157191 ], [ -50.414890902506201, -21.564755372438388 ], [ -50.414881309819599, -21.564749737089592 ], [ -50.414872202555998, -21.564744527659801 ], [ -50.414863389927902, -21.564739607709999 ], [ -50.414854667928502, -21.564734837853386 ], [ -50.414845910823601, -21.564730122990497 ], [ -50.414837358535003, -21.564725568049298 ], [ -50.414829329981011, -21.564721342845395 ], [ -50.414821851445502, -21.564717464835091 ], [ -50.414814860461398, -21.564713903152096 ], [ -50.4148082834839, -21.564710620527208 ], [ -50.414802035134407, -21.56470757369171 ], [ -50.414796018524001, -21.56470471450881 ], [ -50.414790089412399, -21.564701974459805 ], [ -50.414783988493397, -21.564699235041605 ], [ -50.4147775846073, -21.564696434347898 ], [ -50.414770943171199, -21.564693596982597 ], [ -50.414764160973697, -21.564690759036203 ], [ -50.4147573263797, -21.564687951094193 ], [ -50.414750519786402, -21.564685199066005 ], [ -50.4147438132565, -21.564682524498391 ], [ -50.414741558150403, -21.564681635381884 ], [ -50.414740446023302, -21.564727271372099 ], [ -50.4147388335101, -21.564774460887605 ], [ -50.414737122462299, -21.564820244009692 ], [ -50.4147366457168, -21.5648668711688 ], [ -50.414736384194697, -21.564912305534506 ], [ -50.414735142721298, -21.564958012911102 ], [ -50.414733216676098, -21.565003528233902 ], [ -50.414731341923201, -21.565050422918596 ], [ -50.414728087955702, -21.565095965021499 ], [ -50.414725518342799, -21.565142667151303 ], [ -50.414723400661401, -21.565188391417504 ], [ -50.414721447464203, -21.565234062535893 ], [ -50.414719883696698, -21.565279789905979 ], [ -50.414719011712798, -21.565326714395994 ], [ -50.414716715889398, -21.565373131027705 ], [ -50.414714934228897, -21.565420328521 ], [ -50.414713192227403, -21.565466741370198 ], [ -50.414711733250002, -21.565512217771289 ], [ -50.4147107593502, -21.565559157041907 ], [ -50.414708490846003, -21.565610014690989 ], [ -50.414703978489698, -21.565658984018199 ], [ -50.4147009524306, -21.565704243499699 ], [ -50.414699968142898, -21.565749383435104 ] ] ] } },
{ "type": "Feature", "properties": { "CHAVE": null, "FAZENDA": "Faz. ABC", "NOME_FAZ": null, "ZONA": null, "TALHAO": null, "AREA_TOTAL": null, "TIPO_GEO": "VOO_PROCESSADO", "DATA_INICI": "23-03-2026", "DATA_FINAL": "23-03-2026", "HORA_INICI": "11:08:08", "HORA_FINAL": "11:08:08", "CLASSE": "NÃO APLICADO DENTRO DO TALHÃO", "PILOTO": "valmir alves", "AERONAVE": "PS-CBA", "AREA_HA": 0.000104457425159 }, "geometry": { "type": "MultiPolygon", "coordinates": [ [ [ [ -50.416830601954203, -21.566301264580908 ], [ -50.416811667803437, -21.566285594929528 ], [ -50.416649741426859, -21.566441055304693 ], [ -50.416701613155894, -21.566448414616904 ], [ -50.417078914686236, -21.566501944349042 ], [ -50.417006812257753, -21.566443256291379 ], [ -50.416919147027023, -21.56637252634804 ], [ -50.41683222688863, -21.566302590563918 ], [ -50.416830601954203, -21.566301264580908 ] ] ], [ [ [ -50.418018676594997, -21.566620682219902 ], [ -50.418069524230503, -21.566627089726598 ], [ -50.418119311560702, -21.5666329895685 ], [ -50.4181685625122, -21.566638026665004 ], [ -50.418219727097402, -21.566642200361603 ], [ -50.418268154754102, -21.566644559485496 ], [ -50.418277571889099, -21.566644847803893 ], [ -50.418239856582197, -21.566607100300487 ], [ -50.418205767708407, -21.566575423445393 ], [ -50.418168354580899, -21.566542025716501 ], [ -50.418133650316797, -21.566511016861202 ], [ -50.4180955032828, -21.566478750769996 ], [ -50.418056575026498, -21.566446275031897 ], [ -50.418020965173298, -21.566414527462094 ], [ -50.417983748482598, -21.566384189470003 ], [ -50.417946011115497, -21.566353951412498 ], [ -50.417907031361302, -21.566323462784599 ], [ -50.417867831539603, -21.566292367803801 ], [ -50.4178319683854, -21.566261171370186 ], [ -50.4177931625334, -21.566230566061797 ], [ -50.417755772149, -21.566202023747195 ], [ -50.417715339236203, -21.566171184051488 ], [ -50.417674912647499, -21.566140432649309 ], [ -50.417638298791303, -21.566108426884398 ], [ -50.417602509464899, -21.566077413867401 ], [ -50.417581659110297, -21.566059479747487 ], [ -50.417520182424518, -21.566053888397416 ], [ -50.417532726560864, -21.566064702301119 ], [ -50.417534037732487, -21.566065845846701 ], [ -50.417619037817779, -21.566140845872177 ], [ -50.417703709835301, -21.566215556426489 ], [ -50.417788892975736, -21.566289844000593 ], [ -50.417823402002007, -21.566319423147 ], [ -50.417827263461753, -21.566322849244521 ], [ -50.417876263462134, -21.566367849213201 ], [ -50.417659736384607, -21.566574150711734 ], [ -50.417612635574727, -21.566530894836276 ], [ -50.417579597842057, -21.56650257676116 ], [ -50.41757861979508, -21.566501731152972 ], [ -50.417492619789726, -21.566426731099344 ], [ -50.417491962033019, -21.5664261541089 ], [ -50.417406962118314, -21.566351154134363 ], [ -50.417322614154763, -21.566276729411676 ], [ -50.417236596769577, -21.566202576445583 ], [ -50.417148921943593, -21.566127853535164 ], [ -50.417148070348766, -21.566127122271482 ], [ -50.417059120503296, -21.566050165614008 ], [ -50.417003597453927, -21.566002213858674 ], [ -50.416972798476998, -21.56599750512251 ], [ -50.416939138456002, -21.565991732076487 ], [ -50.416917270619585, -21.565987606225072 ], [ -50.41694693234971, -21.566011537833965 ], [ -50.416948397904555, -21.566012735404183 ], [ -50.417034590371493, -21.566084067058373 ], [ -50.417120772945019, -21.566153409318193 ], [ -50.417120932601463, -21.566153537954477 ], [ -50.417208932587279, -21.566224537901718 ], [ -50.417209441633219, -21.56622495042167 ], [ -50.417295441620304, -21.566294950369866 ], [ -50.417100093553252, -21.566504949105145 ], [ -50.417398468399703, -21.566547281097787 ], [ -50.417640680637398, -21.566577067059601 ], [ -50.417765255488497, -21.566592576191493 ], [ -50.417833786608803, -21.566599239061393 ], [ -50.417968037236299, -21.566613480591698 ], [ -50.418018676594997, -21.566620682219902 ] ] ], [ [ [ -50.417011893236499, -21.566003482168703 ], [ -50.417003597453927, -21.566002213858667 ], [ -50.417003597453927, -21.566002213858674 ], [ -50.417011893236499, -21.566003482168703 ] ] ], [ [ [ -50.414693272803099, -21.566170169697298 ], [ -50.414693162829899, -21.566182958037096 ], [ -50.414703673927598, -21.566184608040093 ], [ -50.414752317483597, -21.566191468982705 ], [ -50.414801133652603, -21.566198088566914 ], [ -50.414850648692102, -21.566204753601902 ], [ -50.414899127276797, -21.566210878089887 ], [ -50.414950958584299, -21.566217914552603 ], [ -50.4149994854005, -21.566224453011099 ], [ -50.415049587582601, -21.566230512108106 ], [ -50.4150990842898, -21.566237189863589 ], [ -50.415147782142697, -21.566243737304497 ], [ -50.415172845349197, -21.566247076408445 ], [ -50.415154992014479, -21.566231182575464 ], [ -50.415068525201015, -21.566155648297809 ], [ -50.415067144467756, -21.566154427186554 ], [ -50.414981144465436, -21.56607742713226 ], [ -50.414979780271523, -21.566076190583008 ], [ -50.414895776853946, -21.565999105040483 ], [ -50.414809790932182, -21.565923002506498 ], [ -50.414807780449117, -21.565921190636907 ], [ -50.414722780449701, -21.565843190582605 ], [ -50.414912127915649, -21.565662641909022 ], [ -50.414908258842367, -21.565659285602329 ], [ -50.414824598878276, -21.565587577015798 ], [ -50.414824337037757, -21.5655873520619 ], [ -50.414788337034921, -21.565556352039593 ], [ -50.414787604885703, -21.565555717478915 ], [ -50.414740604882788, -21.565514717449613 ], [ -50.414951394964099, -21.565303282478933 ], [ -50.414998029981902, -21.565343964063757 ], [ -50.415033532027749, -21.565374535250264 ], [ -50.415117400961641, -21.565446422862042 ], [ -50.415118079182591, -21.565447007686274 ], [ -50.415200684367726, -21.565518665150115 ], [ -50.4152832870097, -21.565589325196321 ], [ -50.415283401211916, -21.565589422985557 ], [ -50.41536740120479, -21.565661422933623 ], [ -50.41536876258516, -21.56566260398149 ], [ -50.415450714385884, -21.565734561612761 ], [ -50.415531762747676, -21.565805604029887 ], [ -50.415613369791579, -21.565877258948287 ], [ -50.415694974270394, -21.565947916438908 ], [ -50.415697841986223, -21.565950463962004 ], [ -50.415775372810764, -21.566021124918432 ], [ -50.415854866153182, -21.566089822823457 ], [ -50.415857842148753, -21.566092464011152 ], [ -50.415936842148554, -21.56616446396086 ], [ -50.415771992131674, -21.566322731389302 ], [ -50.415854810105898, -21.566334052768092 ], [ -50.41590571087, -21.566343304109896 ], [ -50.415956643305002, -21.566350847461294 ], [ -50.416004834493997, -21.566357088236281 ], [ -50.416053706370697, -21.566363279251092 ], [ -50.416101958782598, -21.566369741021798 ], [ -50.4161497470092, -21.566376101887393 ], [ -50.416201439554399, -21.566382740727995 ], [ -50.416249321796897, -21.566389069713807 ], [ -50.416300433382801, -21.566395053844989 ], [ -50.416351185903302, -21.566402435498496 ], [ -50.416400753715898, -21.566408578046701 ], [ -50.416449647015597, -21.566415806645292 ], [ -50.416498097871902, -21.566421669574698 ], [ -50.4165468012391, -21.566427573527793 ], [ -50.416595442743301, -21.566433351667797 ], [ -50.416643457584392, -21.566440163783241 ], [ -50.416569283982248, -21.566372562479252 ], [ -50.416490432458943, -21.566303567350364 ], [ -50.416487455088642, -21.566300891496876 ], [ -50.416410924745698, -21.566230248054293 ], [ -50.41635526878742, -21.566181549058161 ], [ -50.416158605599954, -21.566365101284912 ], [ -50.41611196609103, -21.566321376714168 ], [ -50.416076360142107, -21.566289620035192 ], [ -50.41607536147152, -21.566288721297084 ], [ -50.415988714419925, -21.566210041736252 ], [ -50.415902069540465, -21.566132360067108 ], [ -50.415900031428961, -21.566130498779636 ], [ -50.415814661150421, -21.566051084510583 ], [ -50.415727298024976, -21.565971663431895 ], [ -50.415726666777786, -21.565971086281539 ], [ -50.415639981611982, -21.565891375728302 ], [ -50.415552611126351, -21.565811947958995 ], [ -50.415463925754892, -21.565732230716545 ], [ -50.415463298391458, -21.565731663598605 ], [ -50.415375920552115, -21.565652229144565 ], [ -50.415286549459054, -21.565572788119162 ], [ -50.415284559063885, -21.565570986854301 ], [ -50.415195927655361, -21.56548932639798 ], [ -50.415108298667683, -21.565409663626365 ], [ -50.415107612681879, -21.565409036116662 ], [ -50.415020265708677, -21.565328637141882 ], [ -50.4149322372824, -21.565249510412322 ], [ -50.414842549917907, -21.56516978825681 ], [ -50.414841299035317, -21.565168663793379 ], [ -50.414753577368764, -21.565088916768694 ], [ -50.414730101180915, -21.565067788185136 ], [ -50.414728087955702, -21.565095965021499 ], [ -50.414725518342799, -21.565142667151303 ], [ -50.414723400661401, -21.565188391417504 ], [ -50.414721447464203, -21.565234062535893 ], [ -50.414719883696698, -21.565279789905979 ], [ -50.414719011712798, -21.565326714395994 ], [ -50.414716715889398, -21.565373131027705 ], [ -50.414714934228897, -21.565420328521 ], [ -50.414713192227403, -21.565466741370198 ], [ -50.414711733250002, -21.565512217771289 ], [ -50.4147107593502, -21.565559157041907 ], [ -50.414708490846003, -21.565610014690989 ], [ -50.414703978489698, -21.565658984018199 ], [ -50.4147009524306, -21.565704243499699 ], [ -50.414699968142898, -21.565749383435104 ], [ -50.414698588119101, -21.565795827490597 ], [ -50.4146968567388, -21.565842218415597 ], [ -50.414696034004109, -21.565887917544586 ], [ -50.414696033182103, -21.565934771254906 ], [ -50.4146960892934, -21.5659823783669 ], [ -50.414696977714399, -21.566030536065785 ], [ -50.414696359161702, -21.566078433456696 ], [ -50.414694842370103, -21.566123956231301 ], [ -50.414693272803099, -21.566170169697298 ] ] ], [ [ [ -50.416883432216551, -21.565897441898812 ], [ -50.416794447917106, -21.565822299554011 ], [ -50.416793703905398, -21.565821667155891 ], [ -50.416703703897532, -21.565744667100283 ], [ -50.416702342898105, -21.565743488580019 ], [ -50.416614329854497, -21.565666353503033 ], [ -50.416524332839586, -21.565590202134459 ], [ -50.416522255005049, -21.565588411387719 ], [ -50.416433341945186, -21.565510365428974 ], [ -50.416344702372257, -21.565435514186873 ], [ -50.416252957392906, -21.565358727580705 ], [ -50.416251599203228, -21.565357577199428 ], [ -50.416161274740084, -21.565280156182233 ], [ -50.416070331381107, -21.565204040497836 ], [ -50.415978707345865, -21.565128351031525 ], [ -50.415977333457846, -21.56512720236848 ], [ -50.415886644879336, -21.565050465831277 ], [ -50.415794957923296, -21.564973727788075 ], [ -50.415703331725986, -21.564897040597828 ], [ -50.415611707690182, -21.564821351131052 ], [ -50.415611577882984, -21.564821243777633 ], [ -50.415518642837398, -21.5647442975106 ], [ -50.415514970080601, -21.564741263492298 ], [ -50.415584218470151, -21.564804809028015 ], [ -50.415669218470732, -21.564882808973724 ], [ -50.415669918949085, -21.564883455872661 ], [ -50.415754182480953, -21.564961771334982 ], [ -50.41583743624426, -21.565037096116047 ], [ -50.415838919127019, -21.565038455926974 ], [ -50.41592357007903, -21.565117131461598 ], [ -50.416008218828054, -21.565194809082339 ], [ -50.416009524485666, -21.565196021564347 ], [ -50.416091524023066, -21.565273081315247 ], [ -50.416175142809749, -21.565348830045743 ], [ -50.416259778053195, -21.565424503858999 ], [ -50.416260505454481, -21.565425158506269 ], [ -50.416344860681143, -21.565501574365214 ], [ -50.41643003956257, -21.565576962520691 ], [ -50.416514847634836, -21.565648950722121 ], [ -50.416515726173962, -21.565649702250202 ], [ -50.41660267348886, -21.565724656783914 ], [ -50.416687124508904, -21.565797323895179 ], [ -50.416772592555937, -21.565867073638401 ], [ -50.416774964387699, -21.565869049789338 ], [ -50.416860465967538, -21.56594177522631 ], [ -50.416871454719285, -21.565950641145729 ], [ -50.416872603852497, -21.565950883166288 ], [ -50.416892965858302, -21.565955081709305 ], [ -50.416916492575808, -21.565959809695904 ], [ -50.416944616115501, -21.565965115824199 ], [ -50.416964713028143, -21.565968562654945 ], [ -50.416883432216551, -21.565897441898812 ] ] ], [ [ [ -50.4173823425267, -21.565888827186502 ], [ -50.417344527252105, -21.565858087084401 ], [ -50.417306640167098, -21.5658248630989 ], [ -50.417268483448503, -21.565794031539497 ], [ -50.417231441124002, -21.565763126365397 ], [ -50.417192676810799, -21.565731119380391 ], [ -50.417155911171797, -21.565698925081989 ], [ -50.4171187842366, -21.565665442270895 ], [ -50.417083040655598, -21.5656317850116 ], [ -50.417049328085199, -21.565599096262392 ], [ -50.417015236030998, -21.565567038196008 ], [ -50.416980651449997, -21.565536004011602 ], [ -50.416944566768002, -21.565504904080189 ], [ -50.416907932762598, -21.565473658962294 ], [ -50.416870853982999, -21.565442021005296 ], [ -50.4168345414041, -21.565409414326602 ], [ -50.416799319301397, -21.565377228620005 ], [ -50.416762928200598, -21.565345626554404 ], [ -50.416727237719002, -21.565314995807 ], [ -50.4166907817118, -21.565284723349698 ], [ -50.416652366633002, -21.565253646250003 ], [ -50.416613886453007, -21.5652209794622 ], [ -50.416577551429, -21.565189775998398 ], [ -50.416539872131899, -21.565157096776893 ], [ -50.416503595978497, -21.565125385043892 ], [ -50.416466147275202, -21.565093569162592 ], [ -50.416429359969101, -21.5650620758481 ], [ -50.416392420760005, -21.565031495470901 ], [ -50.416353954629898, -21.565000380722793 ], [ -50.4163162566038, -21.564969140220501 ], [ -50.416278986253403, -21.564936659045799 ], [ -50.416241692997097, -21.564903923610093 ], [ -50.416204796927097, -21.564871878813602 ], [ -50.4161669610803, -21.564841030897199 ], [ -50.416129397501798, -21.564809362330404 ], [ -50.416091584144901, -21.564777651524196 ], [ -50.416054303673597, -21.564746102883188 ], [ -50.416016281227897, -21.564714541452993 ], [ -50.415978561773301, -21.564683043087694 ], [ -50.4159406395639, -21.564651631960803 ], [ -50.415903349905399, -21.564619053057704 ], [ -50.415867741277303, -21.56458663956699 ], [ -50.415831385289998, -21.564556493064796 ], [ -50.415793733096002, -21.564525125584687 ], [ -50.415756775949298, -21.564492393325608 ], [ -50.415720629549497, -21.564460676821692 ], [ -50.4156840533376, -21.564429921675 ], [ -50.415646957630798, -21.564397777498506 ], [ -50.415609069297901, -21.564365066951503 ], [ -50.415572628182403, -21.564333821510804 ], [ -50.415536151805298, -21.564302196316792 ], [ -50.415499373968103, -21.564270481403298 ], [ -50.415478653159497, -21.564253046896589 ], [ -50.415412456723999, -21.564215204288303 ], [ -50.415369597353603, -21.564192837470497 ], [ -50.415324407144503, -21.564171230971898 ], [ -50.415278759695397, -21.564151850375005 ], [ -50.415269262335556, -21.564147928789637 ], [ -50.415357291629292, -21.564220648596393 ], [ -50.415358665705973, -21.564221797415779 ], [ -50.415449354363133, -21.564298533924138 ], [ -50.415541041493078, -21.564375272018111 ], [ -50.415541665879672, -21.564375797466543 ], [ -50.415631982589005, -21.564452219250288 ], [ -50.41572329197357, -21.564527648695925 ], [ -50.415723421976502, -21.564527756211085 ], [ -50.415816357094045, -21.564604702444697 ], [ -50.415908292145204, -21.564680648745494 ], [ -50.415909041934661, -21.564681272199589 ], [ -50.416001042021279, -21.564758272224772 ], [ -50.416093042010658, -21.564835272168562 ], [ -50.416093666398595, -21.564835797618116 ], [ -50.41618398310608, -21.564912219400298 ], [ -50.416275292489509, -21.564987648845012 ], [ -50.41627604228006, -21.564988272300024 ], [ -50.416368042269433, -21.565065272243814 ], [ -50.416369400651547, -21.565066422786632 ], [ -50.416459725194436, -21.565143843774599 ], [ -50.416551042443793, -21.565220272294539 ], [ -50.41655155149396, -21.56522070024922 ], [ -50.416641551484588, -21.565296700193976 ], [ -50.416643744846652, -21.565298588596693 ], [ -50.416732714675078, -21.565376684284267 ], [ -50.416822666998364, -21.565452797740331 ], [ -50.416824656953743, -21.565454511403846 ], [ -50.416912980228958, -21.565531918268814 ], [ -50.417001925035464, -21.56560801544363 ], [ -50.417091551920734, -21.565683700321593 ], [ -50.41709356694394, -21.565685432430215 ], [ -50.417181199159053, -21.565762110568414 ], [ -50.417268929504687, -21.565837877712926 ], [ -50.417357505162663, -21.56591451053643 ], [ -50.41744507789538, -21.565989146340765 ], [ -50.417445726567614, -21.565989702355054 ], [ -50.41748486780196, -21.566023444776803 ], [ -50.417499100067502, -21.566024739219309 ], [ -50.417544975616501, -21.566028911639794 ], [ -50.417528857899804, -21.566015822346493 ], [ -50.417492280592, -21.565984515367692 ], [ -50.417455112262203, -21.565951989696892 ], [ -50.417419615998099, -21.565919679246402 ], [ -50.4173823425267, -21.565888827186502 ] ] ], [ [ [ -50.415200517952002, -21.566250763155296 ], [ -50.415172845349204, -21.566247076408445 ], [ -50.415172845349197, -21.566247076408445 ], [ -50.415200517952002, -21.566250763155296 ] ] ], [ [ [ -50.4156399827081, -21.566307114198011 ], [ -50.415651606561724, -21.566308147543825 ], [ -50.415643626955529, -21.566300874986378 ], [ -50.415564133687774, -21.566232177055461 ], [ -50.415561157860715, -21.566229536013765 ], [ -50.415483574292679, -21.56615882689082 ], [ -50.415430568073873, -21.56611293123207 ], [ -50.415396268167008, -21.566146643891379 ], [ -50.415377994595268, -21.566135386788392 ], [ -50.415318756687007, -21.566264969646863 ], [ -50.415347759372096, -21.566268519541197 ], [ -50.415396069666699, -21.566275088215605 ], [ -50.415445356987497, -21.566281969996698 ], [ -50.4154964734185, -21.566288923571793 ], [ -50.415544379778702, -21.566295243966305 ], [ -50.415591980059297, -21.5663021058418 ], [ -50.4156399827081, -21.566307114198011 ] ] ], [ [ [ -50.414731341923201, -21.565050422918596 ], [ -50.414730101180915, -21.565067788185136 ], [ -50.414730101180915, -21.565067788185136 ], [ -50.414731341923201, -21.565050422918596 ] ] ], [ [ [ -50.414845910823601, -21.564730122990497 ], [ -50.414837358535003, -21.564725568049298 ], [ -50.414829329981011, -21.564721342845395 ], [ -50.414821851445502, -21.564717464835091 ], [ -50.414814860461398, -21.564713903152096 ], [ -50.4148082834839, -21.564710620527208 ], [ -50.414802035134407, -21.56470757369171 ], [ -50.414796018524001, -21.56470471450881 ], [ -50.414790089412399, -21.564701974459805 ], [ -50.414783988493397, -21.564699235041605 ], [ -50.4147775846073, -21.564696434347898 ], [ -50.414770943171199, -21.564693596982597 ], [ -50.414764160973697, -21.564690759036203 ], [ -50.4147573263797, -21.564687951094193 ], [ -50.414750519786402, -21.564685199066005 ], [ -50.4147438132565, -21.564682524498391 ], [ -50.414741558150403, -21.564681635381884 ], [ -50.414740446023302, -21.564727271372099 ], [ -50.4147388335101, -21.564774460887605 ], [ -50.414737122462299, -21.564820244009692 ], [ -50.4147366457168, -21.5648668711688 ], [ -50.414736384194697, -21.564912305534506 ], [ -50.414735677001808, -21.564938342283781 ], [ -50.414878142789959, -21.564799831493822 ], [ -50.414886477541785, -21.564807332765337 ], [ -50.414923026415337, -21.56477535186572 ], [ -50.414912215231105, -21.564768440392182 ], [ -50.414901153311298, -21.564761565157191 ], [ -50.414890902506201, -21.564755372438388 ], [ -50.414881309819599, -21.564749737089592 ], [ -50.414872202555998, -21.564744527659801 ], [ -50.414863389927902, -21.564739607709999 ], [ -50.414854667928502, -21.564734837853386 ], [ -50.414845910823601, -21.564730122990497 ] ] ], [ [ [ -50.414757282652502, -21.564400233601692 ], [ -50.414755404797198, -21.5644480054391 ], [ -50.4147522897199, -21.564495292215099 ], [ -50.414748859213603, -21.5645415987569 ], [ -50.414746489609698, -21.564588942014193 ], [ -50.414744568537799, -21.5646353673493 ], [ -50.41474342242249, -21.564652957361098 ], [ -50.4147588703172, -21.564659047974288 ], [ -50.414772667606499, -21.564664626466293 ], [ -50.4147865517863, -21.564670436169809 ], [ -50.414799770836609, -21.564676217426392 ], [ -50.4148120628005, -21.5646818979708 ], [ -50.414825029744499, -21.564688220943598 ], [ -50.414839320855499, -21.564695501807485 ], [ -50.414855781744997, -21.564704164713888 ], [ -50.414869207015599, -21.564711392937099 ], [ -50.414878126839, -21.564716270978607 ], [ -50.414887185648006, -21.564721328367 ], [ -50.414896573299998, -21.564726698180891 ], [ -50.414906467861996, -21.564732510869998 ], [ -50.4149170312648, -21.564738892434907 ], [ -50.414928407869802, -21.564745963253497 ], [ -50.414940772526897, -21.564753867844793 ], [ -50.414944661543935, -21.564756420752168 ], [ -50.415020020612786, -21.564690480257131 ], [ -50.414946222854482, -21.564624496334204 ], [ -50.415144435528603, -21.564430517371296 ], [ -50.415060708206099, -21.56436135128013 ], [ -50.415058497651479, -21.564359489439351 ], [ -50.414966971891346, -21.564280896617248 ], [ -50.414877449740011, -21.56420530008651 ], [ -50.414876705733761, -21.564204667693009 ], [ -50.414786705725909, -21.564127667637408 ], [ -50.414785974808197, -21.564127038247673 ], [ -50.414762958635642, -21.564107090885219 ], [ -50.414762928360602, -21.564119055345497 ], [ -50.414762593487303, -21.564166799961697 ], [ -50.414761394875399, -21.564213483771304 ], [ -50.414760468904298, -21.564258953632802 ], [ -50.414759421492299, -21.564307222849699 ], [ -50.414758331837298, -21.564353291390695 ], [ -50.414757282652502, -21.564400233601692 ] ] ] ] } },
{ "type": "Feature", "properties": { "CHAVE": null, "FAZENDA": "Faz. ABC", "NOME_FAZ": null, "ZONA": null, "TALHAO": null, "AREA_TOTAL": null, "TIPO_GEO": "VOO_PROCESSADO", "DATA_INICI": "23-03-2026", "DATA_FINAL": "23-03-2026", "HORA_INICI": "11:08:08", "HORA_FINAL": "11:08:08", "CLASSE": "APLICADO FORA DO TALHÃO", "PILOTO": "valmir alves", "AERONAVE": "PS-CBA", "AREA_HA": 2.994067167e-06 }, "geometry": { "type": "MultiPolygon", "coordinates": [ [ [ [ -50.415708119286684, -21.566359652847293 ], [ -50.415721157698187, -21.56637153596462 ], [ -50.415730367222508, -21.566362694183713 ], [ -50.415708119286684, -21.566359652847293 ] ] ], [ [ [ -50.415287240154314, -21.566333912027119 ], [ -50.415299033631413, -21.566308113809054 ], [ -50.415292565245963, -21.566307322086264 ], [ -50.415292477368055, -21.56630731140681 ], [ -50.41524295810742, -21.566301336726436 ], [ -50.415242860094359, -21.566301324996132 ], [ -50.415232385332828, -21.56630008155123 ], [ -50.415236463551082, -21.566303712162576 ], [ -50.415282240150674, -21.566331912025234 ], [ -50.415287240154314, -21.566333912027119 ] ] ], [ [ [ -50.414684964806092, -21.565001692314176 ], [ -50.414685584675247, -21.564987043995348 ], [ -50.414663857056809, -21.565008168432538 ], [ -50.414683981684682, -21.565026280610049 ], [ -50.414684964806092, -21.565001692314176 ] ] ], [ [ [ -50.41471477644604, -21.564065332960531 ], [ -50.414714889440333, -21.564029941096639 ], [ -50.414695974801859, -21.564049038191712 ], [ -50.41471477644604, -21.564065332960531 ] ] ], [ [ [ -50.414800593306389, -21.563956214944564 ], [ -50.414804695440502, -21.563956724705346 ], [ -50.414854567071529, -21.563964283983683 ], [ -50.414857028622322, -21.563964698008299 ], [ -50.414906293370386, -21.563973808150202 ], [ -50.414910468646582, -21.56397470099536 ], [ -50.414958200368197, -21.563986307134222 ], [ -50.41496140882338, -21.563987161526551 ], [ -50.415008689464159, -21.564000860613337 ], [ -50.415011533651374, -21.564001745417126 ], [ -50.415058291385684, -21.564017303585491 ], [ -50.415060407305923, -21.564018042596814 ], [ -50.415108022665144, -21.564035468781949 ], [ -50.415108719554908, -21.564035727726864 ], [ -50.41515694677345, -21.564053918520241 ], [ -50.415158211203128, -21.564054408490257 ], [ -50.415161583709448, -21.564055750401302 ], [ -50.415084923209626, -21.563991014908662 ], [ -50.414995660661454, -21.563914645888133 ], [ -50.414906025045092, -21.563836961737273 ], [ -50.41478902455335, -21.56395509085284 ], [ -50.414800593306389, -21.563956214944564 ] ] ] ] } },
{ "type": "Feature", "properties": { "CHAVE": null, "FAZENDA": "Faz. ABC", "NOME_FAZ": null, "ZONA": null, "TALHAO": null, "AREA_TOTAL": null, "TIPO_GEO": "VOO_PROCESSADO", "DATA_INICI": "23-03-2026", "DATA_FINAL": "23-03-2026", "HORA_INICI": "11:08:08", "HORA_FINAL": "11:08:08", "CLASSE": "SOBREPOSIÇÃO", "PILOTO": "valmir alves", "AERONAVE": "PS-CBA", "AREA_HA": 3.6175051558000001e-05 }, "geometry": { "type": "MultiPolygon", "coordinates": [ [ [ [ -50.415074655707897, -21.565802625863803 ], [ -50.415157914159302, -21.565873990296566 ], [ -50.415239237266064, -21.565945395997907 ], [ -50.415320285381149, -21.566016438292166 ], [ -50.415402237103557, -21.5660883959495 ], [ -50.41540302557069, -21.566089083439195 ], [ -50.415430568073873, -21.56611293123207 ], [ -50.415449536295711, -21.566094287764528 ], [ -50.415367536298554, -21.566021287816181 ], [ -50.415366474640663, -21.566020351576348 ], [ -50.415280169025458, -21.565944958215194 ], [ -50.415195541540783, -21.565869187146603 ], [ -50.415111219574634, -21.56579180939627 ], [ -50.415109208910934, -21.565789997366402 ], [ -50.415023222904651, -21.56571389486059 ], [ -50.414939219397041, -21.565636809342376 ], [ -50.414912127915649, -21.565662641909022 ], [ -50.414990920670093, -21.565730992294281 ], [ -50.414991712830108, -21.565731674682311 ], [ -50.415074655707897, -21.565802625863803 ] ] ], [ [ [ -50.414831061558061, -21.564884814367083 ], [ -50.414910061567362, -21.564950814415305 ], [ -50.414911408471163, -21.564951926578523 ], [ -50.414997331746569, -21.565022047914454 ], [ -50.415081272572593, -21.565093150775571 ], [ -50.415082206165934, -21.565093935154131 ], [ -50.415165737587017, -21.565163544714512 ], [ -50.415250272412379, -21.565235150728721 ], [ -50.415251603061975, -21.565236264845275 ], [ -50.415338336636921, -21.565308044399135 ], [ -50.41542307129761, -21.565378822805961 ], [ -50.415423885373386, -21.565379497995458 ], [ -50.415507385821947, -21.565448263112945 ], [ -50.415588920896731, -21.565518992379289 ], [ -50.41559107104807, -21.565520822684487 ], [ -50.41567567024039, -21.56559148793573 ], [ -50.415760271929479, -21.565663150587518 ], [ -50.415761205525293, -21.565663934968182 ], [ -50.415844052675972, -21.565732974303316 ], [ -50.415925920573486, -21.565803992283747 ], [ -50.416008920491869, -21.565875992259585 ], [ -50.416089931011058, -21.565946135645085 ], [ -50.416168855987628, -21.566017168171829 ], [ -50.416170237083037, -21.566018395911353 ], [ -50.416251935971609, -21.566090131568316 ], [ -50.416331636373627, -21.566160865722296 ], [ -50.416332432620131, -21.566161567398389 ], [ -50.41635526878742, -21.566181549058161 ], [ -50.416377394246837, -21.56616089863855 ], [ -50.416329394245068, -21.566115898669519 ], [ -50.416326639703477, -21.566113379868472 ], [ -50.416290141193869, -21.566080827165809 ], [ -50.416203638375883, -21.56600227868395 ], [ -50.416202930304109, -21.566001639804533 ], [ -50.416116958531354, -21.56592456171655 ], [ -50.416031968415567, -21.565845501199668 ], [ -50.416030701821221, -21.565844336437777 ], [ -50.415943018325805, -21.565764624224716 ], [ -50.415856333068113, -21.565684913698909 ], [ -50.415855701638264, -21.56568433638239 ], [ -50.415767701638806, -21.565604336438366 ], [ -50.415767074089942, -21.565603769153586 ], [ -50.415678388629019, -21.56552405193996 ], [ -50.415590701455827, -21.565444336383006 ], [ -50.415589450384452, -21.565443211751418 ], [ -50.415500454212911, -21.565364104097227 ], [ -50.415412440781751, -21.56528301312736 ], [ -50.415411701178535, -21.565282336243296 ], [ -50.415324045213346, -21.565202649057738 ], [ -50.415236387163894, -21.565121963864389 ], [ -50.415235073538788, -21.565120768987519 ], [ -50.415146073540704, -21.565040769043822 ], [ -50.415145449925582, -21.565040211613766 ], [ -50.415056078744051, -21.564960770617297 ], [ -50.414968700811968, -21.564881336188211 ], [ -50.414968142788176, -21.564880831436838 ], [ -50.414886477541785, -21.564807332765337 ], [ -50.414815145257101, -21.564869749754244 ], [ -50.414821145256319, -21.564875749758215 ], [ -50.414831061558061, -21.564884814367083 ] ] ], [ [ [ -50.415198773637293, -21.56485326603778 ], [ -50.415280783862521, -21.564931324020097 ], [ -50.415282781465926, -21.564933190924116 ], [ -50.41536778146407, -21.565011190977234 ], [ -50.415452430035664, -21.565088868544855 ], [ -50.415537080895589, -21.565167544106046 ], [ -50.415538563601437, -21.565168903756621 ], [ -50.415621817277341, -21.565244228563429 ], [ -50.415706080717662, -21.565322544051728 ], [ -50.415706781019274, -21.565323190788369 ], [ -50.415791124331882, -21.565400588236006 ], [ -50.415873475357785, -21.565477978412545 ], [ -50.415875494567139, -21.565479841472452 ], [ -50.415960494568075, -21.565556841526423 ], [ -50.415961221791143, -21.565557496014183 ], [ -50.416045856949637, -21.565633169854454 ], [ -50.416130494393201, -21.565709841473613 ], [ -50.416131791147784, -21.565711002604033 ], [ -50.416218791151486, -21.565788002658671 ], [ -50.416221152203931, -21.565790049155424 ], [ -50.416306711395315, -21.565862675026544 ], [ -50.416393273679766, -21.565937297733122 ], [ -50.416479379087804, -21.566011388564974 ], [ -50.41648240727897, -21.566013926242331 ], [ -50.416568210519529, -21.566083949618807 ], [ -50.416654035467687, -21.566156950194575 ], [ -50.416657067484024, -21.566159462047292 ], [ -50.416744330689895, -21.566229867629851 ], [ -50.416811667803437, -21.566285594929528 ], [ -50.416862842245052, -21.566236463972242 ], [ -50.416783842245273, -21.566164464022545 ], [ -50.416781567383318, -21.566162432527996 ], [ -50.416703075182276, -21.566093751898112 ], [ -50.41662654475693, -21.566023108477662 ], [ -50.416623567222125, -21.56602043247997 ], [ -50.416543966677423, -21.565950782049324 ], [ -50.416464363476287, -21.565880134255352 ], [ -50.416463762759463, -21.565879603965431 ], [ -50.416382457357294, -21.56580821390374 ], [ -50.416303143860731, -21.565736831805157 ], [ -50.416300974042841, -21.565734916353509 ], [ -50.416219026727852, -21.565663962016881 ], [ -50.416136079360832, -21.56559200772098 ], [ -50.416053079279202, -21.565520007696811 ], [ -50.416050794311928, -21.565518064912361 ], [ -50.41596726282237, -21.565448455380537 ], [ -50.41588272792621, -21.565376849395324 ], [ -50.415881928789247, -21.565376177195215 ], [ -50.415798013077662, -21.565306082938594 ], [ -50.41571607895596, -21.565235007601263 ], [ -50.415713114462633, -21.56523250188561 ], [ -50.415628522782178, -21.565162838190844 ], [ -50.415543928559764, -21.565092177177512 ], [ -50.415543396774225, -21.565091735034112 ], [ -50.41545706555106, -21.565020288548233 ], [ -50.415372727443305, -21.564948849254133 ], [ -50.415371793671291, -21.564948064726405 ], [ -50.415288262180404, -21.56487845519348 ], [ -50.4152037272831, -21.564806849207287 ], [ -50.415201591363761, -21.564805073302221 ], [ -50.415115268283863, -21.564734625773418 ], [ -50.415042114016948, -21.564673509590431 ], [ -50.415040854590288, -21.564672250164701 ], [ -50.415020020612786, -21.564690480257131 ], [ -50.415030858015228, -21.56470017017649 ], [ -50.415115137430114, -21.564776517463809 ], [ -50.415198773637293, -21.56485326603778 ] ] ], [ [ [ -50.415416218201656, -21.564647808891891 ], [ -50.415331218201068, -21.564569808946171 ], [ -50.415330504387541, -21.564569158129864 ], [ -50.415245504388473, -21.564492158183842 ], [ -50.415244776989866, -21.564491503538971 ], [ -50.415159776992311, -21.56441550359261 ], [ -50.415144435528603, -21.564430517371296 ], [ -50.415152017518153, -21.564436780757788 ], [ -50.415242334150463, -21.564513202570829 ], [ -50.415242958343626, -21.564513727857122 ], [ -50.41533464539711, -21.564590465981876 ], [ -50.415425333976764, -21.564667202520052 ], [ -50.415426707861805, -21.5646683511806 ], [ -50.415514970080601, -21.564741263492298 ], [ -50.415500226299883, -21.564727733914921 ], [ -50.415418215979493, -21.564649675956218 ], [ -50.415416218201656, -21.564647808891891 ] ] ] ] } },
{ "type": "Feature", "properties": { "CHAVE": null, "FAZENDA": "Faz. ABC", "NOME_FAZ": null, "ZONA": null, "TALHAO": null, "AREA_TOTAL": null, "TIPO_GEO": "VOO_PROCESSADO", "DATA_INICI": "23-03-2026", "DATA_FINAL": "23-03-2026", "HORA_INICI": "11:08:08", "HORA_FINAL": "11:08:08", "CLASSE": "APLICADO", "PILOTO": "valmir alves", "AERONAVE": "PS-CBA", "AREA_HA": 0.000411390462885 }, "geometry": { "type": "MultiPolygon", "coordinates": [ [ [ [ -50.415292477368055, -21.56630731140681 ], [ -50.415292565245963, -21.566307322086264 ], [ -50.415299033631413, -21.566308113809054 ], [ -50.415377994595268, -21.566135386788392 ], [ -50.415396268167008, -21.566146643891379 ], [ -50.415430568070974, -21.566112931241332 ], [ -50.415483574292679, -21.56615882689082 ], [ -50.415561157860715, -21.566229536013765 ], [ -50.415564133687774, -21.566232177055461 ], [ -50.415643626955529, -21.566300874986378 ], [ -50.415708119286684, -21.566359652847293 ], [ -50.415730367222508, -21.566362694183713 ], [ -50.415936842148554, -21.56616446396086 ], [ -50.415857842148753, -21.566092464011152 ], [ -50.415854866153182, -21.566089822823457 ], [ -50.415775372810764, -21.566021124918432 ], [ -50.415697841986223, -21.565950463962004 ], [ -50.415694974270394, -21.565947916438908 ], [ -50.415613369791579, -21.565877258948287 ], [ -50.415531762747676, -21.565805604029887 ], [ -50.415450714385884, -21.565734561612761 ], [ -50.41536876258516, -21.56566260398149 ], [ -50.41536740120479, -21.565661422933623 ], [ -50.415283401211916, -21.565589422985557 ], [ -50.4152832870097, -21.565589325196321 ], [ -50.415200684367726, -21.565518665150115 ], [ -50.415118079182591, -21.565447007686274 ], [ -50.415117400961641, -21.565446422862042 ], [ -50.415033532027749, -21.565374535250264 ], [ -50.414998029981902, -21.565343964063757 ], [ -50.414951394964099, -21.565303282478933 ], [ -50.414740604882788, -21.565514717449613 ], [ -50.414787604885703, -21.565555717478915 ], [ -50.414788337034921, -21.565556352039593 ], [ -50.414824337037757, -21.5655873520619 ], [ -50.414824598878276, -21.565587577015798 ], [ -50.414908258842367, -21.565659285602329 ], [ -50.414912127940887, -21.565662641933386 ], [ -50.414722780449701, -21.565843190582605 ], [ -50.414807780449117, -21.565921190636907 ], [ -50.414809790932182, -21.565923002506498 ], [ -50.414895776853946, -21.565999105040483 ], [ -50.414979780271523, -21.566076190583008 ], [ -50.414981144465436, -21.56607742713226 ], [ -50.415067144467756, -21.566154427186554 ], [ -50.415068525201015, -21.566155648297809 ], [ -50.415154992014479, -21.566231182575464 ], [ -50.415232385332828, -21.56630008155123 ], [ -50.415242860094359, -21.566301324996132 ], [ -50.41524295810742, -21.566301336726436 ], [ -50.415292477368055, -21.56630731140681 ] ] ], [ [ [ -50.414841299035317, -21.565168663793379 ], [ -50.414842549917907, -21.56516978825681 ], [ -50.4149322372824, -21.565249510412322 ], [ -50.415020265708677, -21.565328637141882 ], [ -50.415107612681879, -21.565409036116662 ], [ -50.415108298667683, -21.565409663626365 ], [ -50.415195927655361, -21.56548932639798 ], [ -50.415284559063885, -21.565570986854301 ], [ -50.415286549459054, -21.565572788119162 ], [ -50.415375920552115, -21.565652229144565 ], [ -50.415463298391458, -21.565731663598605 ], [ -50.415463925754892, -21.565732230716545 ], [ -50.415552611126351, -21.565811947958995 ], [ -50.415639981611982, -21.565891375728302 ], [ -50.415726666777786, -21.565971086281539 ], [ -50.415727298024976, -21.565971663431895 ], [ -50.415814661150421, -21.566051084510583 ], [ -50.415900031428961, -21.566130498779636 ], [ -50.415902069540465, -21.566132360067108 ], [ -50.415988714419925, -21.566210041736252 ], [ -50.41607536147152, -21.566288721297084 ], [ -50.416076360142107, -21.566289620035192 ], [ -50.41611196609103, -21.566321376714168 ], [ -50.416158605599954, -21.566365101284912 ], [ -50.416355268803748, -21.566181549082831 ], [ -50.416410924745698, -21.566230248054293 ], [ -50.416487455088642, -21.566300891496876 ], [ -50.416490432458943, -21.566303567350364 ], [ -50.416569283982248, -21.566372562479252 ], [ -50.416647157601695, -21.566443535953223 ], [ -50.416811667842886, -21.566285594971898 ], [ -50.416830601954203, -21.566301264580908 ], [ -50.41683222688863, -21.566302590563918 ], [ -50.416919147027023, -21.56637252634804 ], [ -50.417006812257753, -21.566443256291379 ], [ -50.417092558227459, -21.566513049563536 ], [ -50.417295441620304, -21.566294950369866 ], [ -50.417209441633219, -21.56622495042167 ], [ -50.417208932587279, -21.566224537901718 ], [ -50.417120932601463, -21.566153537954477 ], [ -50.417120772945019, -21.566153409318193 ], [ -50.417034590371493, -21.566084067058373 ], [ -50.416948397904555, -21.566012735404183 ], [ -50.41694693234971, -21.566011537833965 ], [ -50.416860465967538, -21.56594177522631 ], [ -50.416774964387699, -21.565869049789338 ], [ -50.416772592555937, -21.565867073638401 ], [ -50.416687124508904, -21.565797323895179 ], [ -50.41660267348886, -21.565724656783914 ], [ -50.416515726173962, -21.565649702250202 ], [ -50.416514847634836, -21.565648950722121 ], [ -50.41643003956257, -21.565576962520691 ], [ -50.416344860681143, -21.565501574365214 ], [ -50.416260505454481, -21.565425158506269 ], [ -50.416259778053195, -21.565424503858999 ], [ -50.416175142809749, -21.565348830045743 ], [ -50.416091524023066, -21.565273081315247 ], [ -50.416009524485666, -21.565196021564347 ], [ -50.416008218828054, -21.565194809082339 ], [ -50.41592357007903, -21.565117131461598 ], [ -50.415838919127019, -21.565038455926974 ], [ -50.41583743624426, -21.565037096116047 ], [ -50.415754182480953, -21.564961771334982 ], [ -50.415669918949085, -21.564883455872661 ], [ -50.415669218470732, -21.564882808973724 ], [ -50.415584218470151, -21.564804809028015 ], [ -50.415514970010662, -21.564741263436979 ], [ -50.415518642837398, -21.5647442975106 ], [ -50.415611577882984, -21.564821243777633 ], [ -50.415611707690182, -21.564821351131052 ], [ -50.415703331725986, -21.564897040597828 ], [ -50.415794957923296, -21.564973727788075 ], [ -50.415886644879336, -21.565050465831277 ], [ -50.415977333457846, -21.56512720236848 ], [ -50.415978707345865, -21.565128351031525 ], [ -50.416070331381107, -21.565204040497836 ], [ -50.416161274740084, -21.565280156182233 ], [ -50.416251599203228, -21.565357577199428 ], [ -50.416252957392906, -21.565358727580705 ], [ -50.416344702372257, -21.565435514186873 ], [ -50.416433341945186, -21.565510365428974 ], [ -50.416522255005049, -21.565588411387719 ], [ -50.416524332839586, -21.565590202134459 ], [ -50.416614329854497, -21.565666353503033 ], [ -50.416702342898105, -21.565743488580019 ], [ -50.416703703897532, -21.565744667100283 ], [ -50.416793703905398, -21.565821667155891 ], [ -50.416794447917106, -21.565822299554011 ], [ -50.416883432216551, -21.565897441898812 ], [ -50.416970432908037, -21.56597356755309 ], [ -50.416971170703164, -21.565974208919517 ], [ -50.417059120503296, -21.566050165614008 ], [ -50.417148070348766, -21.566127122271482 ], [ -50.417148921943593, -21.566127853535164 ], [ -50.417236596769577, -21.566202576445583 ], [ -50.417322614154763, -21.566276729411676 ], [ -50.417406962118314, -21.566351154134363 ], [ -50.417491962033019, -21.5664261541089 ], [ -50.417492619789726, -21.566426731099344 ], [ -50.41757861979508, -21.566501731152972 ], [ -50.417579597842057, -21.56650257676116 ], [ -50.417612635574727, -21.566530894836276 ], [ -50.417659736384607, -21.566574150711734 ], [ -50.417876263462134, -21.566367849213201 ], [ -50.417827263461753, -21.566322849244521 ], [ -50.417823402002007, -21.566319423147 ], [ -50.417788892975736, -21.566289844000593 ], [ -50.417703709835301, -21.566215556426489 ], [ -50.417619037817779, -21.566140845872177 ], [ -50.417534037732487, -21.566065845846701 ], [ -50.417532726560864, -21.566064702301119 ], [ -50.417445726567614, -21.565989702355054 ], [ -50.41744507789538, -21.565989146340765 ], [ -50.417357505162663, -21.56591451053643 ], [ -50.417268929504687, -21.565837877712926 ], [ -50.417181199159053, -21.565762110568414 ], [ -50.41709356694394, -21.565685432430215 ], [ -50.417091551920734, -21.565683700321593 ], [ -50.417001925035464, -21.56560801544363 ], [ -50.416912980228958, -21.565531918268814 ], [ -50.416824656953743, -21.565454511403846 ], [ -50.416822666998364, -21.565452797740331 ], [ -50.416732714675078, -21.565376684284267 ], [ -50.416643744846652, -21.565298588596693 ], [ -50.416641551484588, -21.565296700193976 ], [ -50.41655155149396, -21.56522070024922 ], [ -50.416551042443793, -21.565220272294539 ], [ -50.416459725194436, -21.565143843774599 ], [ -50.416369400651547, -21.565066422786632 ], [ -50.416368042269433, -21.565065272243814 ], [ -50.41627604228006, -21.564988272300024 ], [ -50.416275292489509, -21.564987648845012 ], [ -50.41618398310608, -21.564912219400298 ], [ -50.416093666398595, -21.564835797618116 ], [ -50.416093042010658, -21.564835272168562 ], [ -50.416001042021279, -21.564758272224772 ], [ -50.415909041934661, -21.564681272199589 ], [ -50.415908292145204, -21.564680648745494 ], [ -50.415816357094045, -21.564604702444697 ], [ -50.415723421976502, -21.564527756211085 ], [ -50.41572329197357, -21.564527648695925 ], [ -50.415631982589005, -21.564452219250288 ], [ -50.415541665879672, -21.564375797466543 ], [ -50.415541041493078, -21.564375272018111 ], [ -50.415449354363133, -21.564298533924138 ], [ -50.415358665705973, -21.564221797415779 ], [ -50.415357291629292, -21.564220648596393 ], [ -50.415266406496976, -21.564145569620081 ], [ -50.415175502203155, -21.564067510547225 ], [ -50.415174550097852, -21.564066699789095 ], [ -50.415161583709448, -21.564055750401302 ], [ -50.415158211203128, -21.564054408490257 ], [ -50.41515694677345, -21.564053918520241 ], [ -50.415108719554908, -21.564035727726864 ], [ -50.415108022665144, -21.564035468781949 ], [ -50.415060407305923, -21.564018042596814 ], [ -50.415058291385684, -21.564017303585491 ], [ -50.415011533651374, -21.564001745417126 ], [ -50.415008689464159, -21.564000860613337 ], [ -50.41496140882338, -21.563987161526551 ], [ -50.414958200368197, -21.563986307134222 ], [ -50.414910468646582, -21.56397470099536 ], [ -50.414906293370386, -21.563973808150202 ], [ -50.414857028622322, -21.563964698008299 ], [ -50.414854567071529, -21.563964283983683 ], [ -50.414804695440502, -21.563956724705346 ], [ -50.414800593306389, -21.563956214944564 ], [ -50.41478902455335, -21.56395509085284 ], [ -50.414714889440333, -21.564029941096639 ], [ -50.41471477644604, -21.564065332960531 ], [ -50.414785974808197, -21.564127038247673 ], [ -50.414786705725909, -21.564127667637408 ], [ -50.414876705733761, -21.564204667693009 ], [ -50.414877449740011, -21.56420530008651 ], [ -50.414966971891346, -21.564280896617248 ], [ -50.415058497651479, -21.564359489439351 ], [ -50.415060708206099, -21.56436135128013 ], [ -50.415144435542416, -21.564430517387532 ], [ -50.414946222854482, -21.564624496334204 ], [ -50.415020020629321, -21.564690480278617 ], [ -50.414886477590805, -21.564807332815221 ], [ -50.414878142789959, -21.564799831493822 ], [ -50.414685584675247, -21.564987043995348 ], [ -50.414684964806092, -21.565001692314176 ], [ -50.414683981684682, -21.565026280610049 ], [ -50.414753577368764, -21.565088916768694 ], [ -50.414841299035317, -21.565168663793379 ] ] ] ] } }
]
}
