{
"type": "FeatureCollection",
"name": "306750_SITIO_SAO_JUDAS_TADEU_25-03-2026_03-07-2026_07h38m",
"crs": { "type": "name", "properties": { "name": "urn:ogc:def:crs:OGC:1.3:CRS84" } },
"features": [
{ "type": "Feature", "properties": { "CHAVE": "3067502", "FAZENDA": "306750", "NOME_FAZ": "SITIO SAO JUDAS TADEU", "ZONA": 999.0, "TALHAO": 2.0, "AREA_TOTAL": 3.0550310904741291, "TIPO_GEO": "TALHAO", "DATA_INICI": null, "DATA_FINAL": null, "HORA_INICI": null, "HORA_FINAL": null, "CLASSE": null, "PILOTO": null, "AERONAVE": null, "AREA_HA": null }, "geometry": { "type": "Polygon", "coordinates": [ [ [ -50.319825459197205, -21.5739676263048 ], [ -50.319876503120803, -21.574021161859196 ], [ -50.319878721584502, -21.574093615224601 ], [ -50.319866237538598, -21.574151813582993 ], [ -50.319906773663298, -21.574197142626602 ], [ -50.3199540524867, -21.574244534858199 ], [ -50.3200002542753, -21.574291691819496 ], [ -50.320049435984302, -21.574337826174197 ], [ -50.320133499095299, -21.574419876630802 ], [ -50.320186100565003, -21.574475423692 ], [ -50.320205931305601, -21.574475064899101 ], [ -50.320277734472903, -21.574473686241404 ], [ -50.320348092941401, -21.574472519410488 ], [ -50.320420415577601, -21.574470836476991 ], [ -50.320488321966309, -21.574469527518893 ], [ -50.3205581280167, -21.574466316421304 ], [ -50.320627997349497, -21.574466501545302 ], [ -50.320696099536399, -21.574466237237893 ], [ -50.320765151226304, -21.574466383993808 ], [ -50.320834383287099, -21.574462925277899 ], [ -50.320905086626901, -21.5744616643033 ], [ -50.320977813332902, -21.574459884581199 ], [ -50.321048928978797, -21.574458050809397 ], [ -50.321116754220903, -21.574456544307601 ], [ -50.321185333048902, -21.574455829462398 ], [ -50.3212548746938, -21.574454606750198 ], [ -50.321322532129301, -21.574452816214592 ], [ -50.321392210174302, -21.574450790544294 ], [ -50.321462983845301, -21.574450497210499 ], [ -50.321535214117297, -21.574452285154404 ], [ -50.321602792055998, -21.574449472120289 ], [ -50.321671331142902, -21.574445609269802 ], [ -50.3217410398521, -21.574443325109488 ], [ -50.321811594341703, -21.574444366173097 ], [ -50.321880046837599, -21.5744453145759 ], [ -50.321951998613997, -21.574447557327794 ], [ -50.322021636410902, -21.574444990078597 ], [ -50.322095378645599, -21.574444201734707 ], [ -50.322166236561301, -21.574444264124502 ], [ -50.322237896701502, -21.5744437698227 ], [ -50.322307556764407, -21.574443729340405 ], [ -50.322378890011699, -21.574440564435694 ], [ -50.322452298601597, -21.574437742939391 ], [ -50.322527163801503, -21.57443720202259 ], [ -50.322601974585602, -21.574437414812603 ], [ -50.322617377096599, -21.574357773377095 ], [ -50.322627046491, -21.574295185608594 ], [ -50.322635607978597, -21.574229322052794 ], [ -50.322649836457799, -21.574162713491589 ], [ -50.322665892001098, -21.574097281366395 ], [ -50.322677890477699, -21.574034753616704 ], [ -50.322692870198303, -21.573969397943181 ], [ -50.322709767041303, -21.573906264197301 ], [ -50.322728823538199, -21.573841089225194 ], [ -50.322749175888703, -21.5737746771281 ], [ -50.322771146397002, -21.573712012551898 ], [ -50.322788539204801, -21.573649684961286 ], [ -50.322800589236699, -21.573584231100693 ], [ -50.322806423664602, -21.573521485990597 ], [ -50.322810455966803, -21.573453009387389 ], [ -50.321788955069799, -21.573518103390104 ], [ -50.319219695554501, -21.573650898444694 ], [ -50.319278987169398, -21.573703833336296 ], [ -50.319329304868603, -21.573744339841106 ], [ -50.319388693140098, -21.573772487265096 ], [ -50.319456035151397, -21.573785107319701 ], [ -50.319525121483601, -21.5737993406199 ], [ -50.3195925810586, -21.573821960265199 ], [ -50.319650700180603, -21.573862697140399 ], [ -50.319705214970902, -21.573902184655104 ], [ -50.319762674668802, -21.573936712219488 ], [ -50.319825459197205, -21.5739676263048 ] ] ] } },
{ "type": "Feature", "properties": { "CHAVE": "3067503", "FAZENDA": "306750", "NOME_FAZ": "SITIO SAO JUDAS TADEU", "ZONA": 999.0, "TALHAO": 3.0, "AREA_TOTAL": 3.4534841189659198, "TIPO_GEO": "TALHAO", "DATA_INICI": null, "DATA_FINAL": null, "HORA_INICI": null, "HORA_FINAL": null, "CLASSE": null, "PILOTO": null, "AERONAVE": null, "AREA_HA": null }, "geometry": { "type": "Polygon", "coordinates": [ [ [ -50.319305006492598, -21.574279980301405 ], [ -50.319318934761299, -21.574298122407104 ], [ -50.3193314218558, -21.574315762494503 ], [ -50.319341156804803, -21.574337933225195 ], [ -50.3193474099496, -21.574359974904105 ], [ -50.319348080557603, -21.5743844503166 ], [ -50.319344750067501, -21.574405586600005 ], [ -50.319340503228702, -21.574425407467494 ], [ -50.319334994500799, -21.574446620761911 ], [ -50.31932690485921, -21.574464799046201 ], [ -50.319319849633601, -21.574482029659105 ], [ -50.319379680197002, -21.574483043823005 ], [ -50.319448858482701, -21.574483606707595 ], [ -50.319519751748302, -21.574485196672796 ], [ -50.319589365053403, -21.574485453995596 ], [ -50.3196587582582, -21.574485476501 ], [ -50.319727147141698, -21.574483202162298 ], [ -50.319798249293697, -21.574482452418899 ], [ -50.319865964498803, -21.574480871269195 ], [ -50.319933503892798, -21.574479052926602 ], [ -50.320001547612399, -21.574476917018195 ], [ -50.3200692624333, -21.574477681919298 ], [ -50.320135362843097, -21.574476346963205 ], [ -50.320105080228998, -21.574444368561309 ], [ -50.320021806822901, -21.574363088886493 ], [ -50.319972320887601, -21.574316669146693 ], [ -50.319925686346799, -21.574269070477186 ], [ -50.319877811266601, -21.574221080548298 ], [ -50.319834394487302, -21.574172530234502 ], [ -50.319741889412398, -21.574158921148804 ], [ -50.319672587929801, -21.574139482983004 ], [ -50.319608728219201, -21.574107579229793 ], [ -50.319552301287402, -21.574072996388292 ], [ -50.319490894142199, -21.574045777416703 ], [ -50.3194281718242, -21.574020240175599 ], [ -50.319367514819199, -21.573988444299484 ], [ -50.319305544673497, -21.573961699192907 ], [ -50.319241667228397, -21.573940028583095 ], [ -50.319176169108303, -21.573930711157796 ], [ -50.319109442484297, -21.573931339607096 ], [ -50.319041595154502, -21.573934942554789 ], [ -50.318973487388803, -21.573944708217901 ], [ -50.3189084041909, -21.573958957739691 ], [ -50.318843621542001, -21.573976777096394 ], [ -50.31877815244291, -21.574002593303501 ], [ -50.318719847155997, -21.5740330670159 ], [ -50.318663346447003, -21.574071015466092 ], [ -50.318602129503297, -21.574109467781998 ], [ -50.318525728152203, -21.57409843717209 ], [ -50.318462354038104, -21.574064304267797 ], [ -50.318406889660601, -21.5740200162316 ], [ -50.318361231748902, -21.573972614862299 ], [ -50.318309633914403, -21.573931415537785 ], [ -50.318252865998502, -21.573894119058998 ], [ -50.31819668617991, -21.573857409866299 ], [ -50.318138816867702, -21.573824508693399 ], [ -50.318074767941603, -21.57380013256569 ], [ -50.318005347327102, -21.573789789693802 ], [ -50.3179388498964, -21.573778385299502 ], [ -50.3178722675176, -21.5737778738063 ], [ -50.3178019432996, -21.5737787533212 ], [ -50.317732320354501, -21.573782009917096 ], [ -50.317662038376596, -21.573786087875298 ], [ -50.317590686041697, -21.57379180460379 ], [ -50.317519055253896, -21.573793852072299 ], [ -50.317449666851601, -21.573799143565687 ], [ -50.317380367437202, -21.573805012818305 ], [ -50.317312415164899, -21.573808326651005 ], [ -50.3172423692995, -21.573811754476498 ], [ -50.317171076496301, -21.573814923216297 ], [ -50.317100870381999, -21.573818223754198 ], [ -50.317033051630098, -21.573822515789001 ], [ -50.316964410742301, -21.573830734115887 ], [ -50.316895796452002, -21.573835203989894 ], [ -50.3168261448576, -21.57383892222861 ], [ -50.316757904188101, -21.573840346732105 ], [ -50.316688497728698, -21.573841936537804 ], [ -50.3166203029607, -21.573844893003589 ], [ -50.316553074469198, -21.573851078018791 ], [ -50.316484186622297, -21.573857338557897 ], [ -50.316414909645999, -21.573861784320094 ], [ -50.316345548962701, -21.573866292258298 ], [ -50.316276898944203, -21.573871258822095 ], [ -50.316242215729197, -21.573875704216594 ], [ -50.316173365835297, -21.573880192520004 ], [ -50.316105493548001, -21.573881882544701 ], [ -50.3160362442677, -21.573883874616403 ], [ -50.315966042834198, -21.573888209621888 ], [ -50.315895949468903, -21.5738918083991 ], [ -50.315825651438601, -21.573894375329701 ], [ -50.315758101182098, -21.573897688490394 ], [ -50.3156901502878, -21.5739010340336 ], [ -50.315622117772897, -21.573907053678791 ], [ -50.315553442014703, -21.573916382431992 ], [ -50.315484118422397, -21.573924409969596 ], [ -50.315415207081401, -21.573929619841895 ], [ -50.3153470649643, -21.573933468742108 ], [ -50.3152771849511, -21.573933326872602 ], [ -50.315208301111703, -21.573933789030896 ], [ -50.3151405596929, -21.573937334844096 ], [ -50.315073333283699, -21.573942951797491 ], [ -50.315004385691203, -21.573951851279098 ], [ -50.314938919402103, -21.573959411278899 ], [ -50.314882222833205, -21.573988697013103 ], [ -50.314833203377503, -21.574032414866412 ], [ -50.314775438801902, -21.57407131403999 ], [ -50.314722514471399, -21.574110821616888 ], [ -50.314666027972798, -21.574150234282108 ], [ -50.3146071742026, -21.574184763419808 ], [ -50.314550068716301, -21.574219903844995 ], [ -50.314495742816199, -21.574259538934392 ], [ -50.314439061904402, -21.574297303946803 ], [ -50.314382900131001, -21.574334932895493 ], [ -50.314332248141902, -21.574376671881108 ], [ -50.314283750626807, -21.574423574586589 ], [ -50.314227186848903, -21.574454365383005 ], [ -50.314212143581898, -21.574494501328999 ], [ -50.314375524692501, -21.574519732649204 ], [ -50.314443680460904, -21.574520252732 ], [ -50.314510072709197, -21.574519794661001 ], [ -50.314576420576202, -21.574505673423207 ], [ -50.314646747515297, -21.5745029766302 ], [ -50.314715514917303, -21.574500891358188 ], [ -50.314785151872698, -21.574500878828697 ], [ -50.314855096052298, -21.574500555615792 ], [ -50.3149240471487, -21.574497036777995 ], [ -50.3149947733842, -21.574496523435293 ], [ -50.315064523738101, -21.574493062639295 ], [ -50.315134465386897, -21.574492263698698 ], [ -50.315202999109196, -21.574490213093299 ], [ -50.315273367348397, -21.574489794934887 ], [ -50.315342453923307, -21.574490151037999 ], [ -50.3154128371431, -21.574488486144897 ], [ -50.315482133796799, -21.574489713005704 ], [ -50.315552713040397, -21.574489713632495 ], [ -50.3156229256291, -21.57449158438499 ], [ -50.315693085984698, -21.574488443953499 ], [ -50.3157613595098, -21.574486194331705 ], [ -50.315832222294901, -21.574485355903096 ], [ -50.315900314098798, -21.574483206853795 ], [ -50.315947196678202, -21.574483915221304 ], [ -50.316015071070098, -21.574482464118496 ], [ -50.3160851849861, -21.574481811150704 ], [ -50.316157106315899, -21.574481154321699 ], [ -50.316227598093199, -21.574489109555802 ], [ -50.3162970428695, -21.574493350726105 ], [ -50.316365398132199, -21.574489655732794 ], [ -50.316433615439699, -21.574485647495404 ], [ -50.316504057306098, -21.574481369770801 ], [ -50.316574490403802, -21.574486728977607 ], [ -50.316644402873202, -21.574484982893789 ], [ -50.316713697255601, -21.574487508168001 ], [ -50.316781486289401, -21.574488382923303 ], [ -50.316852242858999, -21.574482009703896 ], [ -50.316921759640003, -21.574483378453003 ], [ -50.316989719297602, -21.5744769867607 ], [ -50.317060474321806, -21.574473581583693 ], [ -50.317129284219497, -21.574476385840899 ], [ -50.317201744365804, -21.574477902084293 ], [ -50.317269620724502, -21.574475724894096 ], [ -50.317340064075097, -21.574476695693193 ], [ -50.317412581870499, -21.574469975565982 ], [ -50.317481790410298, -21.5744698567303 ], [ -50.317553064259201, -21.574471019205298 ], [ -50.317624107630699, -21.574473258582699 ], [ -50.317696792923698, -21.574476468702002 ], [ -50.317769762320403, -21.574481670832096 ], [ -50.317838491036099, -21.574484373900201 ], [ -50.317909493680602, -21.574484808407199 ], [ -50.317982870558197, -21.574483959887807 ], [ -50.3180547045298, -21.574485330792502 ], [ -50.318124895903303, -21.574485545942991 ], [ -50.318194537952301, -21.574486102696302 ], [ -50.318262402947298, -21.574487784001501 ], [ -50.318336166713102, -21.574489843436403 ], [ -50.318405252779897, -21.574489990962295 ], [ -50.318473455514003, -21.574490333198899 ], [ -50.318544294033899, -21.574489891130003 ], [ -50.318614888977208, -21.574490314969498 ], [ -50.318683315325202, -21.574487752965897 ], [ -50.318751293495602, -21.574487315258697 ], [ -50.318820347789597, -21.574486423842096 ], [ -50.318890069129999, -21.5744856139411 ], [ -50.318959366191997, -21.574485752284197 ], [ -50.319027186882209, -21.574486781567682 ], [ -50.319095682131596, -21.574488632709397 ], [ -50.319146658269901, -21.574486563683006 ], [ -50.319135119665106, -21.574482249809009 ], [ -50.319113609101002, -21.574476287521193 ], [ -50.319091925593803, -21.574465352061996 ], [ -50.319069212335798, -21.574450034642105 ], [ -50.3190555583543, -21.574427862244008 ], [ -50.319048741936903, -21.574406353278601 ], [ -50.319045391671501, -21.574386603326005 ], [ -50.319042611787403, -21.574367064900706 ], [ -50.319042205385003, -21.574341836624605 ], [ -50.319051374700599, -21.574316667481998 ], [ -50.319065675859697, -21.574295961255693 ], [ -50.319083035267397, -21.574278554365993 ], [ -50.319103426687199, -21.574264760114502 ], [ -50.319125641870599, -21.574253790014584 ], [ -50.319149354641198, -21.574246180798898 ], [ -50.319172256711703, -21.574244236541805 ], [ -50.319192245996497, -21.574242858563395 ], [ -50.319214402259, -21.574241527269795 ], [ -50.319240510731703, -21.574244692402694 ], [ -50.319266624128602, -21.574252562867596 ], [ -50.319286862717298, -21.574266187749995 ], [ -50.319305006492598, -21.574279980301405 ] ] ] } },
{ "type": "Feature", "properties": { "CHAVE": "3067501", "FAZENDA": "306750", "NOME_FAZ": "SITIO SAO JUDAS TADEU", "ZONA": 999.0, "TALHAO": 1.0, "AREA_TOTAL": 3.9052390714738521, "TIPO_GEO": "TALHAO", "DATA_INICI": null, "DATA_FINAL": null, "HORA_INICI": null, "HORA_FINAL": null, "CLASSE": null, "PILOTO": null, "AERONAVE": null, "AREA_HA": null }, "geometry": { "type": "Polygon", "coordinates": [ [ [ -50.322730508857703, -21.573977575945094 ], [ -50.322715803324797, -21.574041735424899 ], [ -50.322703755639402, -21.574104519700597 ], [ -50.322687615328199, -21.574170297355298 ], [ -50.322673782983898, -21.574235051546598 ], [ -50.3226653467921, -21.574299951332303 ], [ -50.322655517240797, -21.574363575866798 ], [ -50.322641215357201, -21.574437526414599 ], [ -50.322840264554699, -21.574438092374898 ], [ -50.3229114783, -21.574440055200292 ], [ -50.322985029766009, -21.574439218852493 ], [ -50.323057947802802, -21.574439361639094 ], [ -50.323130294684603, -21.574438391513699 ], [ -50.323202954552499, -21.574438143914005 ], [ -50.323274192434098, -21.5744381171097 ], [ -50.323342065159402, -21.574437914211899 ], [ -50.323414460431003, -21.574437602712802 ], [ -50.323483474766, -21.574437656730705 ], [ -50.323556233004801, -21.574438538531496 ], [ -50.323626052217001, -21.574437563622688 ], [ -50.3236949629921, -21.57443968864909 ], [ -50.32376582357, -21.574439445157591 ], [ -50.3238387148605, -21.574439344028104 ], [ -50.323909508873797, -21.574438260014894 ], [ -50.323978682123403, -21.574437290118592 ], [ -50.324048239342609, -21.5744381449644 ], [ -50.32412057935931, -21.57444098976741 ], [ -50.324193638457707, -21.574440412760694 ], [ -50.324261406241497, -21.574440931903784 ], [ -50.324330698620898, -21.574441104730894 ], [ -50.324402207602198, -21.574440672372489 ], [ -50.324471016836206, -21.5744405184501 ], [ -50.324544223508703, -21.574439055993299 ], [ -50.324616145078309, -21.574441450204692 ], [ -50.324688098741404, -21.574444978099297 ], [ -50.3247613559626, -21.574447796422202 ], [ -50.324828810411901, -21.574446704189697 ], [ -50.324899412016698, -21.574445995562094 ], [ -50.324971148928498, -21.574445472207092 ], [ -50.325039672654697, -21.574445533154496 ], [ -50.325109188443108, -21.574444711726297 ], [ -50.325178732789503, -21.574445264668803 ], [ -50.325251629502297, -21.574444792140486 ], [ -50.3253208607074, -21.5744452441613 ], [ -50.325395732402498, -21.574444554200188 ], [ -50.325468840550499, -21.574444596415894 ], [ -50.3255395619043, -21.574446237897799 ], [ -50.325613321699102, -21.574446248761792 ], [ -50.325680897117898, -21.574444820512095 ], [ -50.325748175724399, -21.574442855799692 ], [ -50.325799200791799, -21.574418016123701 ], [ -50.325802198563501, -21.574361511295603 ], [ -50.325810112204898, -21.574297349590005 ], [ -50.3258232951111, -21.574233061087803 ], [ -50.325843040619397, -21.574167472967588 ], [ -50.325861689072099, -21.574106520103093 ], [ -50.325886869739605, -21.573989314207591 ], [ -50.325900944831403, -21.573924946007796 ], [ -50.325919294225002, -21.573860979705699 ], [ -50.325935386527597, -21.573796246463193 ], [ -50.325948168826599, -21.573732204406696 ], [ -50.325968437103697, -21.573671036667601 ], [ -50.32598854774681, -21.573606945346601 ], [ -50.326008802086299, -21.573543010085697 ], [ -50.326031251403499, -21.573478734504103 ], [ -50.326054605269398, -21.57341568709429 ], [ -50.326079767094697, -21.573356838525292 ], [ -50.326100672035103, -21.573295311577304 ], [ -50.326106522920902, -21.573276715286593 ], [ -50.323123508306999, -21.573433059208799 ], [ -50.322849295314803, -21.573450534268403 ], [ -50.322844966533196, -21.5735240460189 ], [ -50.322838938700407, -21.573588871244787 ], [ -50.3228263357665, -21.573657328477992 ], [ -50.322808228556198, -21.573722216208488 ], [ -50.3227861144603, -21.573785290372498 ], [ -50.322766027922697, -21.573850835145091 ], [ -50.3227471440334, -21.573915419838894 ], [ -50.322730508857703, -21.573977575945094 ] ] ] } },
{ "type": "Feature", "properties": { "CHAVE": null, "FAZENDA": null, "NOME_FAZ": null, "ZONA": null, "TALHAO": null, "AREA_TOTAL": null, "TIPO_GEO": "VOO_PROCESSADO", "DATA_INICI": "25-03-2026", "DATA_FINAL": "25-03-2026", "HORA_INICI": "11:53:24", "HORA_FINAL": "11:53:24", "CLASSE": "NÃO APLICADO DENTRO DO TALHÃO", "PILOTO": "valmir alves", "AERONAVE": "PS-CBA", "AREA_HA": 0.00041253325564499999 }, "geometry": { "type": "MultiPolygon", "coordinates": [ [ [ [ -50.314443680460904, -21.574520252732 ], [ -50.314510072709197, -21.574519794661001 ], [ -50.314576420576202, -21.574505673423207 ], [ -50.314646747515297, -21.5745029766302 ], [ -50.314715514917303, -21.574500891358188 ], [ -50.314785151872698, -21.574500878828697 ], [ -50.314855096052298, -21.574500555615792 ], [ -50.3149240471487, -21.574497036777995 ], [ -50.3149947733842, -21.574496523435293 ], [ -50.315064523738101, -21.574493062639295 ], [ -50.315134465386897, -21.574492263698698 ], [ -50.315202999109196, -21.574490213093299 ], [ -50.315273367348397, -21.574489794934887 ], [ -50.315342453923307, -21.574490151037999 ], [ -50.3154128371431, -21.574488486144897 ], [ -50.315482133796799, -21.574489713005704 ], [ -50.315552713040397, -21.574489713632495 ], [ -50.3156229256291, -21.57449158438499 ], [ -50.315693085984698, -21.574488443953499 ], [ -50.3157613595098, -21.574486194331705 ], [ -50.315832222294901, -21.574485355903096 ], [ -50.315900314098798, -21.574483206853795 ], [ -50.315947196678202, -21.574483915221304 ], [ -50.316015071070098, -21.574482464118496 ], [ -50.3160851849861, -21.574481811150704 ], [ -50.316157106315899, -21.574481154321699 ], [ -50.316227598093199, -21.574489109555802 ], [ -50.3162970428695, -21.574493350726105 ], [ -50.316365398132199, -21.574489655732794 ], [ -50.316433615439699, -21.574485647495404 ], [ -50.316504057306098, -21.574481369770801 ], [ -50.316574490403802, -21.574486728977607 ], [ -50.316644402873202, -21.574484982893789 ], [ -50.316713697255601, -21.574487508168001 ], [ -50.316781486289401, -21.574488382923303 ], [ -50.316852242858999, -21.574482009703896 ], [ -50.316921759640003, -21.574483378453003 ], [ -50.316989719297602, -21.5744769867607 ], [ -50.317060474321806, -21.574473581583693 ], [ -50.317129284219497, -21.574476385840899 ], [ -50.317201744365804, -21.574477902084293 ], [ -50.317269620724502, -21.574475724894096 ], [ -50.317340064075097, -21.574476695693193 ], [ -50.317412581870499, -21.574469975565982 ], [ -50.317481790410298, -21.5744698567303 ], [ -50.317553064259201, -21.574471019205298 ], [ -50.317624107630699, -21.574473258582699 ], [ -50.317696792923698, -21.574476468702002 ], [ -50.317769762320403, -21.574481670832096 ], [ -50.317838491036099, -21.574484373900201 ], [ -50.317909493680602, -21.574484808407199 ], [ -50.317982870558197, -21.574483959887807 ], [ -50.3180547045298, -21.574485330792502 ], [ -50.318124895903303, -21.574485545942991 ], [ -50.318194537952301, -21.574486102696302 ], [ -50.318262402947298, -21.574487784001501 ], [ -50.318336166713102, -21.574489843436403 ], [ -50.318405252779897, -21.574489990962295 ], [ -50.318473455514003, -21.574490333198899 ], [ -50.318544294033899, -21.574489891130003 ], [ -50.318614888977208, -21.574490314969498 ], [ -50.318683315325202, -21.574487752965897 ], [ -50.318751293495602, -21.574487315258697 ], [ -50.318820347789597, -21.574486423842096 ], [ -50.318890069129999, -21.5744856139411 ], [ -50.318959366191997, -21.574485752284197 ], [ -50.319027186882209, -21.574486781567682 ], [ -50.319095682131596, -21.574488632709397 ], [ -50.319146658269901, -21.574486563683006 ], [ -50.319135119665106, -21.574482249809009 ], [ -50.319113609101002, -21.574476287521193 ], [ -50.319091925593803, -21.574465352061996 ], [ -50.319069212335798, -21.574450034642105 ], [ -50.3190555583543, -21.574427862244008 ], [ -50.319048741936903, -21.574406353278601 ], [ -50.319048097050185, -21.574402551644816 ], [ -50.319048000061841, -21.574402551644813 ], [ -50.318919000060333, -21.574402551641441 ], [ -50.318793000061326, -21.574402551638162 ], [ -50.318665000061834, -21.574402551634819 ], [ -50.318536000061329, -21.574402551631454 ], [ -50.318408000061318, -21.574402551628111 ], [ -50.31827999999134, -21.574402551624761 ], [ -50.318151000061334, -21.5744025516214 ], [ -50.318023000061324, -21.574402551618061 ], [ -50.317895635451556, -21.574402551614977 ], [ -50.317766270818041, -21.574403546723889 ], [ -50.317765000061826, -21.574403551611301 ], [ -50.317637270839761, -21.574403551608441 ], [ -50.317508541444866, -21.574405532056801 ], [ -50.317506000061321, -21.574405551604492 ], [ -50.317379270839886, -21.574405551601657 ], [ -50.317250541444821, -21.574407532050014 ], [ -50.317248000062314, -21.574407551597726 ], [ -50.317118000062315, -21.574407551594316 ], [ -50.316989270839279, -21.574407551591438 ], [ -50.316860541444704, -21.57440953203977 ], [ -50.316858000062332, -21.574409551587479 ], [ -50.316728635451071, -21.574409551584342 ], [ -50.316599270817889, -21.574410546693262 ], [ -50.316598000062299, -21.574410551580662 ], [ -50.31646800006331, -21.574410551577245 ], [ -50.316337270838744, -21.574410551574314 ], [ -50.316208541444503, -21.574412532022645 ], [ -50.316206000063325, -21.574412551570347 ], [ -50.316074630600859, -21.574412551567175 ], [ -50.315944261116528, -21.574413546750382 ], [ -50.315943000062312, -21.574413551563453 ], [ -50.315814251586723, -21.574413551560561 ], [ -50.315683512603357, -21.574415532450299 ], [ -50.31555250307683, -21.574417532591177 ], [ -50.31542050294582, -21.574419532589655 ], [ -50.315419251693207, -21.574419546808169 ], [ -50.315287877350123, -21.574420542065148 ], [ -50.315156512545222, -21.574422532437257 ], [ -50.315026138058791, -21.574424522884211 ], [ -50.314894753968261, -21.574427508882522 ], [ -50.314763398134254, -21.574430494239138 ], [ -50.314633042149836, -21.574434474570801 ], [ -50.314631753968449, -21.574434508875488 ], [ -50.314499768247636, -21.574437508547458 ], [ -50.31436878247667, -21.574440508218107 ], [ -50.314366375481981, -21.57434854977609 ], [ -50.314332248141902, -21.574376671881108 ], [ -50.314283750626807, -21.574423574586589 ], [ -50.314227186848903, -21.574454365383005 ], [ -50.314212143581898, -21.574494501328999 ], [ -50.314375524692501, -21.574519732649204 ], [ -50.314443680460904, -21.574520252732 ] ] ], [ [ [ -50.319379680197002, -21.574483043823005 ], [ -50.319448858482701, -21.574483606707595 ], [ -50.319519751748302, -21.574485196672796 ], [ -50.319589365053403, -21.574485453995596 ], [ -50.3196587582582, -21.574485476501 ], [ -50.319727147141698, -21.574483202162298 ], [ -50.319798249293697, -21.574482452418899 ], [ -50.319865964498803, -21.574480871269195 ], [ -50.319933503892798, -21.574479052926602 ], [ -50.320001547612399, -21.574476917018195 ], [ -50.3200692624333, -21.574477681919298 ], [ -50.320135362843097, -21.574476346963205 ], [ -50.320105080228998, -21.574444368561309 ], [ -50.320045359459236, -21.574386077625793 ], [ -50.319940326467297, -21.574389465784016 ], [ -50.319938901666426, -21.574389505592158 ], [ -50.319811932783672, -21.574392504853755 ], [ -50.319687582493174, -21.574395489257672 ], [ -50.319561200786843, -21.574399469780243 ], [ -50.319557300964675, -21.574399546536071 ], [ -50.319430961572536, -21.574400541331357 ], [ -50.319345330887018, -21.574401900546171 ], [ -50.319344750067501, -21.574405586600005 ], [ -50.319340503228702, -21.574425407467494 ], [ -50.319334994500799, -21.574446620761911 ], [ -50.31932690485921, -21.574464799046201 ], [ -50.319319849633601, -21.574482029659105 ], [ -50.319379680197002, -21.574483043823005 ] ] ], [ [ [ -50.320348092941401, -21.574472519410488 ], [ -50.320420415577601, -21.574470836476991 ], [ -50.320488321966309, -21.574469527518893 ], [ -50.3205581280167, -21.574466316421304 ], [ -50.320627997349497, -21.574466501545302 ], [ -50.320696099536399, -21.574466237237893 ], [ -50.320765151226304, -21.574466383993808 ], [ -50.320834383287099, -21.574462925277899 ], [ -50.320905086626901, -21.5744616643033 ], [ -50.320977813332902, -21.574459884581199 ], [ -50.321048928978797, -21.574458050809397 ], [ -50.321116754220903, -21.574456544307601 ], [ -50.321185333048902, -21.574455829462398 ], [ -50.3212548746938, -21.574454606750198 ], [ -50.321322532129301, -21.574452816214592 ], [ -50.321392210174302, -21.574450790544294 ], [ -50.321462983845301, -21.574450497210499 ], [ -50.321535214117297, -21.574452285154404 ], [ -50.321602792055998, -21.574449472120289 ], [ -50.321671331142902, -21.574445609269802 ], [ -50.3217410398521, -21.574443325109488 ], [ -50.321811594341703, -21.574444366173097 ], [ -50.321880046837599, -21.5744453145759 ], [ -50.321951998613997, -21.574447557327794 ], [ -50.322021636410902, -21.574444990078597 ], [ -50.322095378645599, -21.574444201734707 ], [ -50.322166236561301, -21.574444264124502 ], [ -50.322237896701502, -21.5744437698227 ], [ -50.322307556764407, -21.574443729340405 ], [ -50.322378890011699, -21.574440564435694 ], [ -50.322452298601597, -21.574437742939391 ], [ -50.322527163801503, -21.57443720202259 ], [ -50.322601974585602, -21.574437414812603 ], [ -50.322617377096599, -21.574357773377095 ], [ -50.322624593947694, -21.574311060358006 ], [ -50.322535730429365, -21.574312529173799 ], [ -50.322534332433499, -21.574312546364183 ], [ -50.322411009276173, -21.5743135409028 ], [ -50.322288686165734, -21.574315529893031 ], [ -50.322166357314231, -21.574317518977075 ], [ -50.322044028336606, -21.574320502607204 ], [ -50.32204270817585, -21.574320529527192 ], [ -50.321921368317923, -21.574322518702242 ], [ -50.321798995994058, -21.574325503386415 ], [ -50.321675682948062, -21.574328486763577 ], [ -50.321553369718174, -21.574332464426075 ], [ -50.321551995994263, -21.574332503379864 ], [ -50.321428012198723, -21.574335502984564 ], [ -50.321307039522061, -21.57433845353518 ], [ -50.321186048538621, -21.574344355530418 ], [ -50.32118328402666, -21.574344467180687 ], [ -50.321059634422184, -21.574348423965262 ], [ -50.3209369838047, -21.574354358668749 ], [ -50.320934369841432, -21.574354464405605 ], [ -50.320812645425889, -21.574358422920433 ], [ -50.320688920102448, -21.574364361732169 ], [ -50.32068502846019, -21.57436450256812 ], [ -50.320563315963149, -21.574367471162866 ], [ -50.320439629353189, -21.574372418623494 ], [ -50.320315655875916, -21.574377417550707 ], [ -50.320312995995856, -21.574377503346863 ], [ -50.320190273567931, -21.574380472435088 ], [ -50.320096923563909, -21.574384176797476 ], [ -50.320133499095299, -21.574419876630802 ], [ -50.320186100565003, -21.574475423692 ], [ -50.320205931305601, -21.574475064899101 ], [ -50.320277734472903, -21.574473686241404 ], [ -50.320348092941401, -21.574472519410488 ] ] ], [ [ [ -50.323057947802802, -21.574439361639094 ], [ -50.323130294684603, -21.574438391513699 ], [ -50.323202954552499, -21.574438143914005 ], [ -50.323274192434098, -21.5744381171097 ], [ -50.323342065159402, -21.574437914211899 ], [ -50.323414460431003, -21.574437602712802 ], [ -50.323483474766, -21.574437656730705 ], [ -50.323556233004801, -21.574438538531496 ], [ -50.323626052217001, -21.574437563622688 ], [ -50.3236949629921, -21.57443968864909 ], [ -50.32376582357, -21.574439445157591 ], [ -50.3238387148605, -21.574439344028104 ], [ -50.323909508873797, -21.574438260014894 ], [ -50.323978682123403, -21.574437290118592 ], [ -50.324048239342609, -21.5744381449644 ], [ -50.32412057935931, -21.57444098976741 ], [ -50.324193638457707, -21.574440412760694 ], [ -50.324261406241497, -21.574440931903784 ], [ -50.324330698620898, -21.574441104730894 ], [ -50.324402207602198, -21.574440672372489 ], [ -50.324471016836206, -21.5744405184501 ], [ -50.324544223508703, -21.574439055993299 ], [ -50.324616145078309, -21.574441450204692 ], [ -50.324688098741404, -21.574444978099297 ], [ -50.3247613559626, -21.574447796422202 ], [ -50.324828810411901, -21.574446704189697 ], [ -50.324899412016698, -21.574445995562094 ], [ -50.324971148928498, -21.574445472207092 ], [ -50.325039672654697, -21.574445533154496 ], [ -50.325109188443108, -21.574444711726297 ], [ -50.325178732789503, -21.574445264668803 ], [ -50.325251629502297, -21.574444792140486 ], [ -50.3253208607074, -21.5744452441613 ], [ -50.325395732402498, -21.574444554200188 ], [ -50.325468840550499, -21.574444596415894 ], [ -50.3255395619043, -21.574446237897799 ], [ -50.325613321699102, -21.574446248761792 ], [ -50.325680897117898, -21.574444820512095 ], [ -50.325748175724399, -21.574442855799692 ], [ -50.325799200791799, -21.574418016123701 ], [ -50.325802198563501, -21.574361511295603 ], [ -50.325810112204898, -21.574297349590005 ], [ -50.3258232951111, -21.574233061087803 ], [ -50.325843040619397, -21.574167472967588 ], [ -50.325861689072099, -21.574106520103093 ], [ -50.325880486953743, -21.574019023512673 ], [ -50.325866160178897, -21.574019471223998 ], [ -50.325864871189147, -21.574019506469174 ], [ -50.325736871062119, -21.574022506468793 ], [ -50.325735944810852, -21.574022520884771 ], [ -50.325740664510832, -21.574278530333753 ], [ -50.325617346488663, -21.574280519331133 ], [ -50.325495699177182, -21.574283486335524 ], [ -50.325373369718534, -21.574287464525824 ], [ -50.325370686166195, -21.574287529973315 ], [ -50.325247686044129, -21.574289529972091 ], [ -50.325246332433721, -21.574289546434802 ], [ -50.325123009277533, -21.574290540973443 ], [ -50.325000686044127, -21.574292529965664 ], [ -50.324999332433705, -21.574292546428381 ], [ -50.324875998447908, -21.57429354105432 ], [ -50.324752664510996, -21.574295530307918 ], [ -50.324628675304893, -21.574297530130572 ], [ -50.324505686044148, -21.574299529952725 ], [ -50.324503000059373, -21.57429955178829 ], [ -50.324379666197871, -21.574299551785352 ], [ -50.32425699844763, -21.574300541038202 ], [ -50.324133664387901, -21.574302530293767 ], [ -50.324131000058863, -21.574302551778615 ], [ -50.324008666197699, -21.574302551775688 ], [ -50.323885332310603, -21.574303546400348 ], [ -50.323884000058889, -21.574303551772186 ], [ -50.323761000058354, -21.57430355176902 ], [ -50.323640343152704, -21.57430355176637 ], [ -50.323518686043883, -21.574305529927074 ], [ -50.323516000058859, -21.574305551762631 ], [ -50.323394343152927, -21.574305551759981 ], [ -50.323272686043836, -21.57430752992067 ], [ -50.32327000005936, -21.574307551756224 ], [ -50.323147343152606, -21.574307551753531 ], [ -50.323025686043806, -21.574309529914231 ], [ -50.323023000058356, -21.574309551749781 ], [ -50.322901671613138, -21.574309551746875 ], [ -50.322779343142464, -21.574310546283854 ], [ -50.322778000059358, -21.574310551743416 ], [ -50.322663709102159, -21.574310551740918 ], [ -50.322655517240797, -21.574363575866798 ], [ -50.322641215357201, -21.574437526414599 ], [ -50.322840264554699, -21.574438092374898 ], [ -50.3229114783, -21.574440055200292 ], [ -50.322985029766009, -21.574439218852493 ], [ -50.323057947802802, -21.574439361639094 ] ] ], [ [ [ -50.314675056689026, -21.57414393462151 ], [ -50.314753957725856, -21.574141525427276 ], [ -50.314755246165852, -21.57414149111564 ], [ -50.314887246165924, -21.574138491112123 ], [ -50.315003810089394, -21.574135841928939 ], [ -50.31500070184925, -21.573952276686502 ], [ -50.314938919402103, -21.573959411278899 ], [ -50.314882222833205, -21.573988697013103 ], [ -50.314833203377503, -21.574032414866412 ], [ -50.314775438801902, -21.57407131403999 ], [ -50.314722514471399, -21.574110821616888 ], [ -50.314675056689026, -21.57414393462151 ] ] ], [ [ [ -50.3179388498964, -21.573778385299502 ], [ -50.3178722675176, -21.5737778738063 ], [ -50.3178019432996, -21.5737787533212 ], [ -50.317732320354501, -21.573782009917096 ], [ -50.317662038376596, -21.573786087875298 ], [ -50.317590686041697, -21.57379180460379 ], [ -50.317519055253896, -21.573793852072299 ], [ -50.317449666851601, -21.573799143565687 ], [ -50.317380367437202, -21.573805012818305 ], [ -50.317312415164899, -21.573808326651005 ], [ -50.3172423692995, -21.573811754476498 ], [ -50.317171076496301, -21.573814923216297 ], [ -50.317100870381999, -21.573818223754198 ], [ -50.317033051630098, -21.573822515789001 ], [ -50.316964410742301, -21.573830734115887 ], [ -50.316895796452002, -21.573835203989894 ], [ -50.3168261448576, -21.57383892222861 ], [ -50.316757904188101, -21.573840346732105 ], [ -50.316688497728698, -21.573841936537804 ], [ -50.3166203029607, -21.573844893003589 ], [ -50.316553074469198, -21.573851078018791 ], [ -50.316484186622297, -21.573857338557897 ], [ -50.316414909645999, -21.573861784320094 ], [ -50.316345548962701, -21.573866292258298 ], [ -50.316276898944203, -21.573871258822095 ], [ -50.316242215729197, -21.573875704216594 ], [ -50.316173365835297, -21.573880192520004 ], [ -50.316105493548001, -21.573881882544701 ], [ -50.3160362442677, -21.573883874616403 ], [ -50.315966042834198, -21.573888209621888 ], [ -50.315895949468903, -21.5738918083991 ], [ -50.315825651438601, -21.573894375329701 ], [ -50.315758101182098, -21.573897688490394 ], [ -50.3156901502878, -21.5739010340336 ], [ -50.315622117772897, -21.573907053678791 ], [ -50.315553442014703, -21.573916382431992 ], [ -50.315484118422397, -21.573924409969596 ], [ -50.315415207081401, -21.573929619841895 ], [ -50.3153470649643, -21.573933468742108 ], [ -50.3152771849511, -21.573933326872602 ], [ -50.315208301111703, -21.573933789030896 ], [ -50.3151405596929, -21.573937334844096 ], [ -50.315081530334282, -21.573942266911132 ], [ -50.315135552537143, -21.57394146658077 ], [ -50.315136776252849, -21.573941452984119 ], [ -50.315271164365512, -21.573940457513324 ], [ -50.315404365293524, -21.573938484162941 ], [ -50.315540178342708, -21.573934518814326 ], [ -50.315543776252881, -21.573934452973326 ], [ -50.315677566171836, -21.573933461933844 ], [ -50.315812356389202, -21.573930488616149 ], [ -50.315813552671202, -21.573930466560817 ], [ -50.315948588391805, -21.573928466031926 ], [ -50.316084958853139, -21.573926475218915 ], [ -50.316219329415766, -21.573923489202599 ], [ -50.316220552671261, -21.573923466550028 ], [ -50.316355552537281, -21.573921466548448 ], [ -50.316356776252924, -21.57392145295179 ], [ -50.316491182229434, -21.573920457348667 ], [ -50.316627561327913, -21.573918466409093 ], [ -50.316761552671238, -21.573916466535753 ], [ -50.316896552537258, -21.573914466534163 ], [ -50.316897776252929, -21.573914452937501 ], [ -50.317032776118978, -21.573913452934953 ], [ -50.317034000064794, -21.573913448401864 ], [ -50.317167794087659, -21.573913448398844 ], [ -50.317303588255818, -21.573911465998155 ], [ -50.317306000064796, -21.573911448394703 ], [ -50.317440378880704, -21.573911448391453 ], [ -50.317572155166197, -21.573910457588859 ], [ -50.317706552537111, -21.573908466512894 ], [ -50.317709000064795, -21.57390844838412 ], [ -50.317841534658307, -21.57390844838163 ], [ -50.317973070506717, -21.573904521933919 ], [ -50.31797677625287, -21.573904452909137 ], [ -50.318111145966888, -21.573903457574655 ], [ -50.318243515744641, -21.573901467047936 ], [ -50.318244776252854, -21.573901452902078 ], [ -50.318263813990143, -21.573901311881411 ], [ -50.318252865998502, -21.573894119058998 ], [ -50.31819668617991, -21.573857409866299 ], [ -50.318138816867702, -21.573824508693399 ], [ -50.318074767941603, -21.57380013256569 ], [ -50.318005347327102, -21.573789789693802 ], [ -50.3179388498964, -21.573778385299502 ] ] ], [ [ [ -50.322806423664602, -21.573521485990597 ], [ -50.322810455966803, -21.573453009387389 ], [ -50.321788955069799, -21.573518103390104 ], [ -50.319219695554501, -21.573650898444694 ], [ -50.319278987169398, -21.573703833336296 ], [ -50.319329304868603, -21.573744339841106 ], [ -50.319388693140098, -21.573772487265096 ], [ -50.319456035151397, -21.573785107319701 ], [ -50.319525121483601, -21.5737993406199 ], [ -50.3195925810586, -21.573821960265199 ], [ -50.319650700180603, -21.573862697140399 ], [ -50.319662047496877, -21.573870916511975 ], [ -50.319708033614994, -21.573869522993448 ], [ -50.319839821674812, -21.573865559439767 ], [ -50.319972610493743, -21.573859613667711 ], [ -50.319974957870905, -21.573859525281712 ], [ -50.320105375693657, -21.573855543054883 ], [ -50.320237146180403, -21.573850589273697 ], [ -50.320368555196303, -21.573844616142487 ], [ -50.320501555064475, -21.573838616144865 ], [ -50.320502746866119, -21.573838566690835 ], [ -50.320633531916897, -21.573833612708629 ], [ -50.320765317891471, -21.573826676600671 ], [ -50.320767746866849, -21.57382656668371 ], [ -50.320899793808039, -21.573821564908801 ], [ -50.321032770296974, -21.573816565789169 ], [ -50.321164746867701, -21.573811566673122 ], [ -50.321296746736799, -21.573806566674563 ], [ -50.321299246178825, -21.573806490938786 ], [ -50.321430601884316, -21.573803505578638 ], [ -50.321560957743529, -21.573799525243341 ], [ -50.321562246179035, -21.573799490931826 ], [ -50.321694231802816, -21.573796491255102 ], [ -50.321825217410066, -21.573793491581231 ], [ -50.321826497063604, -21.573793467234736 ], [ -50.321957871505361, -21.573791476709705 ], [ -50.322089246048201, -21.573788490920926 ], [ -50.32209045856532, -21.573788467815596 ], [ -50.322220458436306, -21.573786467814156 ], [ -50.322221748440363, -21.57378645300491 ], [ -50.322353103403508, -21.573785457888384 ], [ -50.322482477961366, -21.573783467508065 ], [ -50.322613468186972, -21.573781467653859 ], [ -50.322743458436321, -21.57377946780047 ], [ -50.32274472918494, -21.573779453138211 ], [ -50.322747719303052, -21.573779430137229 ], [ -50.322749175888703, -21.5737746771281 ], [ -50.322771146397002, -21.573712012551898 ], [ -50.322788539204801, -21.573649684961286 ], [ -50.322800589236699, -21.573584231100693 ], [ -50.322806423664602, -21.573521485990597 ] ] ], [ [ [ -50.326054605269398, -21.57341568709429 ], [ -50.326079767094697, -21.573356838525292 ], [ -50.326100672035103, -21.573295311577304 ], [ -50.326106522920902, -21.573276715286593 ], [ -50.323123508306999, -21.573433059208799 ], [ -50.322849295314803, -21.573450534268403 ], [ -50.322844966533196, -21.5735240460189 ], [ -50.322838938700407, -21.573588871244787 ], [ -50.3228263357665, -21.573657328477992 ], [ -50.322808228556198, -21.573722216208488 ], [ -50.322788278472864, -21.573779118142635 ], [ -50.322874093778132, -21.573778458022833 ], [ -50.323003458436304, -21.573776467793675 ], [ -50.323004748440361, -21.573776452984422 ], [ -50.323136103404678, -21.573775457867882 ], [ -50.323265458565317, -21.573773467784843 ], [ -50.323395458565344, -21.573771467781434 ], [ -50.323525458436322, -21.573769467780039 ], [ -50.323526729184934, -21.573769453117759 ], [ -50.323656093777501, -21.573768458002387 ], [ -50.323785458436305, -21.57376646777324 ], [ -50.323786729184931, -21.57376645311097 ], [ -50.323916093778372, -21.573765457995599 ], [ -50.324044148854817, -21.573763487914395 ], [ -50.324170839699413, -21.573759528821654 ], [ -50.324174729184961, -21.573759453100799 ], [ -50.324304093778572, -21.573758457985424 ], [ -50.324433458565395, -21.573756467754301 ], [ -50.324563458436373, -21.573754467752885 ], [ -50.324564729184956, -21.573754453090626 ], [ -50.324694093778376, -21.57375345797524 ], [ -50.32482282339555, -21.573751477516229 ], [ -50.324952188332141, -21.573748492167908 ], [ -50.324953458565417, -21.573748467740725 ], [ -50.325083458565466, -21.573746467737312 ], [ -50.325212793629298, -21.573744477963995 ], [ -50.325340188461325, -21.573741492154767 ], [ -50.325469533978264, -21.573738507255076 ], [ -50.325597879657124, -21.573734527540484 ], [ -50.325601729185088, -21.573734453063459 ], [ -50.32573042881679, -21.573733463063473 ], [ -50.325856484242045, -21.573730508635876 ], [ -50.325949695925111, -21.573727595768148 ], [ -50.325968437103697, -21.573671036667601 ], [ -50.32598854774681, -21.573606945346601 ], [ -50.326008802086299, -21.573543010085697 ], [ -50.326031251403499, -21.573478734504103 ], [ -50.326054605269398, -21.57341568709429 ] ] ] ] } },
{ "type": "Feature", "properties": { "CHAVE": null, "FAZENDA": "Faz. ABC", "NOME_FAZ": null, "ZONA": null, "TALHAO": null, "AREA_TOTAL": null, "TIPO_GEO": "VOO_PROCESSADO", "DATA_INICI": "25-03-2026", "DATA_FINAL": "25-03-2026", "HORA_INICI": "11:53:24", "HORA_FINAL": "11:53:24", "CLASSE": "APLICADO FORA DO TALHÃO", "PILOTO": "valmir alves", "AERONAVE": "PS-CBA", "AREA_HA": 1.5846653094e-05 }, "geometry": { "type": "MultiPolygon", "coordinates": [ [ [ [ -50.314411094830461, -21.574260476857372 ], [ -50.314466013256911, -21.57422388614749 ], [ -50.314467696516701, -21.574222712219051 ], [ -50.314519599716476, -21.574184844687938 ], [ -50.314524338206567, -21.574181666014699 ], [ -50.314580412542476, -21.574147160121047 ], [ -50.31458157612316, -21.574146460894152 ], [ -50.314492246165656, -21.574148491122674 ], [ -50.314361217526496, -21.574151491779521 ], [ -50.314364880657379, -21.574291440492715 ], [ -50.314411094830461, -21.574260476857372 ] ] ], [ [ [ -50.319755859224664, -21.574115248627312 ], [ -50.319773968039897, -21.574117912748473 ], [ -50.319788046516798, -21.57411804074334 ], [ -50.319801566197455, -21.574114365295571 ], [ -50.319813378047719, -21.574107198780514 ], [ -50.319822478181841, -21.574097150278376 ], [ -50.319828093182522, -21.574085073808568 ], [ -50.319829745833424, -21.574071995746664 ], [ -50.319829237755044, -21.574055402107344 ], [ -50.319825840061284, -21.574040004669595 ], [ -50.319817006260898, -21.574026629049712 ], [ -50.319801047320119, -21.574009891091286 ], [ -50.31978750049872, -21.573999984994749 ], [ -50.319741102875142, -21.573977139550891 ], [ -50.319735693207214, -21.573974189801262 ], [ -50.319680005154353, -21.573940726815373 ], [ -50.319674806582974, -21.57393729209117 ], [ -50.319621736109184, -21.573898850753753 ], [ -50.319621127355134, -21.573898416978711 ], [ -50.319585214305462, -21.573873244790185 ], [ -50.319576635066255, -21.573873504767086 ], [ -50.319444274385198, -21.573876490349612 ], [ -50.319311274385122, -21.573879490353136 ], [ -50.319310070507235, -21.573879521898601 ], [ -50.319176672380358, -21.573883503936024 ], [ -50.31904490428056, -21.573886476152285 ], [ -50.318911534411257, -21.573888466750613 ], [ -50.318910274252879, -21.573888490366716 ], [ -50.318777274384864, -21.573891490367281 ], [ -50.31877603348218, -21.573891523022109 ], [ -50.318644899848223, -21.573895466895031 ], [ -50.318512767120041, -21.573896452962895 ], [ -50.31850903348208, -21.573896523029173 ], [ -50.318377904412259, -21.57390046676483 ], [ -50.318345557257317, -21.573900706374047 ], [ -50.318391384981254, -21.57393729843167 ], [ -50.318398169001831, -21.57394347651789 ], [ -50.31843853395047, -21.573985382801418 ], [ -50.318443057643833, -21.573989502512191 ], [ -50.318486925688092, -21.574024530926863 ], [ -50.318494182751479, -21.574029321135896 ], [ -50.318534192999138, -21.574050870406179 ], [ -50.318550924550209, -21.574056367620255 ], [ -50.318572224173522, -21.574059442800444 ], [ -50.318590088565628, -21.574058891469136 ], [ -50.318606515020427, -21.574052300278087 ], [ -50.318635164685737, -21.574034304505762 ], [ -50.318636409146258, -21.574033496039995 ], [ -50.318690568606165, -21.573997120083327 ], [ -50.318697483189062, -21.573993009575688 ], [ -50.318753429305531, -21.573963768903909 ], [ -50.318760622527428, -21.573960483343399 ], [ -50.318823603939421, -21.573935648098075 ], [ -50.318831305349718, -21.573933079730885 ], [ -50.318894129659093, -21.57391579904202 ], [ -50.318898056680439, -21.573914829869572 ], [ -50.31896156560866, -21.573900925023064 ], [ -50.318967098594484, -21.573899924217137 ], [ -50.319033138769079, -21.573890455016038 ], [ -50.319040007912889, -21.573889781710733 ], [ -50.31910614279667, -21.573886269699674 ], [ -50.319109519396946, -21.573886164201173 ], [ -50.319173738092935, -21.573885559371949 ], [ -50.319185353146111, -21.573886325810776 ], [ -50.3192465750165, -21.573895034918358 ], [ -50.319260371545496, -21.573898322275028 ], [ -50.319321053482149, -21.573918908797783 ], [ -50.319326702708651, -21.573921081578273 ], [ -50.319386887146017, -21.573947056005963 ], [ -50.319391951673538, -21.57394947157567 ], [ -50.319447554459089, -21.573978618071827 ], [ -50.31945188963725, -21.5739806305148 ], [ -50.31950981467574, -21.574004214552438 ], [ -50.319511924310078, -21.574005111293864 ], [ -50.319571481567664, -21.574031510293349 ], [ -50.319580158480512, -21.574036063845739 ], [ -50.319631579374352, -21.574067578592022 ], [ -50.319635294869833, -21.574069639691789 ], [ -50.319686825428214, -21.574095383907093 ], [ -50.319695706261115, -21.574098807700871 ], [ -50.319749491203822, -21.574113893677406 ], [ -50.319755859224664, -21.574115248627312 ] ] ], [ [ [ -50.325982305503288, -21.573806960182424 ], [ -50.32596642535772, -21.573870840079739 ], [ -50.325965832923828, -21.573873053575937 ], [ -50.325948345031293, -21.573934016738953 ], [ -50.325947674657812, -21.573936671481288 ], [ -50.325934217476409, -21.573998213943341 ], [ -50.325934184505819, -21.573998366055182 ], [ -50.325930079389849, -21.574017473750349 ], [ -50.325994160305875, -21.574015471223412 ], [ -50.325986054403252, -21.573788533056646 ], [ -50.325982957509225, -21.573804049183863 ], [ -50.325982305503288, -21.573806960182424 ] ] ] ] } },
{ "type": "Feature", "properties": { "CHAVE": null, "FAZENDA": "Faz. ABC", "NOME_FAZ": null, "ZONA": null, "TALHAO": null, "AREA_TOTAL": null, "TIPO_GEO": "VOO_PROCESSADO", "DATA_INICI": "25-03-2026", "DATA_FINAL": "25-03-2026", "HORA_INICI": "11:53:24", "HORA_FINAL": "11:53:24", "CLASSE": "SOBREPOSIÇÃO", "PILOTO": "valmir alves", "AERONAVE": "PS-CBA", "AREA_HA": 7.3139867170999998e-05 }, "geometry": { "type": "Polygon", "coordinates": [ [ [ -50.319813378047719, -21.574107198780514 ], [ -50.319801566197455, -21.574114365295571 ], [ -50.319788046516798, -21.57411804074334 ], [ -50.319773968039897, -21.574117912748473 ], [ -50.319755859224664, -21.574115248627312 ], [ -50.319749491203822, -21.574113893677406 ], [ -50.31971964197065, -21.574105521355929 ], [ -50.319679036077162, -21.574106495894615 ], [ -50.319677799093178, -21.574106530217961 ], [ -50.319552748608466, -21.574110468819971 ], [ -50.319427699159625, -21.574111453463829 ], [ -50.319426377768224, -21.574111469153134 ], [ -50.319301688819216, -21.574113448346573 ], [ -50.319175000061328, -21.57411344834939 ], [ -50.319048000060839, -21.574113448352687 ], [ -50.318919000061818, -21.574113448356055 ], [ -50.318793000060339, -21.574113448359348 ], [ -50.31866500006133, -21.574113448362688 ], [ -50.318536000061819, -21.574113448366059 ], [ -50.318408000061325, -21.574113448369406 ], [ -50.318280000061335, -21.574113448372735 ], [ -50.318151000061825, -21.57411344837611 ], [ -50.318023000061324, -21.57411344837945 ], [ -50.317895000061334, -21.574113448382789 ], [ -50.317893729051171, -21.574113453271242 ], [ -50.317764364545951, -21.574114448386467 ], [ -50.317636000061817, -21.574114448389587 ], [ -50.317633458426847, -21.574114467939363 ], [ -50.317504729159189, -21.574116448393536 ], [ -50.317378000061332, -21.574116448396357 ], [ -50.317375458426888, -21.574116467946151 ], [ -50.317246729158953, -21.57411844840032 ], [ -50.317118000062322, -21.574118448403187 ], [ -50.316988000062317, -21.574118448406587 ], [ -50.316985458427006, -21.574118467956382 ], [ -50.316856729158822, -21.574120448410564 ], [ -50.316728000062298, -21.574120448413442 ], [ -50.316726729051318, -21.574120453301902 ], [ -50.316597364546716, -21.574121448417117 ], [ -50.316468000062329, -21.574121448420243 ], [ -50.316336000063309, -21.5741214484237 ], [ -50.316333458427202, -21.574121467973495 ], [ -50.3162047291584, -21.574123448427681 ], [ -50.316074000063288, -21.574123448430619 ], [ -50.316072738751672, -21.574123453244731 ], [ -50.315942369397021, -21.574124448434304 ], [ -50.315813000062313, -21.574124448437455 ], [ -50.315810496923838, -21.574124467399468 ], [ -50.31567849705484, -21.574126467400966 ], [ -50.315547487433157, -21.574128467550214 ], [ -50.315416122649005, -21.57413045792946 ], [ -50.315284748435921, -21.574131453191871 ], [ -50.315283496923811, -21.574131467413391 ], [ -50.315151497054813, -21.57413346741491 ], [ -50.315020477952451, -21.574135467708921 ], [ -50.315019246034922, -21.574135491111591 ], [ -50.315003810089394, -21.574135841928939 ], [ -50.315005447329398, -21.574232533415231 ], [ -50.31513983563336, -21.574230542481203 ], [ -50.315274223879193, -21.574229547016014 ], [ -50.315275447329434, -21.574229533422372 ], [ -50.315410447463407, -21.574227533423969 ], [ -50.315412821526593, -21.574227481183609 ], [ -50.315548023113756, -21.574223533696358 ], [ -50.315681223879182, -21.574222547026814 ], [ -50.315683643478742, -21.574222511380839 ], [ -50.315819045517856, -21.574219524574989 ], [ -50.315953429515844, -21.57421753370426 ], [ -50.316090411744618, -21.574215533967308 ], [ -50.316091670453218, -21.574215510794399 ], [ -50.316226059005281, -21.57421252438597 ], [ -50.316359835633008, -21.57421054251353 ], [ -50.316494223879133, -21.574209547048333 ], [ -50.316495411608621, -21.57420953398 ], [ -50.316632411744592, -21.574207533981635 ], [ -50.316766456487755, -21.574205533326182 ], [ -50.316900835633426, -21.574203542527801 ], [ -50.31703461191519, -21.574202551595906 ], [ -50.317169000064787, -21.574202551599168 ], [ -50.317171411608697, -21.574202533997823 ], [ -50.317307205911149, -21.574200551603305 ], [ -50.317441000064797, -21.574200551606321 ], [ -50.317442242148282, -21.574200546936936 ], [ -50.317575242280242, -21.574199546939457 ], [ -50.317576447329451, -21.574199533483149 ], [ -50.317710223773652, -21.574197551613899 ], [ -50.317844000064802, -21.574197551616908 ], [ -50.317848929365795, -21.574197478064093 ], [ -50.31798107706426, -21.574193533360933 ], [ -50.318114223879213, -21.574192547090991 ], [ -50.318115484123986, -21.574192532948167 ], [ -50.318247854032045, -21.574190542426962 ], [ -50.318382223879226, -21.574189547098026 ], [ -50.31838596639151, -21.574189476968876 ], [ -50.318517100153258, -21.574185533100579 ], [ -50.318649233011072, -21.574184547037195 ], [ -50.318652966391419, -21.57418447697594 ], [ -50.318785346140999, -21.574180495633861 ], [ -50.31891709572119, -21.574177523842298 ], [ -50.319050465722306, -21.574175533248535 ], [ -50.319051725618131, -21.574175509637382 ], [ -50.319184725750119, -21.574172509637926 ], [ -50.319185929365297, -21.574172478099445 ], [ -50.31931932762383, -21.57416849606566 ], [ -50.319451725749957, -21.574165509645017 ], [ -50.319584725749884, -21.574162509648531 ], [ -50.319586003976617, -21.574162475865982 ], [ -50.319717985237695, -21.574158476437351 ], [ -50.31985096652253, -21.574154477003741 ], [ -50.319853389383809, -21.574154386332228 ], [ -50.319986216184724, -21.574148438867539 ], [ -50.320116042264779, -21.574144474715418 ], [ -50.320117206202006, -21.57414443506746 ], [ -50.320250206333917, -21.574139435066051 ], [ -50.320251501083384, -21.574139381303521 ], [ -50.320383473021039, -21.574133382582605 ], [ -50.320515849145679, -21.57412741073113 ], [ -50.320647253272902, -21.574122433305334 ], [ -50.32064968198975, -21.5741223234002 ], [ -50.320781468093756, -21.574115387293475 ], [ -50.320912229721216, -21.574110434204524 ], [ -50.321045206331881, -21.574105435087358 ], [ -50.321177253271578, -21.574100433319526 ], [ -50.321308003875338, -21.57409548064911 ], [ -50.321438753955327, -21.574092509059327 ], [ -50.32144004213221, -21.574092474754757 ], [ -50.321570398119526, -21.57408849442298 ], [ -50.321701753955111, -21.574085509066304 ], [ -50.321832142818032, -21.574082523067943 ], [ -50.321963503068083, -21.574080532764327 ], [ -50.321964753823977, -21.57408050907619 ], [ -50.322096147742975, -21.574077522854473 ], [ -50.322224896595088, -21.574075542106279 ], [ -50.322356251688817, -21.57407454699511 ], [ -50.322357541435458, -21.574074532188863 ], [ -50.322487531803226, -21.574072532340463 ], [ -50.322618522169364, -21.574070532490978 ], [ -50.322747906221785, -21.574068541971869 ], [ -50.3228772709423, -21.574067546861762 ], [ -50.32287854143545, -21.574067532202513 ], [ -50.323007896593765, -21.574065542126796 ], [ -50.323139251688822, -21.574064547015588 ], [ -50.323140541435457, -21.574064532209348 ], [ -50.323270541564476, -21.574062532210768 ], [ -50.323400541564467, -21.574060532214176 ], [ -50.323529906221175, -21.574058541992326 ], [ -50.323659270942308, -21.574057546882205 ], [ -50.323660541435459, -21.574057532222962 ], [ -50.323789906221343, -21.574055541999108 ], [ -50.323919270942305, -21.574054546888998 ], [ -50.323920541435484, -21.574054532229745 ], [ -50.324050541564489, -21.574052532231146 ], [ -50.324053160179567, -21.574052471176547 ], [ -50.324179216069311, -21.574048531934061 ], [ -50.324307270942285, -21.574047546899148 ], [ -50.3243085414354, -21.574047532239906 ], [ -50.324438541564426, -21.57404553224131 ], [ -50.324567906221212, -21.57404354201946 ], [ -50.324697270942288, -21.574042546909329 ], [ -50.324698541435396, -21.574042532250076 ], [ -50.324828541564415, -21.574040532251487 ], [ -50.324829811542159, -21.574040507829288 ], [ -50.324959176606704, -21.574037522485291 ], [ -50.325088541564362, -21.574035532258296 ], [ -50.32521854156434, -21.574033532261691 ], [ -50.325219871062359, -21.574033506455248 ], [ -50.325347841368135, -21.574030507154557 ], [ -50.325477811670979, -21.574027507843279 ], [ -50.325479120220791, -21.574027472457704 ], [ -50.325606196076876, -21.574023532125175 ], [ -50.325734270942164, -21.574022546936494 ], [ -50.325735944810852, -21.574022520884771 ], [ -50.325735335490194, -21.573989469663875 ], [ -50.325611335613253, -21.573991469665106 ], [ -50.325609971544637, -21.573991497300149 ], [ -50.325486971666692, -21.57399449730039 ], [ -50.325485630165836, -21.573994535472497 ], [ -50.325363971757497, -21.57399849184721 ], [ -50.32524299072243, -21.574000459021416 ], [ -50.325119667687702, -21.574001453564986 ], [ -50.325118313834871, -21.574001470030719 ], [ -50.324995990721654, -21.574003459027871 ], [ -50.324872667687714, -21.574004453571426 ], [ -50.324871335490023, -21.574004469686454 ], [ -50.32474733561309, -21.574006469687713 ], [ -50.324623335613083, -21.574008469690948 ], [ -50.324501656845044, -21.574010448209748 ], [ -50.324379000059345, -21.57401044821242 ], [ -50.324377667564683, -21.57401045358532 ], [ -50.324253667687728, -21.574011453587552 ], [ -50.324252335490051, -21.57401146970259 ], [ -50.324129667675749, -21.574013448219414 ], [ -50.324008000058875, -21.574013448222082 ], [ -50.324006667564717, -21.574013453594979 ], [ -50.323883333800069, -21.574014448225562 ], [ -50.323761000058845, -21.574014448228493 ], [ -50.323639000058378, -21.574014448231647 ], [ -50.323636313835095, -21.574014470069301 ], [ -50.323514656845731, -21.574016448235394 ], [ -50.323393000058864, -21.574016448238069 ], [ -50.323390313835155, -21.574016470075694 ], [ -50.323268656845315, -21.574018448241805 ], [ -50.323146000059367, -21.574018448244484 ], [ -50.323143313835175, -21.57401847008213 ], [ -50.323021656845782, -21.574020448248245 ], [ -50.322901000058373, -21.574020448250888 ], [ -50.32289965673386, -21.574020453711483 ], [ -50.32277732838385, -21.574021448254364 ], [ -50.322654000059345, -21.574021448257316 ], [ -50.32265126945169, -21.574021470822625 ], [ -50.322530968526962, -21.574023459271057 ], [ -50.322407667687912, -21.57402445363563 ], [ -50.322406313835309, -21.57402447010136 ], [ -50.322283313957378, -21.574026470102602 ], [ -50.322160313957376, -21.574028470105819 ], [ -50.322158971545043, -21.574028497390149 ], [ -50.322036631684682, -21.574031481292646 ], [ -50.321915291946311, -21.574033470471637 ], [ -50.321913971544937, -21.574033497396606 ], [ -50.321790987865654, -21.574036497001789 ], [ -50.321667004132635, -21.574039496611494 ], [ -50.321665630166166, -21.574039535572236 ], [ -50.321543317055458, -21.574043513237861 ], [ -50.321420004132428, -21.574046496618049 ], [ -50.321296971666634, -21.574049497409931 ], [ -50.321292951351204, -21.574049644469781 ], [ -50.321171333191892, -21.574055577066687 ], [ -50.321047716103543, -21.574059532816289 ], [ -50.321045016083993, -21.574059641331409 ], [ -50.320922322707631, -21.574065578111444 ], [ -50.320800630286953, -21.574069535591295 ], [ -50.320798079785121, -21.574069638267972 ], [ -50.320675024777564, -21.574075544912358 ], [ -50.320553971665561, -21.574078497429767 ], [ -50.320551397159669, -21.574078580310605 ], [ -50.320426397283619, -21.57408358030899 ], [ -50.320303673675703, -21.574088528836736 ], [ -50.320181004130831, -21.574091496651061 ], [ -50.320178449466894, -21.57409157823653 ], [ -50.320053061410817, -21.574096553956622 ], [ -50.319930385839875, -21.574100511236395 ], [ -50.319817008997504, -21.574103189432272 ], [ -50.319813378047719, -21.574107198780514 ] ] ] } },
{ "type": "Feature", "properties": { "CHAVE": null, "FAZENDA": "Faz. ABC", "NOME_FAZ": null, "ZONA": null, "TALHAO": null, "AREA_TOTAL": null, "TIPO_GEO": "VOO_PROCESSADO", "DATA_INICI": "25-03-2026", "DATA_FINAL": "25-03-2026", "HORA_INICI": "11:53:24", "HORA_FINAL": "11:53:24", "CLASSE": "APLICADO", "PILOTO": "valmir alves", "AERONAVE": "PS-CBA", "AREA_HA": 0.00065236557801399996 }, "geometry": { "type": "Polygon", "coordinates": [ [ [ -50.319801566197455, -21.574114365295571 ], [ -50.319788046516798, -21.57411804074334 ], [ -50.319773968039897, -21.574117912748473 ], [ -50.319755859224664, -21.574115248627312 ], [ -50.319749491203822, -21.574113893677406 ], [ -50.31971964197065, -21.574105521355929 ], [ -50.319719641962422, -21.57410552135612 ], [ -50.319695706261115, -21.574098807700871 ], [ -50.319686825428214, -21.574095383907093 ], [ -50.319635294869833, -21.574069639691789 ], [ -50.319631579374352, -21.574067578592022 ], [ -50.319580158480512, -21.574036063845739 ], [ -50.319571481567664, -21.574031510293349 ], [ -50.319511924310078, -21.574005111293864 ], [ -50.31950981467574, -21.574004214552438 ], [ -50.31945188963725, -21.5739806305148 ], [ -50.319447554459089, -21.573978618071827 ], [ -50.319391951673538, -21.57394947157567 ], [ -50.319386887146017, -21.573947056005963 ], [ -50.319326702708651, -21.573921081578273 ], [ -50.319321053482149, -21.573918908797783 ], [ -50.319260371545496, -21.573898322275028 ], [ -50.3192465750165, -21.573895034918358 ], [ -50.319185353146111, -21.573886325810776 ], [ -50.319173738092935, -21.573885559371949 ], [ -50.319109519396946, -21.573886164201173 ], [ -50.31910614279667, -21.573886269699674 ], [ -50.319040007912889, -21.573889781710733 ], [ -50.319033138769079, -21.573890455016038 ], [ -50.318967098594484, -21.573899924217137 ], [ -50.31896156560866, -21.573900925023064 ], [ -50.318898056680439, -21.573914829869572 ], [ -50.318894129659093, -21.57391579904202 ], [ -50.318831305349718, -21.573933079730885 ], [ -50.318823603939421, -21.573935648098075 ], [ -50.318760622527428, -21.573960483343399 ], [ -50.318753429305531, -21.573963768903909 ], [ -50.318697483189062, -21.573993009575688 ], [ -50.318690568606165, -21.573997120083327 ], [ -50.318636409146258, -21.574033496039995 ], [ -50.318635164685737, -21.574034304505762 ], [ -50.318606515020427, -21.574052300278087 ], [ -50.318590088565628, -21.574058891469136 ], [ -50.318572224173522, -21.574059442800444 ], [ -50.318550924550209, -21.574056367620255 ], [ -50.318534192999138, -21.574050870406179 ], [ -50.318494182751479, -21.574029321135896 ], [ -50.318486925688092, -21.574024530926863 ], [ -50.318443057643833, -21.573989502512191 ], [ -50.31843853395047, -21.573985382801418 ], [ -50.318398169001831, -21.57394347651789 ], [ -50.318391384981254, -21.57393729843167 ], [ -50.318345557257317, -21.573900706374047 ], [ -50.318244776252854, -21.573901452902078 ], [ -50.318243515744641, -21.573901467047936 ], [ -50.318111145966888, -21.573903457574655 ], [ -50.31797677625287, -21.573904452909137 ], [ -50.317973070506717, -21.573904521933919 ], [ -50.317841534658307, -21.57390844838163 ], [ -50.317709000064795, -21.57390844838412 ], [ -50.317706552537111, -21.573908466512894 ], [ -50.317572155166197, -21.573910457588859 ], [ -50.317440378880704, -21.573911448391453 ], [ -50.317306000064796, -21.573911448394703 ], [ -50.317303588255818, -21.573911465998155 ], [ -50.317167794087659, -21.573913448398844 ], [ -50.317034000064794, -21.573913448401864 ], [ -50.317032776118978, -21.573913452934953 ], [ -50.316897776252929, -21.573914452937501 ], [ -50.316896552537258, -21.573914466534163 ], [ -50.316761552671238, -21.573916466535753 ], [ -50.316627561327913, -21.573918466409093 ], [ -50.316491182229434, -21.573920457348667 ], [ -50.316356776252924, -21.57392145295179 ], [ -50.316355552537281, -21.573921466548448 ], [ -50.316220552671261, -21.573923466550028 ], [ -50.316219329415766, -21.573923489202599 ], [ -50.316084958853139, -21.573926475218915 ], [ -50.315948588391805, -21.573928466031926 ], [ -50.315813552671202, -21.573930466560817 ], [ -50.315812356389202, -21.573930488616149 ], [ -50.315677566171836, -21.573933461933844 ], [ -50.315543776252881, -21.573934452973326 ], [ -50.315540178342708, -21.573934518814326 ], [ -50.315404365293524, -21.573938484162941 ], [ -50.315271164365512, -21.573940457513324 ], [ -50.315136776252849, -21.573941452984119 ], [ -50.315135552537143, -21.57394146658077 ], [ -50.315000552671123, -21.573943466582364 ], [ -50.315003810089237, -21.574135841934361 ], [ -50.314887246165924, -21.574138491112123 ], [ -50.314755246165852, -21.57414149111564 ], [ -50.314753957725856, -21.574141525427276 ], [ -50.314623601868746, -21.574145505762527 ], [ -50.31458157612316, -21.574146460894152 ], [ -50.314580412542476, -21.574147160121047 ], [ -50.314524338206567, -21.574181666014699 ], [ -50.314519599716476, -21.574184844687938 ], [ -50.314467696516701, -21.574222712219051 ], [ -50.314466013256911, -21.57422388614749 ], [ -50.314411094830461, -21.574260476857372 ], [ -50.314364880657379, -21.574291440492715 ], [ -50.31436878247667, -21.574440508218107 ], [ -50.314499768247636, -21.574437508547458 ], [ -50.314631753968449, -21.574434508875488 ], [ -50.314633042149836, -21.574434474570801 ], [ -50.314763398134254, -21.574430494239138 ], [ -50.314894753968261, -21.574427508882522 ], [ -50.315026138058791, -21.574424522884211 ], [ -50.315156512545222, -21.574422532437257 ], [ -50.315287877350123, -21.574420542065148 ], [ -50.315419251693207, -21.574419546808169 ], [ -50.31542050294582, -21.574419532589655 ], [ -50.31555250307683, -21.574417532591177 ], [ -50.315683512603357, -21.574415532450299 ], [ -50.315814251586723, -21.574413551560561 ], [ -50.315943000062312, -21.574413551563453 ], [ -50.315944261116528, -21.574413546750382 ], [ -50.316074630600859, -21.574412551567175 ], [ -50.316206000063325, -21.574412551570347 ], [ -50.316208541444503, -21.574412532022645 ], [ -50.316337270838744, -21.574410551574314 ], [ -50.31646800006331, -21.574410551577245 ], [ -50.316598000062299, -21.574410551580662 ], [ -50.316599270817889, -21.574410546693262 ], [ -50.316728635451071, -21.574409551584342 ], [ -50.316858000062332, -21.574409551587479 ], [ -50.316860541444704, -21.57440953203977 ], [ -50.316989270839279, -21.574407551591438 ], [ -50.317118000062315, -21.574407551594316 ], [ -50.317248000062314, -21.574407551597726 ], [ -50.317250541444821, -21.574407532050014 ], [ -50.317379270839886, -21.574405551601657 ], [ -50.317506000061321, -21.574405551604492 ], [ -50.317508541444866, -21.574405532056801 ], [ -50.317637270839761, -21.574403551608441 ], [ -50.317765000061826, -21.574403551611301 ], [ -50.317766270818041, -21.574403546723889 ], [ -50.317895635451556, -21.574402551614977 ], [ -50.318023000061324, -21.574402551618061 ], [ -50.318151000061334, -21.5744025516214 ], [ -50.31827999999134, -21.574402551624761 ], [ -50.318408000061318, -21.574402551628111 ], [ -50.318536000061329, -21.574402551631454 ], [ -50.318665000061834, -21.574402551634819 ], [ -50.318793000061326, -21.574402551638162 ], [ -50.318919000060333, -21.574402551641441 ], [ -50.319048000061841, -21.574402551644813 ], [ -50.319175000060824, -21.574402551648131 ], [ -50.319303000061332, -21.574402551651463 ], [ -50.319305622107635, -21.574402530843123 ], [ -50.319430961572536, -21.574400541331357 ], [ -50.319557300964675, -21.574399546536071 ], [ -50.319561200786843, -21.574399469780243 ], [ -50.319687582493174, -21.574395489257672 ], [ -50.319811932783672, -21.574392504853755 ], [ -50.319938901666426, -21.574389505592158 ], [ -50.319940326467297, -21.574389465784016 ], [ -50.320064326590312, -21.574385465783358 ], [ -50.320065550416864, -21.57438542176267 ], [ -50.320190273567931, -21.574380472435088 ], [ -50.320312995995856, -21.574377503346863 ], [ -50.320315655875916, -21.574377417550707 ], [ -50.320439629353189, -21.574372418623494 ], [ -50.320563315963149, -21.574367471162866 ], [ -50.32068502846019, -21.57436450256812 ], [ -50.320688920102448, -21.574364361732169 ], [ -50.320812645425889, -21.574358422920433 ], [ -50.320934369841432, -21.574354464405605 ], [ -50.3209369838047, -21.574354358668749 ], [ -50.321059634422184, -21.574348423965262 ], [ -50.32118328402666, -21.574344467180687 ], [ -50.321186048538621, -21.574344355530418 ], [ -50.321307039522061, -21.57433845353518 ], [ -50.321428012198723, -21.574335502984564 ], [ -50.321551995994263, -21.574332503379864 ], [ -50.321553369718174, -21.574332464426075 ], [ -50.321675682948062, -21.574328486763577 ], [ -50.321798995994058, -21.574325503386415 ], [ -50.321921368317923, -21.574322518702242 ], [ -50.32204270817585, -21.574320529527192 ], [ -50.322044028336606, -21.574320502607204 ], [ -50.322166357314231, -21.574317518977075 ], [ -50.322288686165734, -21.574315529893031 ], [ -50.322411009276173, -21.5743135409028 ], [ -50.322534332433499, -21.574312546364183 ], [ -50.322535730429365, -21.574312529173799 ], [ -50.322655365349419, -21.57431055174073 ], [ -50.322778000059358, -21.574310551743416 ], [ -50.322779343142464, -21.574310546283854 ], [ -50.322901671613138, -21.574309551746875 ], [ -50.323023000058356, -21.574309551749781 ], [ -50.323025686043806, -21.574309529914231 ], [ -50.323147343152606, -21.574307551753531 ], [ -50.32327000005936, -21.574307551756224 ], [ -50.323272686043836, -21.57430752992067 ], [ -50.323394343152927, -21.574305551759981 ], [ -50.323516000058859, -21.574305551762631 ], [ -50.323518686043883, -21.574305529927074 ], [ -50.323640343152704, -21.57430355176637 ], [ -50.323761000058354, -21.57430355176902 ], [ -50.323884000058889, -21.574303551772186 ], [ -50.323885332310603, -21.574303546400348 ], [ -50.324008666197699, -21.574302551775688 ], [ -50.324131000058863, -21.574302551778615 ], [ -50.324133664387901, -21.574302530293767 ], [ -50.32425699844763, -21.574300541038202 ], [ -50.324379666197871, -21.574299551785352 ], [ -50.324503000059373, -21.57429955178829 ], [ -50.324505686044148, -21.574299529952725 ], [ -50.324628675304893, -21.574297530130572 ], [ -50.324752664510996, -21.574295530307918 ], [ -50.324875998447908, -21.57429354105432 ], [ -50.324999332433705, -21.574292546428381 ], [ -50.325000686044127, -21.574292529965664 ], [ -50.325123009277533, -21.574290540973443 ], [ -50.325246332433721, -21.574289546434802 ], [ -50.325247686044129, -21.574289529972091 ], [ -50.325370686166195, -21.574287529973315 ], [ -50.325373369718534, -21.574287464525824 ], [ -50.325495699177182, -21.574283486335524 ], [ -50.325617346488663, -21.574280519331133 ], [ -50.325740664510832, -21.574278530333753 ], [ -50.325735944810639, -21.574022520884771 ], [ -50.325736871062119, -21.574022506468793 ], [ -50.325864871189147, -21.574019506469174 ], [ -50.325866160178897, -21.574019471223998 ], [ -50.325930079389849, -21.574017473750349 ], [ -50.325934184505819, -21.573998366055182 ], [ -50.325934217476409, -21.573998213943341 ], [ -50.325947674657812, -21.573936671481288 ], [ -50.325948345031293, -21.573934016738953 ], [ -50.325965832923828, -21.573873053575937 ], [ -50.32596642535772, -21.573870840079739 ], [ -50.325982305503288, -21.573806960182424 ], [ -50.325982957509225, -21.573804049183863 ], [ -50.325986054403252, -21.573788533056646 ], [ -50.325983839700093, -21.57372652877422 ], [ -50.325856484242045, -21.573730508635876 ], [ -50.32573042881679, -21.573733463063473 ], [ -50.325601729185088, -21.573734453063459 ], [ -50.325597879657124, -21.573734527540484 ], [ -50.325469533978264, -21.573738507255076 ], [ -50.325340188461325, -21.573741492154767 ], [ -50.325212793629298, -21.573744477963995 ], [ -50.325083458565466, -21.573746467737312 ], [ -50.324953458565417, -21.573748467740725 ], [ -50.324952188332141, -21.573748492167908 ], [ -50.32482282339555, -21.573751477516229 ], [ -50.324694093778376, -21.57375345797524 ], [ -50.324564729184956, -21.573754453090626 ], [ -50.324563458436373, -21.573754467752885 ], [ -50.324433458565395, -21.573756467754301 ], [ -50.324304093778572, -21.573758457985424 ], [ -50.324174729184961, -21.573759453100799 ], [ -50.324170839699413, -21.573759528821654 ], [ -50.324044148854817, -21.573763487914395 ], [ -50.323916093778372, -21.573765457995599 ], [ -50.323786729184931, -21.57376645311097 ], [ -50.323785458436305, -21.57376646777324 ], [ -50.323656093777501, -21.573768458002387 ], [ -50.323526729184934, -21.573769453117759 ], [ -50.323525458436322, -21.573769467780039 ], [ -50.323395458565344, -21.573771467781434 ], [ -50.323265458565317, -21.573773467784843 ], [ -50.323136103404678, -21.573775457867882 ], [ -50.323004748440361, -21.573776452984422 ], [ -50.323003458436304, -21.573776467793675 ], [ -50.322874093778132, -21.573778458022833 ], [ -50.32274472918494, -21.573779453138211 ], [ -50.322743458436321, -21.57377946780047 ], [ -50.322613468186972, -21.573781467653859 ], [ -50.322482477961366, -21.573783467508065 ], [ -50.322353103403508, -21.573785457888384 ], [ -50.322221748440363, -21.57378645300491 ], [ -50.322220458436306, -21.573786467814156 ], [ -50.32209045856532, -21.573788467815596 ], [ -50.322089246048201, -21.573788490920926 ], [ -50.321957871505361, -21.573791476709705 ], [ -50.321826497063604, -21.573793467234736 ], [ -50.321825217410066, -21.573793491581231 ], [ -50.321694231802816, -21.573796491255102 ], [ -50.321562246179035, -21.573799490931826 ], [ -50.321560957743529, -21.573799525243341 ], [ -50.321430601884316, -21.573803505578638 ], [ -50.321299246178825, -21.573806490938786 ], [ -50.321296746736799, -21.573806566674563 ], [ -50.321164746867701, -21.573811566673122 ], [ -50.321032770296974, -21.573816565789169 ], [ -50.320899793808039, -21.573821564908801 ], [ -50.320767746866849, -21.57382656668371 ], [ -50.320765317891471, -21.573826676600671 ], [ -50.320633531916897, -21.573833612708629 ], [ -50.320502746866119, -21.573838566690835 ], [ -50.320501555064475, -21.573838616144865 ], [ -50.320368555196303, -21.573844616142487 ], [ -50.320237146180403, -21.573850589273697 ], [ -50.320105375693657, -21.573855543054883 ], [ -50.319974957870905, -21.573859525281712 ], [ -50.319972610493743, -21.573859613667711 ], [ -50.319839821674812, -21.573865559439767 ], [ -50.319708033614994, -21.573869522993448 ], [ -50.319585214305462, -21.573873244790185 ], [ -50.319621127355134, -21.573898416978711 ], [ -50.319621736109184, -21.573898850753753 ], [ -50.319674806582974, -21.57393729209117 ], [ -50.319680005154353, -21.573940726815373 ], [ -50.319735693207214, -21.573974189801262 ], [ -50.319741102875142, -21.573977139550891 ], [ -50.31978750049872, -21.573999984994749 ], [ -50.319801047320119, -21.574009891091286 ], [ -50.319817006260898, -21.574026629049712 ], [ -50.319825840061284, -21.574040004669595 ], [ -50.319829237755044, -21.574055402107344 ], [ -50.319829745833424, -21.574071995746664 ], [ -50.319828093182522, -21.574085073808568 ], [ -50.319822478181841, -21.574097150278376 ], [ -50.319817008997724, -21.574103189432265 ], [ -50.319817008997504, -21.574103189432272 ], [ -50.319813378047719, -21.574107198780514 ], [ -50.319801566197455, -21.574114365295571 ] ] ] } }
]
}
