{
"type": "FeatureCollection",
"name": "307868_SITIO_SAO_JOSE_03-04-2026_30-06-2026_14h23m",
"crs": { "type": "name", "properties": { "name": "urn:ogc:def:crs:OGC:1.3:CRS84" } },
"features": [
{ "type": "Feature", "properties": { "CHAVE": "3078681", "FAZENDA": "307868", "NOME_FAZ": "SITIO SAO JOSE", "ZONA": 1.0, "TALHAO": 1.0, "AREA_TOTAL": 8.5503307463109497, "TIPO_GEO": "TALHAO", "DATA_INICI": null, "DATA_FINAL": null, "HORA_INICI": null, "HORA_FINAL": null, "CLASSE": null, "PILOTO": null, "AERONAVE": null, "AREA_HA": null }, "geometry": { "type": "Polygon", "coordinates": [ [ [ -50.369468429796399, -21.5158461253266 ], [ -50.369415371887797, -21.515851276828403 ], [ -50.369196996243602, -21.516649144783401 ], [ -50.369196308098203, -21.5168637942093 ], [ -50.369215888538697, -21.5172408871051 ], [ -50.369241911015202, -21.517305970957299 ], [ -50.372326778201803, -21.5177840952168 ], [ -50.372358527977198, -21.517743100906898 ], [ -50.372340479185802, -21.517663357425601 ], [ -50.372352757869699, -21.517544013744601 ], [ -50.3724241375185, -21.517402962255396 ], [ -50.372503249028597, -21.517283028760101 ], [ -50.372670101320303, -21.5171751627418 ], [ -50.3729167834246, -21.517172816100292 ], [ -50.373124068517299, -21.517186533618009 ], [ -50.373352042867197, -21.517275136072094 ], [ -50.373547306271902, -21.517278156332793 ], [ -50.373745388174498, -21.517359832553698 ], [ -50.374075428768698, -21.517392615645392 ], [ -50.374484494752501, -21.517448200400004 ], [ -50.374736380549798, -21.517504895738 ], [ -50.375074703935908, -21.517538153146898 ], [ -50.375234876554401, -21.517530028849194 ], [ -50.375372898151703, -21.517547299243194 ], [ -50.375417451162299, -21.517431681506096 ], [ -50.375459879970997, -21.517193086557395 ], [ -50.3755122515349, -21.516978538172093 ], [ -50.375562839179402, -21.516826631679098 ], [ -50.375554865538703, -21.5167636330367 ], [ -50.375559939954599, -21.516742897229495 ], [ -50.373548281568503, -21.516420059253509 ], [ -50.371567240152402, -21.516134479064803 ], [ -50.369957165302402, -21.515917572056999 ], [ -50.369468429796399, -21.5158461253266 ] ] ] } },
{ "type": "Feature", "properties": { "CHAVE": null, "FAZENDA": null, "NOME_FAZ": null, "ZONA": null, "TALHAO": null, "AREA_TOTAL": null, "TIPO_GEO": "VOO_PROCESSADO", "DATA_INICI": "03-04-2026", "DATA_FINAL": "03-04-2026", "HORA_INICI": "12:26:12", "HORA_FINAL": "12:26:12", "CLASSE": "NÃO APLICADO DENTRO DO TALHÃO", "PILOTO": "valmir alves", "AERONAVE": "PS-CBA", "AREA_HA": 0.00041611864445700002 }, "geometry": { "type": "Polygon", "coordinates": [ [ [ -50.369196996243602, -21.516649144783401 ], [ -50.369196308098203, -21.5168637942093 ], [ -50.369215888538697, -21.5172408871051 ], [ -50.369241911015202, -21.517305970957299 ], [ -50.372326778201803, -21.5177840952168 ], [ -50.372358527977198, -21.517743100906898 ], [ -50.372340479185802, -21.517663357425601 ], [ -50.372352757869699, -21.517544013744601 ], [ -50.3724241375185, -21.517402962255396 ], [ -50.372503249028597, -21.517283028760101 ], [ -50.372670101320303, -21.5171751627418 ], [ -50.3729167834246, -21.517172816100292 ], [ -50.373124068517299, -21.517186533618009 ], [ -50.373352042867197, -21.517275136072094 ], [ -50.373547306271902, -21.517278156332793 ], [ -50.373745388174498, -21.517359832553698 ], [ -50.374075428768698, -21.517392615645392 ], [ -50.374484494752501, -21.517448200400004 ], [ -50.374736380549798, -21.517504895738 ], [ -50.375074703935908, -21.517538153146898 ], [ -50.375234876554401, -21.517530028849194 ], [ -50.375372898151703, -21.517547299243194 ], [ -50.375417451162299, -21.517431681506096 ], [ -50.375459879970997, -21.517193086557395 ], [ -50.3755122515349, -21.516978538172093 ], [ -50.375562839179402, -21.516826631679098 ], [ -50.375554865538703, -21.5167636330367 ], [ -50.375559939954599, -21.516742897229495 ], [ -50.373548281568503, -21.516420059253509 ], [ -50.371567240152402, -21.516134479064803 ], [ -50.369957165302402, -21.515917572056999 ], [ -50.369468429796399, -21.5158461253266 ], [ -50.369415371887797, -21.515851276828403 ], [ -50.369196996243602, -21.516649144783401 ] ], [ [ -50.372129995804187, -21.517086908180673 ], [ -50.372258145396671, -21.517102680434355 ], [ -50.372217854559992, -21.517389319559772 ], [ -50.372087854435591, -21.517373319541321 ], [ -50.372084160281936, -21.517372822325395 ], [ -50.371956004154796, -21.517354091811985 ], [ -50.37182785444611, -21.517338319536311 ], [ -50.371824513091781, -21.517337873492515 ], [ -50.371692950000302, -21.517318936377702 ], [ -50.371564161485999, -21.5173011041188 ], [ -50.371432936680669, -21.517284203950954 ], [ -50.371431556381957, -21.517284020242183 ], [ -50.371300802372126, -21.517266054039194 ], [ -50.371167413641501, -21.517248136146758 ], [ -50.371036778932591, -21.51723118354759 ], [ -50.371036048611757, -21.517231087109508 ], [ -50.370902048484254, -21.517213087089072 ], [ -50.37090068569227, -21.517212898219782 ], [ -50.370768285904859, -21.517193983961342 ], [ -50.370636047374141, -21.517176087013866 ], [ -50.370501207857345, -21.517158108408214 ], [ -50.370499685711316, -21.517157898212403 ], [ -50.370367446232123, -21.517139006855192 ], [ -50.370233207869333, -21.51712110840317 ], [ -50.370230842978117, -21.517120775586967 ], [ -50.370097102411101, -21.517100962166751 ], [ -50.369962364962596, -21.517083129265288 ], [ -50.36995866686641, -21.51708259698847 ], [ -50.369825274223842, -21.51706184701905 ], [ -50.369693886861306, -21.517044065266816 ], [ -50.369691843005633, -21.517043775577307 ], [ -50.369556842878147, -21.517023775554957 ], [ -50.369605157070858, -21.516738224437965 ], [ -50.369739136053347, -21.516758073173111 ], [ -50.369871112965114, -21.516775934706335 ], [ -50.369874333207342, -21.516776403027297 ], [ -50.370007487480478, -21.516797115911562 ], [ -50.370141634861682, -21.516814870707918 ], [ -50.370144157098387, -21.516815224428285 ], [ -50.370277975903981, -21.516835049433595 ], [ -50.370411791955647, -21.516852891570007 ], [ -50.370413314365258, -21.516853101802166 ], [ -50.370545553727368, -21.516871993136579 ], [ -50.370679791967632, -21.516889891564972 ], [ -50.370680113134945, -21.516889934709191 ], [ -50.370813113008474, -21.516907934688781 ], [ -50.370814314384319, -21.516908101794773 ], [ -50.370946633313402, -21.516927004495884 ], [ -50.371079586305072, -21.516944863849556 ], [ -50.371210220897069, -21.516961816426818 ], [ -50.371210951480421, -21.516961912899539 ], [ -50.371344951352924, -21.516979912879094 ], [ -50.371345443694757, -21.516979979771655 ], [ -50.371475753865731, -21.516997884983031 ], [ -50.371607063148275, -21.517014796023474 ], [ -50.371608612664104, -21.517015003071602 ], [ -50.371738612540675, -21.517033003051267 ], [ -50.371739486983465, -21.517033126521948 ], [ -50.371869818788348, -21.517051886400356 ], [ -50.371998145386144, -21.517067680439371 ], [ -50.372001839790592, -21.517068177688891 ], [ -50.372129995804187, -21.517086908180673 ] ], [ [ -50.369521618969337, -21.516704162671147 ], [ -50.369520387609334, -21.516703996913858 ], [ -50.369390387485915, -21.516685996893514 ], [ -50.369435612466027, -21.516400003099903 ], [ -50.3695649970199, -21.516417917881302 ], [ -50.369595743378902, -21.516421938558199 ], [ -50.369636380906883, -21.51614983731125 ], [ -50.369766380782963, -21.516166837291838 ], [ -50.369767612395343, -21.516167003083037 ], [ -50.369897612271934, -21.516185003062702 ], [ -50.369897783891751, -21.516185026917526 ], [ -50.370026783769362, -21.516203026897216 ], [ -50.370027486710804, -21.516203126529565 ], [ -50.370157668924023, -21.516221864875892 ], [ -50.370287844995261, -21.516237643789726 ], [ -50.370291661819373, -21.516238151824179 ], [ -50.370422052948484, -21.516257063511613 ], [ -50.370552443475717, -21.516274979763768 ], [ -50.370682753652787, -21.516292884975957 ], [ -50.370814062942458, -21.516309796017335 ], [ -50.370815443487444, -21.516309979758809 ], [ -50.37094644336301, -21.516327979738449 ], [ -50.37094748675446, -21.516328126512622 ], [ -50.371077668964631, -21.516346864858512 ], [ -50.371207845032274, -21.516362643771902 ], [ -50.371211661863327, -21.516363151807301 ], [ -50.371342052991459, -21.516382063494586 ], [ -50.371472443517483, -21.51639997974657 ], [ -50.371602912457519, -21.516417906773448 ], [ -50.371732380868316, -21.516434837254561 ], [ -50.37173327705235, -21.516434956953589 ], [ -50.37186527692689, -21.516452956933207 ], [ -50.371866839590119, -21.516453177667099 ], [ -50.371996141986664, -21.51647207570667 ], [ -50.372126443547494, -21.516489979734409 ], [ -50.372257443423067, -21.516507979714042 ], [ -50.372260062103841, -21.516508361031594 ], [ -50.372389451191708, -21.51652826704203 ], [ -50.372518312031545, -21.516547100546088 ], [ -50.372646783891909, -21.516565026848767 ], [ -50.372649062124914, -21.516565361024824 ], [ -50.372779062132281, -21.516585361022596 ], [ -50.37290896891767, -21.516605346678567 ], [ -50.373039875682515, -21.516625332440796 ], [ -50.373040062147027, -21.516625361018132 ], [ -50.37317006202467, -21.516645360995952 ], [ -50.37317044320563, -21.516645420097223 ], [ -50.373298252662373, -21.516665390321595 ], [ -50.373428062039402, -21.516685360991552 ], [ -50.373428443220611, -21.516685420092852 ], [ -50.373556252677204, -21.516705390317231 ], [ -50.373686062054105, -21.516725360987163 ], [ -50.373686443235528, -21.516725420088509 ], [ -50.373813115428646, -21.516745212615927 ], [ -50.37394078395841, -21.516763026825661 ], [ -50.373943443249779, -21.516763420084082 ], [ -50.374070115442777, -21.516783212611479 ], [ -50.374197783971198, -21.516801026821039 ], [ -50.37419920313129, -21.516801231155945 ], [ -50.37432658099214, -21.516820138804174 ], [ -50.374453251339474, -21.516837951818651 ], [ -50.374581543535101, -21.516854858538661 ], [ -50.374582958201451, -21.516855051217586 ], [ -50.374710502382385, -21.51687298711504 ], [ -50.374834550148499, -21.516889723715742 ], [ -50.374962050075887, -21.516904549285062 ], [ -50.374963612978362, -21.516904738596974 ], [ -50.375090055014944, -21.516920668299534 ], [ -50.375215496519395, -21.516935601808733 ], [ -50.375176503438524, -21.517222398185609 ], [ -50.375050503317716, -21.517207398168228 ], [ -50.37504938709877, -21.517207261415439 ], [ -50.374923167914126, -21.517191359783109 ], [ -50.374900316610344, -21.51718870265416 ], [ -50.37486578098197, -21.517411051029288 ], [ -50.374740780863135, -21.517394051010047 ], [ -50.37473950339848, -21.517393872168164 ], [ -50.374615141737181, -21.517375964086064 ], [ -50.374490952323711, -21.517359074322584 ], [ -50.37436459328908, -21.517342160118112 ], [ -50.374240782832594, -21.517326312376746 ], [ -50.374115503292963, -21.517311398142542 ], [ -50.374112953751691, -21.517311074414074 ], [ -50.373986953757274, -21.517294074411716 ], [ -50.373861508178571, -21.517277149211711 ], [ -50.373737858306775, -21.517261322025206 ], [ -50.373611654411306, -21.517246416049964 ], [ -50.373608953773093, -21.517246074404547 ], [ -50.373483589680703, -21.517229160198745 ], [ -50.373358226454286, -21.517213241055568 ], [ -50.373232226333947, -21.517197241037223 ], [ -50.373232063310645, -21.517197220253042 ], [ -50.373107063191327, -21.517181220234718 ], [ -50.373106123893002, -21.517181097254369 ], [ -50.372980235789008, -21.517164246088161 ], [ -50.372856349881779, -21.51714937977588 ], [ -50.372853953805084, -21.517149074390204 ], [ -50.372728669938141, -21.517132171008509 ], [ -50.372602387006495, -21.517116261344469 ], [ -50.372600781079839, -21.517116050986598 ], [ -50.372476583459637, -21.517099160107467 ], [ -50.37235038701666, -21.517083261339604 ], [ -50.372349123925041, -21.517083097239972 ], [ -50.372222123804178, -21.51706609722066 ], [ -50.372221953832387, -21.517066074378249 ], [ -50.372096669964861, -21.517049170996454 ], [ -50.371970387032071, -21.517033261332298 ], [ -50.371969123941369, -21.517033097232776 ], [ -50.3718421238205, -21.51701609721346 ], [ -50.371841953848836, -21.517016074371057 ], [ -50.37171620504126, -21.516999108259075 ], [ -50.371587456347903, -21.516982141373738 ], [ -50.371585685759584, -21.516981898244754 ], [ -50.371461113598883, -21.516964102219198 ], [ -50.37133454526159, -21.516948281173395 ], [ -50.371333456487207, -21.516948141385832 ], [ -50.371204456364303, -21.516931141366449 ], [ -50.371203041955908, -21.516930948722582 ], [ -50.371075748690856, -21.516913048104279 ], [ -50.370947456503899, -21.516896141378513 ], [ -50.370818456380995, -21.51687914135913 ], [ -50.370817216057794, -21.51687897310104 ], [ -50.370688917026989, -21.516861070907755 ], [ -50.370559618924709, -21.516844162690919 ], [ -50.370558387562191, -21.516843996933282 ], [ -50.37042900289277, -21.516826082129917 ], [ -50.37029961893586, -21.516809162685956 ], [ -50.370298387573975, -21.516808996928422 ], [ -50.370169002903616, -21.516791082124907 ], [ -50.370039618947018, -21.516774162680999 ], [ -50.370038387585765, -21.516773996923551 ], [ -50.369909002915584, -21.516756082120072 ], [ -50.369779618958184, -21.516739162676064 ], [ -50.369778042021522, -21.516738948696069 ], [ -50.369650829907094, -21.516721059489583 ], [ -50.369521618969337, -21.516704162671147 ] ] ] } },
{ "type": "Feature", "properties": { "CHAVE": null, "FAZENDA": "Faz. ABC", "NOME_FAZ": null, "ZONA": null, "TALHAO": null, "AREA_TOTAL": null, "TIPO_GEO": "VOO_PROCESSADO", "DATA_INICI": "03-04-2026", "DATA_FINAL": "03-04-2026", "HORA_INICI": "12:26:12", "HORA_FINAL": "12:26:12", "CLASSE": "SOBREPOSIÇÃO", "PILOTO": "valmir alves", "AERONAVE": "PS-CBA", "AREA_HA": 2.0155430145999998e-05 }, "geometry": { "type": "Polygon", "coordinates": [ [ [ -50.374910218970733, -21.517124948964248 ], [ -50.374785858220918, -21.517108035905601 ], [ -50.374661496670136, -21.517090127845155 ], [ -50.374660218959193, -21.517089948968859 ], [ -50.374535219078034, -21.517072948988123 ], [ -50.374534876118588, -21.517072902712968 ], [ -50.374407876239466, -21.517055902732292 ], [ -50.374406936689972, -21.517055779719076 ], [ -50.37428193680929, -21.517039779737399 ], [ -50.374280496544145, -21.517039601834387 ], [ -50.374155772873692, -21.517024753781872 ], [ -50.374031046321214, -21.517007925598801 ], [ -50.373905046315627, -21.516990925601164 ], [ -50.373903936669585, -21.516990779728729 ], [ -50.373778936788916, -21.516974779747059 ], [ -50.373777345425076, -21.516974583927006 ], [ -50.373651697473719, -21.516959743621332 ], [ -50.373527046299806, -21.516942925608348 ], [ -50.373525773506145, -21.516942758935961 ], [ -50.373399773626481, -21.516926758954316 ], [ -50.373273855139011, -21.516910769308222 ], [ -50.373149406614125, -21.516894839900214 ], [ -50.373022876181231, -21.516877902758594 ], [ -50.373020649956054, -21.516877620201008 ], [ -50.372896849388837, -21.516862764136398 ], [ -50.372772046267805, -21.516845925622704 ], [ -50.372770612827914, -21.516845738631179 ], [ -50.372644416501252, -21.516829839884753 ], [ -50.372520218991696, -21.516812949026221 ], [ -50.372518612817757, -21.516812738636023 ], [ -50.372392244845386, -21.516796818264886 ], [ -50.372265961142858, -21.516779914150121 ], [ -50.372140046240489, -21.516762925634641 ], [ -50.372138612802331, -21.516762738643358 ], [ -50.372012244830096, -21.516746818272232 ], [ -50.37188596112162, -21.516729914156677 ], [ -50.371760046224033, -21.516712925641837 ], [ -50.371759543483172, -21.516712858600638 ], [ -50.371631429650904, -21.516695975385939 ], [ -50.371506314310366, -21.516678101768669 ], [ -50.371503454572107, -21.516677718802242 ], [ -50.371375999346213, -21.516661786902326 ], [ -50.371248251268057, -21.516644951887496 ], [ -50.371120958116762, -21.516627051291021 ], [ -50.371119543455563, -21.516626858612792 ], [ -50.370990543578458, -21.516609858632155 ], [ -50.370862164098341, -21.51659294040951 ], [ -50.370733784016238, -21.516575026912648 ], [ -50.370732380905665, -21.516574837283475 ], [ -50.370602997065525, -21.516557917861668 ], [ -50.370473612513173, -21.516540003080483 ], [ -50.370472380894505, -21.516539837288434 ], [ -50.370342997054749, -21.51652291786667 ], [ -50.370213612501395, -21.516505003085342 ], [ -50.370212380883345, -21.516504837293382 ], [ -50.370082997043937, -21.516487917871668 ], [ -50.369953612489596, -21.516470003090213 ], [ -50.369952380872192, -21.516469837298331 ], [ -50.369823170052619, -21.516452940502354 ], [ -50.369695958051139, -21.516435051317522 ], [ -50.369694380861034, -21.516434837303244 ], [ -50.369595743378902, -21.516421938558199 ], [ -50.3695936190474, -21.516436162682556 ], [ -50.369723003007564, -21.516453082126919 ], [ -50.369852301856852, -21.51647098504754 ], [ -50.369980864589309, -21.5164889240368 ], [ -50.370112513364411, -21.516507873484894 ], [ -50.370116154835543, -21.516508356185991 ], [ -50.370246243159002, -21.516524124471545 ], [ -50.370375338254505, -21.516542848190198 ], [ -50.370376556482555, -21.516543020227271 ], [ -50.370507556606995, -21.516561020247636 ], [ -50.370638556600987, -21.516579020250081 ], [ -50.370639936886491, -21.516579203957086 ], [ -50.37077124629527, -21.516596115020807 ], [ -50.370901034624303, -21.516613948534847 ], [ -50.371032513320785, -21.51663287350183 ], [ -50.371036154798539, -21.516633356203801 ], [ -50.371166243118445, -21.516649124488929 ], [ -50.371295338210551, -21.516667848207067 ], [ -50.371296556440804, -21.51666802024447 ], [ -50.371427556565244, -21.516686020264821 ], [ -50.371558556559229, -21.516704020267262 ], [ -50.37155961896206, -21.516704162719847 ], [ -50.3716891708047, -21.516721104118012 ], [ -50.371819941089875, -21.516738936433018 ], [ -50.371949160482401, -21.516757822347202 ], [ -50.371950556410788, -21.516758020256646 ], [ -50.372081556535242, -21.516776020276989 ], [ -50.3722112454385, -21.516793840130038 ], [ -50.372339937965847, -21.516813638983205 ], [ -50.372341160333058, -21.516813822335298 ], [ -50.372471160455952, -21.516832822356552 ], [ -50.372472215937314, -21.516832973124306 ], [ -50.372600075608318, -21.51685081401228 ], [ -50.372728937944778, -21.516870638989989 ], [ -50.372858937937401, -21.516890638992209 ], [ -50.372859124141783, -21.51689066752969 ], [ -50.372990031020528, -21.516910653316106 ], [ -50.373119747292606, -21.51693060966905 ], [ -50.37324755686128, -21.516950579917388 ], [ -50.373247937785578, -21.516950638978898 ], [ -50.373377747278163, -21.516970609673471 ], [ -50.373505556846318, -21.516990579921753 ], [ -50.373505937770865, -21.516990638983287 ], [ -50.373635747265247, -21.517010609678149 ], [ -50.373763556831392, -21.517030579926093 ], [ -50.373766215870837, -21.517030973147403 ], [ -50.373893884513663, -21.51704878738035 ], [ -50.374020556817143, -21.517068579930513 ], [ -50.374023215858038, -21.517068973152025 ], [ -50.374151505891163, -21.517086874090371 ], [ -50.374278796938519, -21.517105768858158 ], [ -50.3742800417618, -21.517105948770983 ], [ -50.374408041883193, -21.517123948791266 ], [ -50.374409456296, -21.517124141435723 ], [ -50.374537748607466, -21.51714104817788 ], [ -50.374665041871253, -21.517158948795988 ], [ -50.374665953670004, -21.517159074415943 ], [ -50.374791953789853, -21.517176074435234 ], [ -50.37479494975905, -21.517176450691927 ], [ -50.374900316610344, -21.51718870265416 ], [ -50.374910218970733, -21.517124948964248 ] ] ] } },
{ "type": "Feature", "properties": { "CHAVE": null, "FAZENDA": "Faz. ABC", "NOME_FAZ": null, "ZONA": null, "TALHAO": null, "AREA_TOTAL": null, "TIPO_GEO": "VOO_PROCESSADO", "DATA_INICI": "03-04-2026", "DATA_FINAL": "03-04-2026", "HORA_INICI": "12:26:12", "HORA_FINAL": "12:26:12", "CLASSE": "APLICADO", "PILOTO": "valmir alves", "AERONAVE": "PS-CBA", "AREA_HA": 0.00043950937009400003 }, "geometry": { "type": "MultiPolygon", "coordinates": [ [ [ [ -50.372001839790592, -21.517068177688891 ], [ -50.371998145386144, -21.517067680439371 ], [ -50.371869818788348, -21.517051886400356 ], [ -50.371739486983465, -21.517033126521948 ], [ -50.371738612540675, -21.517033003051267 ], [ -50.371608612664104, -21.517015003071602 ], [ -50.371607063148275, -21.517014796023474 ], [ -50.371475753865731, -21.516997884983031 ], [ -50.371345443694757, -21.516979979771655 ], [ -50.371344951352924, -21.516979912879094 ], [ -50.371210951480421, -21.516961912899539 ], [ -50.371210220897069, -21.516961816426818 ], [ -50.371079586305072, -21.516944863849556 ], [ -50.370946633313402, -21.516927004495884 ], [ -50.370814314384319, -21.516908101794773 ], [ -50.370813113008474, -21.516907934688781 ], [ -50.370680113134945, -21.516889934709191 ], [ -50.370679791967632, -21.516889891564972 ], [ -50.370545553727368, -21.516871993136579 ], [ -50.370413314365258, -21.516853101802166 ], [ -50.370411791955647, -21.516852891570007 ], [ -50.370277975903981, -21.516835049433595 ], [ -50.370144157098387, -21.516815224428285 ], [ -50.370141634861682, -21.516814870707918 ], [ -50.370007487480478, -21.516797115911562 ], [ -50.369874333207342, -21.516776403027297 ], [ -50.369871112965114, -21.516775934706335 ], [ -50.369739136053347, -21.516758073173111 ], [ -50.369605157070858, -21.516738224437965 ], [ -50.369556842878147, -21.517023775554957 ], [ -50.369691843005633, -21.517043775577307 ], [ -50.369693886861306, -21.517044065266816 ], [ -50.369825274223842, -21.51706184701905 ], [ -50.36995866686641, -21.51708259698847 ], [ -50.369962364962596, -21.517083129265288 ], [ -50.370097102411101, -21.517100962166751 ], [ -50.370230842978117, -21.517120775586967 ], [ -50.370233207869333, -21.51712110840317 ], [ -50.370367446232123, -21.517139006855192 ], [ -50.370499685711316, -21.517157898212403 ], [ -50.370501207857345, -21.517158108408214 ], [ -50.370636047374141, -21.517176087013866 ], [ -50.370768285904859, -21.517193983961342 ], [ -50.37090068569227, -21.517212898219782 ], [ -50.370902048484254, -21.517213087089072 ], [ -50.371036048611757, -21.517231087109508 ], [ -50.371036778932591, -21.51723118354759 ], [ -50.371167413641501, -21.517248136146758 ], [ -50.371300802372126, -21.517266054039194 ], [ -50.371431556381957, -21.517284020242183 ], [ -50.371432936680669, -21.517284203950954 ], [ -50.371564161485999, -21.5173011041188 ], [ -50.371692950000302, -21.517318936377702 ], [ -50.371824513091781, -21.517337873492515 ], [ -50.37182785444611, -21.517338319536311 ], [ -50.371956004154796, -21.517354091811985 ], [ -50.372084160281936, -21.517372822325395 ], [ -50.372087854435591, -21.517373319541321 ], [ -50.372217854559992, -21.517389319559772 ], [ -50.372258145396671, -21.517102680434355 ], [ -50.372129995804187, -21.517086908180673 ], [ -50.372001839790592, -21.517068177688891 ] ] ], [ [ [ -50.369650829907094, -21.516721059489583 ], [ -50.369778042021522, -21.516738948696069 ], [ -50.369779618958184, -21.516739162676064 ], [ -50.369909002915584, -21.516756082120072 ], [ -50.370038387585765, -21.516773996923551 ], [ -50.370039618947018, -21.516774162680999 ], [ -50.370169002903616, -21.516791082124907 ], [ -50.370298387573975, -21.516808996928422 ], [ -50.37029961893586, -21.516809162685956 ], [ -50.37042900289277, -21.516826082129917 ], [ -50.370558387562191, -21.516843996933282 ], [ -50.370559618924709, -21.516844162690919 ], [ -50.370688917026989, -21.516861070907755 ], [ -50.370817216057794, -21.51687897310104 ], [ -50.370818456380995, -21.51687914135913 ], [ -50.370947456503899, -21.516896141378513 ], [ -50.371075748690856, -21.516913048104279 ], [ -50.371203041955908, -21.516930948722582 ], [ -50.371204456364303, -21.516931141366449 ], [ -50.371333456487207, -21.516948141385832 ], [ -50.37133454526159, -21.516948281173395 ], [ -50.371461113598883, -21.516964102219198 ], [ -50.371585685759584, -21.516981898244754 ], [ -50.371587456347903, -21.516982141373738 ], [ -50.37171620504126, -21.516999108259075 ], [ -50.371841953848836, -21.517016074371057 ], [ -50.3718421238205, -21.51701609721346 ], [ -50.371969123941369, -21.517033097232776 ], [ -50.371970387032071, -21.517033261332298 ], [ -50.372096669964861, -21.517049170996454 ], [ -50.372221953832387, -21.517066074378249 ], [ -50.372222123804178, -21.51706609722066 ], [ -50.372349123925041, -21.517083097239972 ], [ -50.37235038701666, -21.517083261339604 ], [ -50.372476583459637, -21.517099160107467 ], [ -50.372600781079839, -21.517116050986598 ], [ -50.372602387006495, -21.517116261344469 ], [ -50.372728669938141, -21.517132171008509 ], [ -50.372853953805084, -21.517149074390204 ], [ -50.372856349881779, -21.51714937977588 ], [ -50.372980235789008, -21.517164246088161 ], [ -50.373106123893002, -21.517181097254369 ], [ -50.373107063191327, -21.517181220234718 ], [ -50.373232063310645, -21.517197220253042 ], [ -50.373232226333947, -21.517197241037223 ], [ -50.373358226454286, -21.517213241055568 ], [ -50.373483589680703, -21.517229160198745 ], [ -50.373608953773093, -21.517246074404547 ], [ -50.373611654411306, -21.517246416049964 ], [ -50.373737858306775, -21.517261322025206 ], [ -50.373861508178571, -21.517277149211711 ], [ -50.373986953757274, -21.517294074411716 ], [ -50.374112953751691, -21.517311074414074 ], [ -50.374115503292963, -21.517311398142542 ], [ -50.374240782832594, -21.517326312376746 ], [ -50.37436459328908, -21.517342160118112 ], [ -50.374490952323711, -21.517359074322584 ], [ -50.374615141737181, -21.517375964086064 ], [ -50.37473950339848, -21.517393872168164 ], [ -50.374740780863135, -21.517394051010047 ], [ -50.37486578098197, -21.517411051029288 ], [ -50.374900316625641, -21.517188702663343 ], [ -50.374923167914126, -21.517191359783109 ], [ -50.37504938709877, -21.517207261415439 ], [ -50.375050503317716, -21.517207398168228 ], [ -50.375176503438524, -21.517222398185609 ], [ -50.375215496519395, -21.516935601808733 ], [ -50.375090055014944, -21.516920668299534 ], [ -50.374963612978362, -21.516904738596974 ], [ -50.374962050075887, -21.516904549285062 ], [ -50.374834550148499, -21.516889723715742 ], [ -50.374710502382385, -21.51687298711504 ], [ -50.374582958201451, -21.516855051217586 ], [ -50.374581543535101, -21.516854858538661 ], [ -50.374453251339474, -21.516837951818651 ], [ -50.37432658099214, -21.516820138804174 ], [ -50.37419920313129, -21.516801231155945 ], [ -50.374197783971198, -21.516801026821039 ], [ -50.374070115442777, -21.516783212611479 ], [ -50.373943443249779, -21.516763420084082 ], [ -50.37394078395841, -21.516763026825661 ], [ -50.373813115428646, -21.516745212615927 ], [ -50.373686443235528, -21.516725420088509 ], [ -50.373686062054105, -21.516725360987163 ], [ -50.373556252677204, -21.516705390317231 ], [ -50.373428443220611, -21.516685420092852 ], [ -50.373428062039402, -21.516685360991552 ], [ -50.373298252662373, -21.516665390321595 ], [ -50.37317044320563, -21.516645420097223 ], [ -50.37317006202467, -21.516645360995952 ], [ -50.373040062147027, -21.516625361018132 ], [ -50.373039875682515, -21.516625332440796 ], [ -50.37290896891767, -21.516605346678567 ], [ -50.372779062132281, -21.516585361022596 ], [ -50.372649062124914, -21.516565361024824 ], [ -50.372646783891909, -21.516565026848767 ], [ -50.372518312031545, -21.516547100546088 ], [ -50.372389451191708, -21.51652826704203 ], [ -50.372260062103841, -21.516508361031594 ], [ -50.372257443423067, -21.516507979714042 ], [ -50.372126443547494, -21.516489979734409 ], [ -50.371996141986664, -21.51647207570667 ], [ -50.371866839590119, -21.516453177667099 ], [ -50.37186527692689, -21.516452956933207 ], [ -50.37173327705235, -21.516434956953589 ], [ -50.371732380868316, -21.516434837254561 ], [ -50.371602912457519, -21.516417906773448 ], [ -50.371472443517483, -21.51639997974657 ], [ -50.371342052991459, -21.516382063494586 ], [ -50.371211661863327, -21.516363151807301 ], [ -50.371207845032274, -21.516362643771902 ], [ -50.371077668964631, -21.516346864858512 ], [ -50.37094748675446, -21.516328126512622 ], [ -50.37094644336301, -21.516327979738449 ], [ -50.370815443487444, -21.516309979758809 ], [ -50.370814062942458, -21.516309796017335 ], [ -50.370682753652787, -21.516292884975957 ], [ -50.370552443475717, -21.516274979763768 ], [ -50.370422052948484, -21.516257063511613 ], [ -50.370291661819373, -21.516238151824179 ], [ -50.370287844995261, -21.516237643789726 ], [ -50.370157668924023, -21.516221864875892 ], [ -50.370027486710804, -21.516203126529565 ], [ -50.370026783769362, -21.516203026897216 ], [ -50.369897783891751, -21.516185026917526 ], [ -50.369897612271934, -21.516185003062702 ], [ -50.369767612395343, -21.516167003083037 ], [ -50.369766380782963, -21.516166837291838 ], [ -50.369636380906883, -21.51614983731125 ], [ -50.369595743381851, -21.516421938567998 ], [ -50.3695649970199, -21.516417917881302 ], [ -50.369435612466027, -21.516400003099903 ], [ -50.369390387485915, -21.516685996893514 ], [ -50.369520387609334, -21.516703996913858 ], [ -50.369521618969337, -21.516704162671147 ], [ -50.369650829907094, -21.516721059489583 ] ] ] ] } }
]
}
