{
"type": "FeatureCollection",
"name": "200395_SITIO_FUJIKURA_02-04-2026_30-06-2026_14h52m",
"crs": { "type": "name", "properties": { "name": "urn:ogc:def:crs:OGC:1.3:CRS84" } },
"features": [
{ "type": "Feature", "properties": { "CHAVE": "2003951", "FAZENDA": "200395", "NOME_FAZ": "SITIO FUJIKURA", "ZONA": 1.0, "TALHAO": 1.0, "AREA_TOTAL": 7.3665835703650497, "TIPO_GEO": "TALHAO", "DATA_INICI": null, "DATA_FINAL": null, "HORA_INICI": null, "HORA_FINAL": null, "CLASSE": null, "PILOTO": null, "AERONAVE": null, "AREA_HA": null }, "geometry": { "type": "Polygon", "coordinates": [ [ [ -50.462830651098898, -21.5860532666394 ], [ -50.462819810092491, -21.586118785016499 ], [ -50.462782078306986, -21.586336536940003 ], [ -50.462766756449597, -21.586412300258804 ], [ -50.462716303712597, -21.586681974100703 ], [ -50.462702206950297, -21.586751695904706 ], [ -50.462661348825392, -21.586924199455986 ], [ -50.46272331093521, -21.586960777972692 ], [ -50.462784226976503, -21.586999206308885 ], [ -50.462849336811701, -21.5870411119473 ], [ -50.462910658552097, -21.587079461791905 ], [ -50.462972565387886, -21.587118763367297 ], [ -50.463032909132217, -21.587158191479908 ], [ -50.463096440459609, -21.587203081555593 ], [ -50.46315306518769, -21.587243557920399 ], [ -50.463270481602791, -21.5873254199951 ], [ -50.463329872166, -21.587366302990798 ], [ -50.463388201676104, -21.587408835878296 ], [ -50.463444989350599, -21.587448611633892 ], [ -50.4634965128649, -21.58748918490679 ], [ -50.4635504616354, -21.587525823821998 ], [ -50.463608892592397, -21.587563863841307 ], [ -50.463669367802204, -21.587601115708697 ], [ -50.463762588355202, -21.587640166766601 ], [ -50.463772580900198, -21.587579367973305 ], [ -50.463782771648098, -21.587511772839402 ], [ -50.463803980069699, -21.587383315256101 ], [ -50.463814281912398, -21.587302947631304 ], [ -50.463823331657203, -21.587239420881406 ], [ -50.463834136877004, -21.587167626829597 ], [ -50.463842949036803, -21.587097191115305 ], [ -50.463852294834908, -21.587025653555891 ], [ -50.463864243638312, -21.586949985656204 ], [ -50.463878402847101, -21.586885353538605 ], [ -50.463887905238501, -21.586821527373502 ], [ -50.463895390109208, -21.586752956625997 ], [ -50.463903658360898, -21.586681333861996 ], [ -50.463913527720003, -21.586609198447601 ], [ -50.463923574464403, -21.586538206845297 ], [ -50.463932282247399, -21.586472211502304 ], [ -50.463940902832803, -21.586398532844395 ], [ -50.463946729944603, -21.586335796721897 ], [ -50.46395178458171, -21.5862683553609 ], [ -50.463957572976902, -21.586195655508103 ], [ -50.463966965516903, -21.586119290272897 ], [ -50.463977221356799, -21.586040996823712 ], [ -50.463992383981797, -21.58591131487341 ], [ -50.463999308534198, -21.5858443292739 ], [ -50.464006821548701, -21.585777397436992 ], [ -50.464015022171402, -21.585714046502495 ], [ -50.464023447514691, -21.585641734813798 ], [ -50.464031709729497, -21.585576892787596 ], [ -50.464046726824407, -21.585507982206007 ], [ -50.464056739412008, -21.585445461535294 ], [ -50.464069679264803, -21.585370668524412 ], [ -50.464082060735002, -21.585302051776296 ], [ -50.46409628025831, -21.585234403692798 ], [ -50.464110735354197, -21.585163757804295 ], [ -50.464121935786501, -21.585092601458296 ], [ -50.464134206500297, -21.584944032519104 ], [ -50.464140112857002, -21.584879186268001 ], [ -50.4641481237121, -21.5848008550225 ], [ -50.464158326614701, -21.584731990427489 ], [ -50.464179913239299, -21.5845941344773 ], [ -50.464189536035903, -21.5845286604604 ], [ -50.464195060006801, -21.584461236018907 ], [ -50.464197710362598, -21.584392847609102 ], [ -50.464212050975803, -21.584327961584599 ], [ -50.464226912645202, -21.5842590634327 ], [ -50.464235884766914, -21.584193998449297 ], [ -50.464244379939501, -21.584128800026402 ], [ -50.464256051110503, -21.584059195471301 ], [ -50.464265584067313, -21.5839897976701 ], [ -50.464273043840102, -21.583927526014293 ], [ -50.464279037748589, -21.583860156281805 ], [ -50.464282798579703, -21.583793905927603 ], [ -50.464289007962009, -21.583725156842494 ], [ -50.464297130895901, -21.583658902762402 ], [ -50.464303474862191, -21.583595277529501 ], [ -50.464310921452402, -21.583529021800299 ], [ -50.464318728049797, -21.583465093616493 ], [ -50.464328206708508, -21.583399812368391 ], [ -50.464343182914099, -21.58326764558619 ], [ -50.464353229154099, -21.5831972948653 ], [ -50.464362373172001, -21.5831306488123 ], [ -50.464377119999106, -21.5829903981748 ], [ -50.464394824602209, -21.582846552211308 ], [ -50.464402136814613, -21.582781399279096 ], [ -50.46441878505771, -21.582639403732099 ], [ -50.464427669969012, -21.582566780005504 ], [ -50.464437027824602, -21.582493971015296 ], [ -50.464446925662003, -21.582422581570103 ], [ -50.464454787492002, -21.5823518723757 ], [ -50.4644608539869, -21.582283759884699 ], [ -50.46446412801739, -21.582218572188001 ], [ -50.464458314287597, -21.582155326169296 ], [ -50.464442661070812, -21.582094252424799 ], [ -50.4644196702614, -21.582037790117404 ], [ -50.464387119519692, -21.581975604748408 ], [ -50.464356568025103, -21.581906666595692 ], [ -50.46434267865461, -21.581832510076101 ], [ -50.464355083447202, -21.5817536980305 ], [ -50.464394391005101, -21.581682454400102 ], [ -50.464444130168509, -21.581628656770103 ], [ -50.464488658125497, -21.581574324425699 ], [ -50.4645251656002, -21.581523476528705 ], [ -50.464552366345202, -21.5814694462068 ], [ -50.464567360597499, -21.5814108217442 ], [ -50.4645812862884, -21.5813462355299 ], [ -50.464594563886003, -21.581280953247092 ], [ -50.4646054145581, -21.581211544972195 ], [ -50.464614781935602, -21.581148950125598 ], [ -50.4646237604913, -21.581085825113107 ], [ -50.464629618181498, -21.581023628119294 ], [ -50.464633238203199, -21.580954981961899 ], [ -50.4646393655512, -21.58088647836459 ], [ -50.464651475951598, -21.580815572524685 ], [ -50.46466379697199, -21.580750420220795 ], [ -50.464677536997797, -21.580681492790394 ], [ -50.464691140416789, -21.5806147792626 ], [ -50.464705385618103, -21.580550958466294 ], [ -50.464716337233703, -21.5804831700036 ], [ -50.464718321332299, -21.580420897575401 ], [ -50.464709136457699, -21.580367320927191 ], [ -50.464681072519909, -21.580323538716801 ], [ -50.464631750854991, -21.580301431375503 ], [ -50.464564904058193, -21.580287299702903 ], [ -50.464498237635297, -21.580283414257192 ], [ -50.464430767852591, -21.580296239800397 ], [ -50.464363850903297, -21.580320017414095 ], [ -50.4642968127663, -21.580351503779799 ], [ -50.464232847483103, -21.580390528690792 ], [ -50.464177745242402, -21.580427084830198 ], [ -50.464116658376213, -21.580470512884887 ], [ -50.464063767855897, -21.580514296540496 ], [ -50.464015654720292, -21.580559237192293 ], [ -50.463964179504792, -21.580607856025395 ], [ -50.463913418280505, -21.580654317500397 ], [ -50.463870483650098, -21.580700938711495 ], [ -50.463833609476303, -21.580751215343799 ], [ -50.463812237803701, -21.580811063197803 ], [ -50.463795189715, -21.580869313453398 ], [ -50.463787252053997, -21.580924627859901 ], [ -50.463801965947304, -21.580970435638005 ], [ -50.463846411276997, -21.580993207543202 ], [ -50.463911730858698, -21.581006552642499 ], [ -50.463981926711988, -21.581022718947001 ], [ -50.464055230389903, -21.581046183953195 ], [ -50.464126807562202, -21.581076345141902 ], [ -50.464189727243003, -21.58110874598249 ], [ -50.464249221554098, -21.581146575713902 ], [ -50.464306342474302, -21.5811886953487 ], [ -50.464358075170402, -21.581239865505005 ], [ -50.464403462149903, -21.581308429767603 ], [ -50.464415519834702, -21.581384229728503 ], [ -50.4644020500808, -21.581455972281102 ], [ -50.464375808281801, -21.581525748951297 ], [ -50.464348867807487, -21.581594557377198 ], [ -50.464319353717208, -21.581659855526691 ], [ -50.464282717752901, -21.581722180191488 ], [ -50.464235406207898, -21.5817824149382 ], [ -50.464166890947808, -21.581831367552891 ], [ -50.46408739483509, -21.581859945860412 ], [ -50.4640130965578, -21.581870283784998 ], [ -50.463939742471688, -21.581875556549793 ], [ -50.463871136212809, -21.581886159888299 ], [ -50.463801409926603, -21.581894094256686 ], [ -50.463733664116099, -21.581901278882793 ], [ -50.463669279093807, -21.581911521299105 ], [ -50.463625338964498, -21.581938216906099 ], [ -50.463599467727597, -21.581983928712308 ], [ -50.463583646195801, -21.582043490026305 ], [ -50.463571150332498, -21.582105681216294 ], [ -50.463540942265702, -21.582243920088803 ], [ -50.463526176374799, -21.582312981075397 ], [ -50.463491746451787, -21.582512896097292 ], [ -50.463481292346508, -21.582575491605301 ], [ -50.463429989359, -21.582863678605907 ], [ -50.463417481776787, -21.582926278079604 ], [ -50.46340333032969, -21.583003374570708 ], [ -50.463388108796899, -21.583073384988005 ], [ -50.463375199098607, -21.583136932259499 ], [ -50.463362956348703, -21.583201185753698 ], [ -50.463327773102598, -21.583412171692505 ], [ -50.463316973408403, -21.583478254309803 ], [ -50.463293849531397, -21.583609800545698 ], [ -50.46328044962209, -21.583682366055598 ], [ -50.46326743556159, -21.583748352274505 ], [ -50.4632518569803, -21.5838178726762 ], [ -50.463238170098897, -21.583889287736088 ], [ -50.463225944358101, -21.583960483584701 ], [ -50.463213704020397, -21.584029486579904 ], [ -50.4632011616483, -21.584093942258885 ], [ -50.463185745756803, -21.584165203025403 ], [ -50.463170203511801, -21.584231052363599 ], [ -50.463159184656092, -21.584297675812792 ], [ -50.463150321196508, -21.584362803208794 ], [ -50.463138641039187, -21.5844340431067 ], [ -50.463126075358304, -21.584498444331203 ], [ -50.463112699522704, -21.5845606687535 ], [ -50.463098164394701, -21.584630540210998 ], [ -50.463081622498997, -21.584696012428999 ], [ -50.463056859473888, -21.584827271484802 ], [ -50.463047229010499, -21.584898126475402 ], [ -50.463024491587802, -21.585036938928791 ], [ -50.463012260488803, -21.585103744504604 ], [ -50.462997976255899, -21.585171328621996 ], [ -50.462970771674399, -21.585305233059305 ], [ -50.462956891177797, -21.5853710158013 ], [ -50.462942470122897, -21.585435672074301 ], [ -50.462927063959199, -21.585497326059691 ], [ -50.462913983385597, -21.5855682347303 ], [ -50.462902062473198, -21.585639899374502 ], [ -50.462890090369299, -21.585710016059004 ], [ -50.46286462985649, -21.5858513672406 ], [ -50.462853694398291, -21.585913773125693 ], [ -50.462841642274398, -21.585988902762395 ], [ -50.462830651098898, -21.5860532666394 ] ] ] } },
{ "type": "Feature", "properties": { "CHAVE": "2003952", "FAZENDA": "200395", "NOME_FAZ": "SITIO FUJIKURA", "ZONA": 1.0, "TALHAO": 2.0, "AREA_TOTAL": 1.6403918417735031, "TIPO_GEO": "TALHAO", "DATA_INICI": null, "DATA_FINAL": null, "HORA_INICI": null, "HORA_FINAL": null, "CLASSE": null, "PILOTO": null, "AERONAVE": null, "AREA_HA": null }, "geometry": { "type": "Polygon", "coordinates": [ [ [ -50.4631155486477, -21.592744790597401 ], [ -50.463129228830901, -21.592671111388501 ], [ -50.463143161496603, -21.592599691672206 ], [ -50.463153168382298, -21.592531891251902 ], [ -50.463165984871097, -21.592461886383898 ], [ -50.463176559586401, -21.592392036910002 ], [ -50.463183740672797, -21.592322962512096 ], [ -50.463195284384398, -21.592257543174103 ], [ -50.463205264805303, -21.592194287127096 ], [ -50.4632128547264, -21.592129604919293 ], [ -50.463218734223403, -21.592059830646598 ], [ -50.4632287036208, -21.591989075740997 ], [ -50.4632339882804, -21.591953578232808 ], [ -50.463060317744699, -21.591920939291992 ], [ -50.462993333555403, -21.591904598006582 ], [ -50.462928950837991, -21.591883227412499 ], [ -50.462862899762193, -21.591862955575184 ], [ -50.462731562008898, -21.591814885314488 ], [ -50.462664739561198, -21.591794314167291 ], [ -50.462602223428398, -21.5917671885224 ], [ -50.462541787315807, -21.591737935585201 ], [ -50.462476212405598, -21.591720812771594 ], [ -50.462407146535917, -21.591702136723786 ], [ -50.462341061393197, -21.591682110122193 ], [ -50.4622766675242, -21.591658524601897 ], [ -50.462210529245702, -21.5916350149114 ], [ -50.462143116138499, -21.591613438796688 ], [ -50.462073299037201, -21.591592576737199 ], [ -50.4620082093397, -21.591572005962497 ], [ -50.461889405867502, -21.591539280288792 ], [ -50.461880888129507, -21.5915676369079 ], [ -50.461866458069302, -21.591630618451696 ], [ -50.461851373673198, -21.591693619543193 ], [ -50.4618357299615, -21.591765242607107 ], [ -50.46182126178811, -21.591836245674692 ], [ -50.461808957095492, -21.591900102714707 ], [ -50.46180633932849, -21.591963723778896 ], [ -50.461823208795202, -21.592021678766798 ], [ -50.461855553826901, -21.592075607532799 ], [ -50.461891860227702, -21.592128720813481 ], [ -50.4619297140732, -21.592181036806501 ], [ -50.461975814995, -21.592227924630595 ], [ -50.462023798281187, -21.592283668140489 ], [ -50.462066431817711, -21.592336246978284 ], [ -50.462109761355194, -21.592394501359205 ], [ -50.462144422682691, -21.592454125542297 ], [ -50.462188213647302, -21.592507146827007 ], [ -50.462234885994697, -21.592560241531189 ], [ -50.462327958148101, -21.592669686868096 ], [ -50.462375535403197, -21.592726110105296 ], [ -50.462416698102807, -21.592776304537704 ], [ -50.462460020735897, -21.592826628325895 ], [ -50.462507934771402, -21.592878787888601 ], [ -50.462550889216793, -21.592933082833195 ], [ -50.462591411508598, -21.592992585204101 ], [ -50.462632095391299, -21.593044633940902 ], [ -50.462678607996487, -21.593093947271395 ], [ -50.462721167607697, -21.593146820017491 ], [ -50.462764286804592, -21.593199735288898 ], [ -50.462851842551103, -21.593310129481893 ], [ -50.462891278881401, -21.593361417963493 ], [ -50.462931595888413, -21.593410783657092 ], [ -50.462974824347093, -21.593455793869595 ], [ -50.463029173036404, -21.593481600691501 ], [ -50.4630166864331, -21.593414965485302 ], [ -50.463007257674199, -21.593346930725694 ], [ -50.463014174868306, -21.593283962965202 ], [ -50.4630478766286, -21.593153854243202 ], [ -50.46306268679529, -21.593090749313205 ], [ -50.4630765267664, -21.593020910384599 ], [ -50.463091824981497, -21.592953813677894 ], [ -50.463099519033399, -21.592881876937188 ], [ -50.4631155486477, -21.592744790597401 ] ] ] } },
{ "type": "Feature", "properties": { "CHAVE": "2003951", "FAZENDA": "200395", "NOME_FAZ": "SITIO FUJIKURA", "ZONA": 1.0, "TALHAO": 1.0, "AREA_TOTAL": 3.2990405359350148, "TIPO_GEO": "TALHAO", "DATA_INICI": null, "DATA_FINAL": null, "HORA_INICI": null, "HORA_FINAL": null, "CLASSE": null, "PILOTO": null, "AERONAVE": null, "AREA_HA": null }, "geometry": { "type": "Polygon", "coordinates": [ [ [ -50.463537544169291, -21.589087634414007 ], [ -50.463548006057799, -21.589016954679504 ], [ -50.463571304677501, -21.588871923830293 ], [ -50.463583093308998, -21.588794174181807 ], [ -50.4635954999071, -21.588717039825294 ], [ -50.463606094149505, -21.588640489152699 ], [ -50.463621448055591, -21.588563195869899 ], [ -50.463648138653099, -21.588414550989601 ], [ -50.463659667485807, -21.588343436584196 ], [ -50.463671549347602, -21.588277629684701 ], [ -50.463679796692603, -21.5882109470957 ], [ -50.463690121176413, -21.5881388649603 ], [ -50.463699652196198, -21.588065516731699 ], [ -50.463709948707198, -21.587989957686503 ], [ -50.463720157539697, -21.587917287429896 ], [ -50.463728575525998, -21.587853485275602 ], [ -50.46373700892461, -21.587786238403396 ], [ -50.463748597054213, -21.587716909145488 ], [ -50.4637542513589, -21.587686171944508 ], [ -50.463646061535101, -21.587640850103984 ], [ -50.4635818080828, -21.587601270889195 ], [ -50.463522472297313, -21.58756264179889 ], [ -50.463466730543402, -21.587524785186407 ], [ -50.463414934428407, -21.587483997242096 ], [ -50.463358873983402, -21.587444730853196 ], [ -50.463300702746203, -21.587402313369296 ], [ -50.4632417624968, -21.587361740352492 ], [ -50.463123935906992, -21.5872795920219 ], [ -50.463067218269799, -21.587239049238001 ], [ -50.463004511553699, -21.587194741811299 ], [ -50.462945170717902, -21.587155968985698 ], [ -50.462883671637293, -21.587116926268799 ], [ -50.462822221683098, -21.587078496236099 ], [ -50.462757031912005, -21.587036539144503 ], [ -50.4626969106411, -21.5869986121774 ], [ -50.4626089602246, -21.586946691787098 ], [ -50.462618207798997, -21.586995746053095 ], [ -50.462619364407999, -21.58705928198809 ], [ -50.462617593256709, -21.587123034341491 ], [ -50.462611466386598, -21.587186537733501 ], [ -50.462603022635506, -21.587254867225599 ], [ -50.4625841391045, -21.587395784155099 ], [ -50.462571264573405, -21.587468490219308 ], [ -50.462560069676201, -21.587541517918797 ], [ -50.462548152653198, -21.587611281749396 ], [ -50.462521964379007, -21.587755273995597 ], [ -50.462511150095807, -21.587819385642312 ], [ -50.462499819070501, -21.587882167514795 ], [ -50.462472452507797, -21.588020834489399 ], [ -50.462460650529401, -21.588096046619491 ], [ -50.462451080628306, -21.588165854153612 ], [ -50.462441184159999, -21.588240385793608 ], [ -50.4624326797964, -21.588317243851399 ], [ -50.462422423811113, -21.588394954551301 ], [ -50.462414489351701, -21.588458732163982 ], [ -50.462408166690302, -21.58852289443859 ], [ -50.462404577980898, -21.5885870113318 ], [ -50.462402061019198, -21.588651267205801 ], [ -50.462402962803203, -21.588715769021086 ], [ -50.462407186804597, -21.588780498396595 ], [ -50.462415319916403, -21.588846098692592 ], [ -50.462431007222001, -21.588916927380602 ], [ -50.462533529177897, -21.589157807925897 ], [ -50.462608397747502, -21.589282656526994 ], [ -50.462644533402198, -21.589348844103899 ], [ -50.462678708974913, -21.589404319198195 ], [ -50.462712966773601, -21.589463697552102 ], [ -50.462790692350907, -21.589584037929896 ], [ -50.462824976488108, -21.589641537123196 ], [ -50.462863134736402, -21.589704171497502 ], [ -50.462897268364998, -21.5897632060937 ], [ -50.462938549120402, -21.589827856233399 ], [ -50.462974177247801, -21.589882432481101 ], [ -50.46300923779161, -21.589938994530005 ], [ -50.463044716040898, -21.589997554593001 ], [ -50.463077858658501, -21.590058167033099 ], [ -50.463108897249704, -21.590118275771601 ], [ -50.463138095131399, -21.590179824124501 ], [ -50.463167163593397, -21.590242420083001 ], [ -50.463256837075598, -21.590436820268508 ], [ -50.4632867557293, -21.590504659087095 ], [ -50.463315220362098, -21.590565997246198 ], [ -50.463339549656602, -21.59062232849239 ], [ -50.463349934400497, -21.590553407195095 ], [ -50.463359348717603, -21.590487187004705 ], [ -50.46336815820159, -21.590415592179891 ], [ -50.463379101668103, -21.590345855353004 ], [ -50.463398709818804, -21.590198113637001 ], [ -50.463407834128397, -21.590124026053196 ], [ -50.463433771752698, -21.589903898425405 ], [ -50.463453023371791, -21.589771768687402 ], [ -50.463461277040501, -21.589703605604893 ], [ -50.46347111746541, -21.589631359732508 ], [ -50.4634905309128, -21.589480095284401 ], [ -50.463506132446703, -21.589352970683898 ], [ -50.4635132775486, -21.589287654151104 ], [ -50.4635201313205, -21.5892210858777 ], [ -50.463537544169291, -21.589087634414007 ] ] ] } },
{ "type": "Feature", "properties": { "CHAVE": "2003952", "FAZENDA": "200395", "NOME_FAZ": "SITIO FUJIKURA", "ZONA": 1.0, "TALHAO": 2.0, "AREA_TOTAL": 2.6512826975185431, "TIPO_GEO": "TALHAO", "DATA_INICI": null, "DATA_FINAL": null, "HORA_INICI": null, "HORA_FINAL": null, "CLASSE": null, "PILOTO": null, "AERONAVE": null, "AREA_HA": null }, "geometry": { "type": "Polygon", "coordinates": [ [ [ -50.463157370170002, -21.590351943570592 ], [ -50.463128281805197, -21.590289501137004 ], [ -50.463097865477003, -21.590228292172988 ], [ -50.463035357481601, -21.590104396164602 ], [ -50.463002757765302, -21.590043261453594 ], [ -50.462967792602697, -21.589984404891297 ], [ -50.462933884364503, -21.589928686783193 ], [ -50.4627925249711, -21.589882925689199 ], [ -50.462720656136398, -21.589857791300705 ], [ -50.462650777442299, -21.589834528560303 ], [ -50.462585895165503, -21.589814089397905 ], [ -50.462443474932002, -21.58976793649099 ], [ -50.462368583561712, -21.589744875512196 ], [ -50.462305084064901, -21.589727220504788 ], [ -50.462247809568893, -21.589721934324189 ], [ -50.462200315573106, -21.589742290316195 ], [ -50.462176794739499, -21.5897915308005 ], [ -50.462166174043787, -21.589855164245595 ], [ -50.462157070326306, -21.589920094656499 ], [ -50.462146026241399, -21.589991370430198 ], [ -50.4621193440152, -21.590126263892198 ], [ -50.462107621835507, -21.590193122199992 ], [ -50.462094711536103, -21.590258736559807 ], [ -50.462077558725014, -21.590322270185506 ], [ -50.462065001856402, -21.590387533135292 ], [ -50.462053696585002, -21.590452425387301 ], [ -50.462027826736197, -21.590580177137408 ], [ -50.462013829315602, -21.590645004610099 ], [ -50.462004153749099, -21.590706228381411 ], [ -50.461990315140199, -21.590837209799698 ], [ -50.461981702468599, -21.5909056695514 ], [ -50.461969489548899, -21.590968565530094 ], [ -50.461960301563003, -21.591035578692001 ], [ -50.461953132357003, -21.591103224281191 ], [ -50.4619450561379, -21.591167421306505 ], [ -50.461935385072003, -21.591233293905692 ], [ -50.461927203655897, -21.591303742286303 ], [ -50.461926060933507, -21.591370055014302 ], [ -50.461921617682798, -21.5914394960271 ], [ -50.461902765377197, -21.5914958683423 ], [ -50.462022769648108, -21.591528924786996 ], [ -50.462088381455096, -21.591549660567008 ], [ -50.462158287218003, -21.591570549118295 ], [ -50.462226933448903, -21.591592519903095 ], [ -50.462294054803799, -21.591616379039309 ], [ -50.462357326996802, -21.5916395537228 ], [ -50.462421302311803, -21.591658940955998 ], [ -50.462489414948102, -21.591677359239693 ], [ -50.462559568805503, -21.591695677698599 ], [ -50.462623497534601, -21.591726621168597 ], [ -50.462682514374102, -21.591752228474498 ], [ -50.4627479500353, -21.591772372700596 ], [ -50.462879222094202, -21.591820421573598 ], [ -50.462944560885198, -21.591840474801099 ], [ -50.463007533022001, -21.591861377179793 ], [ -50.463071163808401, -21.591876900377006 ], [ -50.463241580275103, -21.591908927836201 ], [ -50.463252732562196, -21.5918569932944 ], [ -50.463266529807697, -21.591788202226205 ], [ -50.463278582657203, -21.591723534400401 ], [ -50.463301833313203, -21.591577183603995 ], [ -50.463313875291199, -21.591504971744499 ], [ -50.463340472760102, -21.5913547919696 ], [ -50.4633521477096, -21.5912799317477 ], [ -50.463361429747906, -21.591209545033394 ], [ -50.4633665124706, -21.591140996900002 ], [ -50.463369773364299, -21.591073996865703 ], [ -50.463369520651803, -21.591008882796999 ], [ -50.463363099090913, -21.590932193431104 ], [ -50.463352504059699, -21.590860821098396 ], [ -50.463337084243292, -21.59079587496969 ], [ -50.463317761810401, -21.59073352729369 ], [ -50.463293504666801, -21.590670739074596 ], [ -50.463267898265698, -21.590607097237903 ], [ -50.463241099268004, -21.590542033100402 ], [ -50.463157370170002, -21.590351943570592 ] ] ] } },
{ "type": "Feature", "properties": { "CHAVE": null, "FAZENDA": "Faz. ABC", "NOME_FAZ": null, "ZONA": null, "TALHAO": null, "AREA_TOTAL": null, "TIPO_GEO": "VOO_PROCESSADO", "DATA_INICI": "02-04-2026", "DATA_FINAL": "02-04-2026", "HORA_INICI": "11:39:25", "HORA_FINAL": "11:39:25", "CLASSE": "NÃO APLICADO DENTRO DO TALHÃO", "PILOTO": "valmir alves", "AERONAVE": "PS-CBA", "AREA_HA": 0.0010566191991859999 }, "geometry": { "type": "MultiPolygon", "coordinates": [ [ [ [ -50.463153168382298, -21.592531891251902 ], [ -50.463165984871097, -21.592461886383898 ], [ -50.463176559586401, -21.592392036910002 ], [ -50.463183740672797, -21.592322962512096 ], [ -50.463195284384398, -21.592257543174103 ], [ -50.463205264805303, -21.592194287127096 ], [ -50.4632128547264, -21.592129604919293 ], [ -50.463218734223403, -21.592059830646598 ], [ -50.4632287036208, -21.591989075740997 ], [ -50.4632339882804, -21.591953578232808 ], [ -50.463060317744699, -21.591920939291992 ], [ -50.462993333555403, -21.591904598006582 ], [ -50.462977537174638, -21.591899354704427 ], [ -50.462960900702775, -21.591999174162176 ], [ -50.462946064569479, -21.592098082407272 ], [ -50.462945646142302, -21.592100697818157 ], [ -50.462928868253378, -21.592199391889523 ], [ -50.462914064783163, -21.592298082379177 ], [ -50.462913646356533, -21.592300697786566 ], [ -50.462896646457985, -21.592400697804003 ], [ -50.4628964190807, -21.592401997138214 ], [ -50.462878653239549, -21.592500696828228 ], [ -50.462862861996797, -21.592599392739615 ], [ -50.462862646677834, -21.592600697739172 ], [ -50.462845646779286, -21.592700697756626 ], [ -50.46284508418556, -21.59270379036365 ], [ -50.462826509502293, -21.592799597139997 ], [ -50.4628108623155, -21.592897392695122 ], [ -50.462505137732663, -21.592854607165371 ], [ -50.462521137834607, -21.592754607181934 ], [ -50.462521915773323, -21.592750209479338 ], [ -50.462540616630179, -21.592653752946578 ], [ -50.462557242525641, -21.592555954161483 ], [ -50.462573138153324, -21.592456607137436 ], [ -50.462573580871826, -21.592454002704898 ], [ -50.462591464119285, -21.592354651905858 ], [ -50.462608131687809, -21.592256607987768 ], [ -50.462618356524651, -21.592188442884211 ], [ -50.462406753891564, -21.592175740953703 ], [ -50.462413753999918, -21.592073740946979 ], [ -50.462420668135358, -21.591972993670112 ], [ -50.462425605543473, -21.59187424759881 ], [ -50.462425670199742, -21.591873059324389 ], [ -50.462431670307261, -21.591771059332086 ], [ -50.462431760619125, -21.591769649635534 ], [ -50.462435900902769, -21.591709912169645 ], [ -50.462407146535917, -21.591702136723786 ], [ -50.462341061393197, -21.591682110122193 ], [ -50.4622766675242, -21.591658524601897 ], [ -50.462210529245702, -21.5916350149114 ], [ -50.462143116138499, -21.591613438796688 ], [ -50.462073299037201, -21.591592576737199 ], [ -50.4620082093397, -21.591572005962497 ], [ -50.461889405867502, -21.591539280288792 ], [ -50.461880888129507, -21.5915676369079 ], [ -50.461866458069302, -21.591630618451696 ], [ -50.461851373673198, -21.591693619543193 ], [ -50.4618357299615, -21.591765242607107 ], [ -50.46182126178811, -21.591836245674692 ], [ -50.461808957095492, -21.591900102714707 ], [ -50.46180633932849, -21.591963723778896 ], [ -50.461823208795202, -21.592021678766798 ], [ -50.461855553826901, -21.592075607532799 ], [ -50.461891860227702, -21.592128720813481 ], [ -50.4619297140732, -21.592181036806501 ], [ -50.461975814995, -21.592227924630595 ], [ -50.462023798281187, -21.592283668140489 ], [ -50.462066431817711, -21.592336246978284 ], [ -50.462109761355194, -21.592394501359205 ], [ -50.462144422682691, -21.592454125542297 ], [ -50.462188213647302, -21.592507146827007 ], [ -50.462234885994697, -21.592560241531189 ], [ -50.462327958148101, -21.592669686868096 ], [ -50.462375535403197, -21.592726110105296 ], [ -50.462416698102807, -21.592776304537704 ], [ -50.462460020735897, -21.592826628325895 ], [ -50.462507934771402, -21.592878787888601 ], [ -50.462550889216793, -21.592933082833195 ], [ -50.462591411508598, -21.592992585204101 ], [ -50.462632095391299, -21.593044633940902 ], [ -50.462678607996487, -21.593093947271395 ], [ -50.462721167607697, -21.593146820017491 ], [ -50.462764286804592, -21.593199735288898 ], [ -50.462851842551103, -21.593310129481893 ], [ -50.462891278881401, -21.593361417963493 ], [ -50.462931595888413, -21.593410783657092 ], [ -50.462974824347093, -21.593455793869595 ], [ -50.463029173036404, -21.593481600691501 ], [ -50.4630166864331, -21.593414965485302 ], [ -50.463007257674199, -21.593346930725694 ], [ -50.463014174868306, -21.593283962965202 ], [ -50.4630478766286, -21.593153854243202 ], [ -50.46306268679529, -21.593090749313205 ], [ -50.4630765267664, -21.593020910384599 ], [ -50.463091824981497, -21.592953813677894 ], [ -50.463099519033399, -21.592881876937188 ], [ -50.4631155486477, -21.592744790597401 ], [ -50.463129228830901, -21.592671111388501 ], [ -50.463143161496603, -21.592599691672206 ], [ -50.463153168382298, -21.592531891251902 ] ] ], [ [ [ -50.463278582657203, -21.591723534400401 ], [ -50.463301833313203, -21.591577183603995 ], [ -50.463313875291199, -21.591504971744499 ], [ -50.463340472760102, -21.5913547919696 ], [ -50.4633521477096, -21.5912799317477 ], [ -50.463361429747906, -21.591209545033394 ], [ -50.4633665124706, -21.591140996900002 ], [ -50.463369773364299, -21.591073996865703 ], [ -50.463369520651803, -21.591008882796999 ], [ -50.463363099090913, -21.590932193431104 ], [ -50.463352504059699, -21.590860821098396 ], [ -50.463337084243292, -21.59079587496969 ], [ -50.463317761810401, -21.59073352729369 ], [ -50.463293504666801, -21.590670739074596 ], [ -50.463267898265698, -21.590607097237903 ], [ -50.463241099268004, -21.590542033100402 ], [ -50.463185488414474, -21.59041578020561 ], [ -50.463176431817899, -21.590485446895649 ], [ -50.463176253593332, -21.590486767116332 ], [ -50.463162346060997, -21.590586107377888 ], [ -50.463149432034577, -21.590685446844947 ], [ -50.463136432137823, -21.59078544685887 ], [ -50.4631360922873, -21.590787887505407 ], [ -50.463121273428847, -21.590887668523756 ], [ -50.463108432352143, -21.590986446834229 ], [ -50.463108063388795, -21.590989082533262 ], [ -50.463093063491193, -21.591089082548955 ], [ -50.463092925430189, -21.591089982386691 ], [ -50.463077202377249, -21.591190217519099 ], [ -50.463064432674123, -21.591288446797233 ], [ -50.463064121101816, -21.591290696097023 ], [ -50.46304928643093, -21.591391572578797 ], [ -50.463036432889517, -21.591490446772475 ], [ -50.463036093040621, -21.591492887407313 ], [ -50.463021093144114, -21.591593887423024 ], [ -50.46302106403536, -21.591594082448321 ], [ -50.463006189847803, -21.591693244391802 ], [ -50.462992305162423, -21.591794405015289 ], [ -50.462992254989594, -21.591794766944275 ], [ -50.462984022174076, -21.591853573210113 ], [ -50.463007533022001, -21.591861377179793 ], [ -50.463071163808401, -21.591876900377006 ], [ -50.463241580275103, -21.591908927836201 ], [ -50.463252732562196, -21.5918569932944 ], [ -50.463266529807697, -21.591788202226205 ], [ -50.463278582657203, -21.591723534400401 ] ] ], [ [ [ -50.462443474932002, -21.58976793649099 ], [ -50.462368583561712, -21.589744875512196 ], [ -50.462305084064901, -21.589727220504788 ], [ -50.462247809568893, -21.589721934324189 ], [ -50.462200315573106, -21.589742290316195 ], [ -50.462176794739499, -21.5897915308005 ], [ -50.462166174043787, -21.589855164245595 ], [ -50.462157070326306, -21.589920094656499 ], [ -50.462146026241399, -21.589991370430198 ], [ -50.4621193440152, -21.590126263892198 ], [ -50.462107621835507, -21.590193122199992 ], [ -50.462094711536103, -21.590258736559807 ], [ -50.462077558725014, -21.590322270185506 ], [ -50.462065001856402, -21.590387533135292 ], [ -50.462053696585002, -21.590452425387301 ], [ -50.462027826736197, -21.590580177137408 ], [ -50.462013829315602, -21.590645004610099 ], [ -50.462004153749099, -21.590706228381411 ], [ -50.461990315140199, -21.590837209799698 ], [ -50.461981702468599, -21.5909056695514 ], [ -50.461969489548899, -21.590968565530094 ], [ -50.461960301563003, -21.591035578692001 ], [ -50.461953132357003, -21.591103224281191 ], [ -50.4619450561379, -21.591167421306505 ], [ -50.461935385072003, -21.591233293905692 ], [ -50.461927203655897, -21.591303742286303 ], [ -50.461926060933507, -21.591370055014302 ], [ -50.461921617682798, -21.5914394960271 ], [ -50.461902765377197, -21.5914958683423 ], [ -50.462022769648108, -21.591528924786996 ], [ -50.462088381455096, -21.591549660567008 ], [ -50.462158287218003, -21.591570549118295 ], [ -50.462226933448903, -21.591592519903095 ], [ -50.462294054803799, -21.591616379039309 ], [ -50.462357326996802, -21.5916395537228 ], [ -50.462421302311803, -21.591658940955998 ], [ -50.462438974714573, -21.591663719736346 ], [ -50.462443599325901, -21.591569379702754 ], [ -50.46244375453859, -21.591566740913734 ], [ -50.462450714848941, -21.591465320812286 ], [ -50.462456680143454, -21.591365900990379 ], [ -50.462456761049417, -21.591364649608717 ], [ -50.462463767641964, -21.591263556495907 ], [ -50.462470720703649, -21.59116422854456 ], [ -50.462476680463034, -21.59106490097307 ], [ -50.462476767854447, -21.591063556482528 ], [ -50.46248376796067, -21.590963556475835 ], [ -50.462490768065834, -21.590863556484408 ], [ -50.462490886404673, -21.590861995598047 ], [ -50.462498771324427, -21.590765406582172 ], [ -50.462504685802145, -21.590667819403016 ], [ -50.462504781844743, -21.590666364579977 ], [ -50.462511781947754, -21.590568364588485 ], [ -50.462511877741626, -21.590567106095573 ], [ -50.462519827013708, -21.590468735140227 ], [ -50.46252678215702, -21.590371364575017 ], [ -50.462835217866783, -21.590390635282525 ], [ -50.462828217969786, -21.590488635291031 ], [ -50.462828122180952, -21.590489893752768 ], [ -50.462820173116576, -21.590588264711112 ], [ -50.462813270120122, -21.590684908092332 ], [ -50.462807314322902, -21.590783180461901 ], [ -50.462807113519219, -21.590786004250326 ], [ -50.462799177306422, -21.590883224115966 ], [ -50.462792232063777, -21.590982443366407 ], [ -50.462788141037827, -21.591040887477494 ], [ -50.462801739216061, -21.590950233589542 ], [ -50.46281456779117, -21.590851553038991 ], [ -50.462814907654305, -21.590849112338915 ], [ -50.462829726721537, -21.590749331324439 ], [ -50.462842568008895, -21.590650552988187 ], [ -50.462855568112133, -21.590550553002107 ], [ -50.462855746346619, -21.590549232728556 ], [ -50.462869654087115, -21.590449892469898 ], [ -50.462882568325412, -21.590350552977579 ], [ -50.462882746560147, -21.590349232702241 ], [ -50.462896468949346, -21.590251216372401 ], [ -50.462907250141889, -21.590153206467978 ], [ -50.462907746773688, -21.590149232675923 ], [ -50.462921469162524, -21.590051216348769 ], [ -50.462932250354754, -21.589953206447127 ], [ -50.462932403170207, -21.58995187760063 ], [ -50.462934971687723, -21.589930473475633 ], [ -50.462933884364503, -21.589928686783193 ], [ -50.4627925249711, -21.589882925689199 ], [ -50.462720656136398, -21.589857791300705 ], [ -50.462650777442299, -21.589834528560303 ], [ -50.462585895165503, -21.589814089397905 ], [ -50.462443474932002, -21.58976793649099 ] ] ], [ [ [ -50.463199613426276, -21.590312767005809 ], [ -50.463167163593397, -21.590242420083001 ], [ -50.463199613426276, -21.590312767005813 ], [ -50.463199613426276, -21.590312767005809 ] ] ], [ [ [ -50.463648138653099, -21.588414550989601 ], [ -50.463659667485807, -21.588343436584196 ], [ -50.463671549347602, -21.588277629684701 ], [ -50.463679796692603, -21.5882109470957 ], [ -50.463690121176413, -21.5881388649603 ], [ -50.463699652196198, -21.588065516731699 ], [ -50.463709948707198, -21.587989957686503 ], [ -50.463720157539697, -21.587917287429896 ], [ -50.463728575525998, -21.587853485275602 ], [ -50.46373700892461, -21.587786238403396 ], [ -50.463748597054213, -21.587716909145488 ], [ -50.4637542513589, -21.587686171944508 ], [ -50.463646061535101, -21.587640850103984 ], [ -50.4635818080828, -21.587601270889195 ], [ -50.463522472297313, -21.58756264179889 ], [ -50.463516653121779, -21.587558689747542 ], [ -50.463516472111991, -21.587560109989894 ], [ -50.463516324665392, -21.58756122969373 ], [ -50.463502577427413, -21.587662370869822 ], [ -50.463491778587624, -21.587762506542735 ], [ -50.463491276144119, -21.58776658474298 ], [ -50.463477577519598, -21.58786541128379 ], [ -50.46346680830991, -21.587967230278778 ], [ -50.463466301085511, -21.58797140548057 ], [ -50.46345255862326, -21.588071529901057 ], [ -50.46344176361486, -21.588170648662505 ], [ -50.463441472768899, -21.588173109889969 ], [ -50.46342855566013, -21.588274460348675 ], [ -50.463416632262756, -21.588375810132181 ], [ -50.463416613983227, -21.588375964744245 ], [ -50.463404623275046, -21.588476887431717 ], [ -50.463392692253173, -21.588578302024921 ], [ -50.463381748287937, -21.588677793570156 ], [ -50.463381614306037, -21.588678964710205 ], [ -50.463369778538684, -21.588778583301892 ], [ -50.463359914341382, -21.588879199195613 ], [ -50.463359595695621, -21.588882122358942 ], [ -50.4633478353256, -21.58898012630296 ], [ -50.463339015565012, -21.589078124790575 ], [ -50.463338633017806, -21.589081810029189 ], [ -50.463326771194517, -21.589182636429733 ], [ -50.463316888856113, -21.589281460854927 ], [ -50.463306888962492, -21.589381460845409 ], [ -50.463296889066811, -21.589481460856643 ], [ -50.46329659633723, -21.58948412229066 ], [ -50.46328475597619, -21.589582792831926 ], [ -50.463274889279553, -21.589681460837639 ], [ -50.463274749360458, -21.589682793442801 ], [ -50.463263749464431, -21.589782793454937 ], [ -50.463263596656944, -21.589784122256628 ], [ -50.463251596763499, -21.589884122245287 ], [ -50.463239676557649, -21.589983458165221 ], [ -50.463228749783802, -21.590082793423633 ], [ -50.463228253166285, -21.590086767168948 ], [ -50.463214530982768, -21.590184783501307 ], [ -50.463203749996666, -21.590282793402782 ], [ -50.463203253379824, -21.590286767142643 ], [ -50.463199613426276, -21.590312767005809 ], [ -50.463256837075598, -21.590436820268508 ], [ -50.4632867557293, -21.590504659087095 ], [ -50.463315220362098, -21.590565997246198 ], [ -50.463339549656602, -21.59062232849239 ], [ -50.463349934400497, -21.590553407195095 ], [ -50.463359348717603, -21.590487187004705 ], [ -50.46336815820159, -21.590415592179891 ], [ -50.463379101668103, -21.590345855353004 ], [ -50.463398709818804, -21.590198113637001 ], [ -50.463407834128397, -21.590124026053196 ], [ -50.463433771752698, -21.589903898425405 ], [ -50.463453023371791, -21.589771768687402 ], [ -50.463461277040501, -21.589703605604893 ], [ -50.46347111746541, -21.589631359732508 ], [ -50.4634905309128, -21.589480095284401 ], [ -50.463506132446703, -21.589352970683898 ], [ -50.4635132775486, -21.589287654151104 ], [ -50.4635201313205, -21.5892210858777 ], [ -50.463537544169291, -21.589087634414007 ], [ -50.463548006057799, -21.589016954679504 ], [ -50.463571304677501, -21.588871923830293 ], [ -50.463583093308998, -21.588794174181807 ], [ -50.4635954999071, -21.588717039825294 ], [ -50.463606094149505, -21.588640489152699 ], [ -50.463621448055591, -21.588563195869899 ], [ -50.463648138653099, -21.588414550989601 ] ] ], [ [ [ -50.462822221683098, -21.587078496236099 ], [ -50.462757031912005, -21.587036539144503 ], [ -50.4626969106411, -21.5869986121774 ], [ -50.4626089602246, -21.586946691787098 ], [ -50.462618207798997, -21.586995746053095 ], [ -50.462619364407999, -21.58705928198809 ], [ -50.462617593256709, -21.587123034341491 ], [ -50.462611466386598, -21.587186537733501 ], [ -50.462603022635506, -21.587254867225599 ], [ -50.4625841391045, -21.587395784155099 ], [ -50.462571264573405, -21.587468490219308 ], [ -50.462560069676201, -21.587541517918797 ], [ -50.462548152653198, -21.587611281749396 ], [ -50.462521964379007, -21.587755273995597 ], [ -50.462511150095807, -21.587819385642312 ], [ -50.462499819070501, -21.587882167514795 ], [ -50.462472452507797, -21.588020834489399 ], [ -50.462460650529401, -21.588096046619491 ], [ -50.462451080628306, -21.588165854153612 ], [ -50.462441184159999, -21.588240385793608 ], [ -50.4624326797964, -21.588317243851399 ], [ -50.462422423811113, -21.588394954551301 ], [ -50.462414489351701, -21.588458732163982 ], [ -50.462408166690302, -21.58852289443859 ], [ -50.462404577980898, -21.5885870113318 ], [ -50.462402061019198, -21.588651267205801 ], [ -50.462402962803203, -21.588715769021086 ], [ -50.462407186804597, -21.588780498396595 ], [ -50.462415319916403, -21.588846098692592 ], [ -50.462431007222001, -21.588916927380602 ], [ -50.462533529177897, -21.589157807925897 ], [ -50.462608397747502, -21.589282656526994 ], [ -50.462644533402198, -21.589348844103899 ], [ -50.462678708974913, -21.589404319198195 ], [ -50.462712966773601, -21.589463697552102 ], [ -50.462790692350907, -21.589584037929896 ], [ -50.462824976488108, -21.589641537123196 ], [ -50.462863134736402, -21.589704171497502 ], [ -50.462897268364998, -21.5897632060937 ], [ -50.462938549120402, -21.589827856233399 ], [ -50.462945929241592, -21.589839161327195 ], [ -50.462956323691287, -21.589752541672752 ], [ -50.462967177413553, -21.589653872415109 ], [ -50.462977110856556, -21.589554539031937 ], [ -50.462977403596469, -21.589551877555273 ], [ -50.462989244164838, -21.589453207018146 ], [ -50.462999111071362, -21.589354538992158 ], [ -50.463009111177755, -21.589254538982665 ], [ -50.463019111282065, -21.589154538993913 ], [ -50.463019366913088, -21.589152189816605 ], [ -50.463031150507973, -21.589052030157305 ], [ -50.463039984568596, -21.588953875077802 ], [ -50.463040404238079, -21.588949877487003 ], [ -50.463052229132288, -21.588851337566798 ], [ -50.463062085796324, -21.588750800673953 ], [ -50.463062385626266, -21.588748035135673 ], [ -50.463074316188049, -21.58864762046348 ], [ -50.4630852518506, -21.588548206300622 ], [ -50.463085367557674, -21.588547189749303 ], [ -50.463097367663458, -21.588445189762378 ], [ -50.463097385949077, -21.588445035101625 ], [ -50.463109376869333, -21.588344112416408 ], [ -50.463121367879687, -21.588242189739784 ], [ -50.463121527165072, -21.58824088995528 ], [ -50.463134370574899, -21.588140119417627 ], [ -50.463145236524461, -21.588040351208267 ], [ -50.463145698851534, -21.588036594364187 ], [ -50.463159412894427, -21.587936678531399 ], [ -50.46317019183175, -21.587834769591961 ], [ -50.463170723794384, -21.587830415101834 ], [ -50.463184441711405, -21.587731450879563 ], [ -50.463195221552475, -21.587631493328029 ], [ -50.4631956752702, -21.587627770150949 ], [ -50.463209599315952, -21.587525329748576 ], [ -50.463222455093423, -21.587424462172336 ], [ -50.463230814172249, -21.587354107214793 ], [ -50.463123935906992, -21.5872795920219 ], [ -50.463067218269799, -21.587239049238001 ], [ -50.463004511553699, -21.587194741811299 ], [ -50.462945170717902, -21.587155968985698 ], [ -50.462883671637293, -21.587116926268799 ], [ -50.462822221683098, -21.587078496236099 ] ] ], [ [ [ -50.462716303712597, -21.586681974100703 ], [ -50.462702206950297, -21.586751695904706 ], [ -50.462661348825392, -21.586924199455986 ], [ -50.46272331093521, -21.586960777972692 ], [ -50.462784226976503, -21.586999206308885 ], [ -50.462849336811701, -21.5870411119473 ], [ -50.462910658552097, -21.587079461791905 ], [ -50.462972565387886, -21.587118763367297 ], [ -50.463032909132217, -21.587158191479908 ], [ -50.463096440459609, -21.587203081555593 ], [ -50.46315306518769, -21.587243557920399 ], [ -50.46323711902469, -21.587302159790305 ], [ -50.463247487283255, -21.587219214419207 ], [ -50.463247528254662, -21.58721888983245 ], [ -50.463260435919452, -21.587117615144198 ], [ -50.463272351427278, -21.587015341291782 ], [ -50.463272507694931, -21.587014053631322 ], [ -50.463285507801402, -21.586911053645309 ], [ -50.463285676036357, -21.586909770059172 ], [ -50.463299423485061, -21.58680862889743 ], [ -50.463310222534524, -21.586708493233587 ], [ -50.46331065291578, -21.58670494257197 ], [ -50.46332449173358, -21.586602140727884 ], [ -50.46333635197567, -21.58650034123503 ], [ -50.463336468430427, -21.586499372045612 ], [ -50.463349408567005, -21.586394856445708 ], [ -50.463361269043183, -21.586293054944651 ], [ -50.463372193581705, -21.586189769426813 ], [ -50.463372676808966, -21.586185769966622 ], [ -50.463386396440576, -21.586084833457793 ], [ -50.46339717967264, -21.585981903639908 ], [ -50.463397677030926, -21.585977769940051 ], [ -50.463411396662138, -21.585876833434156 ], [ -50.463422179893882, -21.585773903619241 ], [ -50.463422631227353, -21.58577011178339 ], [ -50.46343656858199, -21.585665582446964 ], [ -50.463449479377068, -21.585563290075768 ], [ -50.463462391420137, -21.585458008165784 ], [ -50.463474335940532, -21.585354489932737 ], [ -50.463474489275335, -21.585353214172784 ], [ -50.463487489382885, -21.585249214186799 ], [ -50.463487631784147, -21.585248111717906 ], [ -50.463501547925844, -21.585143741477388 ], [ -50.463514469986251, -21.585039371874963 ], [ -50.463527470094881, -21.584934371889002 ], [ -50.463527632120126, -21.584933111678364 ], [ -50.463541548261617, -21.58482874143937 ], [ -50.463554470321874, -21.584724371838135 ], [ -50.463567470433759, -21.58461937182587 ], [ -50.463580470542382, -21.584514371839909 ], [ -50.463580632568089, -21.58451311162565 ], [ -50.463594548709352, -21.584408741388344 ], [ -50.463607470769368, -21.584304371789049 ], [ -50.463620470877999, -21.584199371803081 ], [ -50.463620589396633, -21.584198440967654 ], [ -50.463634538950146, -21.584091827378874 ], [ -50.463647384184391, -21.583989066369178 ], [ -50.463659288580082, -21.583882919836437 ], [ -50.463659471220083, -21.583881371739622 ], [ -50.463672452339623, -21.583776525125831 ], [ -50.463685375684072, -21.583670156980624 ], [ -50.463697321074434, -21.583565635776932 ], [ -50.463697433926789, -21.583564678510733 ], [ -50.463710367209522, -21.58345822856678 ], [ -50.463722304997674, -21.583352779084485 ], [ -50.463722434153702, -21.583351678486295 ], [ -50.463725253199591, -21.583328475771001 ], [ -50.463445594293987, -21.583296410852295 ], [ -50.463472589023546, -21.583090452713616 ], [ -50.463499583780283, -21.582883494578017 ], [ -50.463775738016054, -21.582915004782016 ], [ -50.463786289710356, -21.58282091972363 ], [ -50.463786453273265, -21.582819526439405 ], [ -50.463799444065152, -21.58271360242879 ], [ -50.463812376816023, -21.58260715686226 ], [ -50.46382432220598, -21.582502635661942 ], [ -50.463824435059159, -21.582501678388741 ], [ -50.463837435169943, -21.582394678402835 ], [ -50.463837612772132, -21.582393277571139 ], [ -50.463851612881427, -21.582287277586069 ], [ -50.464158387159181, -21.582322722273354 ], [ -50.464144479722066, -21.58242802227759 ], [ -50.464131623108869, -21.582533843009333 ], [ -50.464119677938719, -21.582638364210037 ], [ -50.464119565093618, -21.582639321431898 ], [ -50.464106565204396, -21.582746321445981 ], [ -50.464106546655081, -21.582746473405635 ], [ -50.464093632155901, -21.582851777148225 ], [ -50.464081710435934, -21.582958080148316 ], [ -50.464081527803955, -21.582959628204833 ], [ -50.464068527912573, -21.583064628218857 ], [ -50.464068409401847, -21.583065559007494 ], [ -50.46405456233704, -21.583171390995872 ], [ -50.464042694921091, -21.583276220810305 ], [ -50.464042565773234, -21.583277321358679 ], [ -50.464029632714187, -21.583383771304714 ], [ -50.464017695147824, -21.58348922078746 ], [ -50.464017566000152, -21.583490321334224 ], [ -50.464004624240808, -21.583596842890955 ], [ -50.463992679070287, -21.583701364095017 ], [ -50.463992566226004, -21.58370232130989 ], [ -50.463979566336789, -21.583809321323972 ], [ -50.46397952870965, -21.583809628105467 ], [ -50.46396662459518, -21.583913854530955 ], [ -50.463954711566203, -21.584020080035501 ], [ -50.463954509312089, -21.584021785821125 ], [ -50.463941509419627, -21.584125785835134 ], [ -50.463941410533252, -21.584126558876754 ], [ -50.463927471515483, -21.584233093653623 ], [ -50.463914529272238, -21.584337628043759 ], [ -50.46390152938087, -21.584442628057793 ], [ -50.463901367364649, -21.584443888218889 ], [ -50.463887451442226, -21.584548258459261 ], [ -50.463874529607857, -21.584652628006943 ], [ -50.463861529719736, -21.584757627994652 ], [ -50.463848529828368, -21.584862628008683 ], [ -50.463848367812609, -21.584863888166165 ], [ -50.46383445188998, -21.584968258408125 ], [ -50.463821530055355, -21.585072627957828 ], [ -50.463808530164002, -21.585177627971856 ], [ -50.463808368148584, -21.585178888126642 ], [ -50.463794441720154, -21.585283337162689 ], [ -50.463781590457963, -21.585386148124662 ], [ -50.46376966420344, -21.585489509939237 ], [ -50.463769549578494, -21.585490473087805 ], [ -50.463756549688206, -21.58559647310188 ], [ -50.463756490800726, -21.585596946374384 ], [ -50.463743490907198, -21.58569994638836 ], [ -50.463743368705387, -21.585700888061155 ], [ -50.463729621229547, -21.585803994943195 ], [ -50.463718820248573, -21.58590709625151 ], [ -50.463718322904683, -21.585911229904639 ], [ -50.46370460348502, -21.586012166415866 ], [ -50.463693820469814, -21.586115096230817 ], [ -50.463693323126634, -21.586119229878058 ], [ -50.463679594611214, -21.586220233308566 ], [ -50.463668806559959, -21.586322230443937 ], [ -50.463668647839185, -21.586323658646762 ], [ -50.463656647946031, -21.586426658659867 ], [ -50.463656531499304, -21.586427627799452 ], [ -50.463643591582191, -21.586532143402287 ], [ -50.463631648167535, -21.586634658636942 ], [ -50.463631347018392, -21.586637057272643 ], [ -50.463617585775879, -21.586739284444036 ], [ -50.463606777605555, -21.586839506637165 ], [ -50.463606323899242, -21.586843229785515 ], [ -50.463592411190923, -21.586945588358951 ], [ -50.463579573562285, -21.587047302725058 ], [ -50.463567648715923, -21.587149658580156 ], [ -50.463567471679305, -21.587151110012826 ], [ -50.46355449246623, -21.587252947755118 ], [ -50.463541564133095, -21.587356375290025 ], [ -50.463529613001413, -21.587456964871912 ], [ -50.463529472006599, -21.587458109975927 ], [ -50.463523201434519, -21.587507310254789 ], [ -50.4635504616354, -21.587525823821998 ], [ -50.463608892592397, -21.587563863841307 ], [ -50.463669367802204, -21.587601115708697 ], [ -50.463762588355202, -21.587640166766601 ], [ -50.463772580900198, -21.587579367973305 ], [ -50.463782771648098, -21.587511772839402 ], [ -50.463803980069699, -21.587383315256101 ], [ -50.463814281912398, -21.587302947631304 ], [ -50.463823331657203, -21.587239420881406 ], [ -50.463834136877004, -21.587167626829597 ], [ -50.463842949036803, -21.587097191115305 ], [ -50.463852294834908, -21.587025653555891 ], [ -50.463864243638312, -21.586949985656204 ], [ -50.463878402847101, -21.586885353538605 ], [ -50.463887905238501, -21.586821527373502 ], [ -50.463895390109208, -21.586752956625997 ], [ -50.463903658360898, -21.586681333861996 ], [ -50.463913527720003, -21.586609198447601 ], [ -50.463923574464403, -21.586538206845297 ], [ -50.463932282247399, -21.586472211502304 ], [ -50.463940902832803, -21.586398532844395 ], [ -50.463946729944603, -21.586335796721897 ], [ -50.46395178458171, -21.5862683553609 ], [ -50.463957572976902, -21.586195655508103 ], [ -50.463966965516903, -21.586119290272897 ], [ -50.463977221356799, -21.586040996823712 ], [ -50.463992383981797, -21.58591131487341 ], [ -50.463999308534198, -21.5858443292739 ], [ -50.464006821548701, -21.585777397436992 ], [ -50.464015022171402, -21.585714046502495 ], [ -50.464023447514691, -21.585641734813798 ], [ -50.464031709729497, -21.585576892787596 ], [ -50.464046726824407, -21.585507982206007 ], [ -50.464056739412008, -21.585445461535294 ], [ -50.464069679264803, -21.585370668524412 ], [ -50.464082060735002, -21.585302051776296 ], [ -50.46409628025831, -21.585234403692798 ], [ -50.464110735354197, -21.585163757804295 ], [ -50.464121935786501, -21.585092601458296 ], [ -50.464134206500297, -21.584944032519104 ], [ -50.464140112857002, -21.584879186268001 ], [ -50.4641481237121, -21.5848008550225 ], [ -50.464158326614701, -21.584731990427489 ], [ -50.464179913239299, -21.5845941344773 ], [ -50.464189536035903, -21.5845286604604 ], [ -50.464195060006801, -21.584461236018907 ], [ -50.464197710362598, -21.584392847609102 ], [ -50.464212050975803, -21.584327961584599 ], [ -50.464226912645202, -21.5842590634327 ], [ -50.464235884766914, -21.584193998449297 ], [ -50.464244379939501, -21.584128800026402 ], [ -50.464256051110503, -21.584059195471301 ], [ -50.464265584067313, -21.5839897976701 ], [ -50.464273043840102, -21.583927526014293 ], [ -50.464279037748589, -21.583860156281805 ], [ -50.464282798579703, -21.583793905927603 ], [ -50.464289007962009, -21.583725156842494 ], [ -50.464297130895901, -21.583658902762402 ], [ -50.464303474862191, -21.583595277529501 ], [ -50.464310921452402, -21.583529021800299 ], [ -50.464318728049797, -21.583465093616493 ], [ -50.464328206708508, -21.583399812368391 ], [ -50.464343182914099, -21.58326764558619 ], [ -50.464353229154099, -21.5831972948653 ], [ -50.464362373172001, -21.5831306488123 ], [ -50.464377119999106, -21.5829903981748 ], [ -50.464394824602209, -21.582846552211308 ], [ -50.464402136814613, -21.582781399279096 ], [ -50.46441878505771, -21.582639403732099 ], [ -50.464427669969012, -21.582566780005504 ], [ -50.464437027824602, -21.582493971015296 ], [ -50.464446925662003, -21.582422581570103 ], [ -50.464454787492002, -21.5823518723757 ], [ -50.4644608539869, -21.582283759884699 ], [ -50.46446412801739, -21.582218572188001 ], [ -50.464458314287597, -21.582155326169296 ], [ -50.464442661070812, -21.582094252424799 ], [ -50.4644196702614, -21.582037790117404 ], [ -50.464387119519692, -21.581975604748408 ], [ -50.464356568025103, -21.581906666595692 ], [ -50.46434267865461, -21.581832510076101 ], [ -50.464355083447202, -21.5817536980305 ], [ -50.464394391005101, -21.581682454400102 ], [ -50.464444130168509, -21.581628656770103 ], [ -50.464488658125497, -21.581574324425699 ], [ -50.4645251656002, -21.581523476528705 ], [ -50.464552366345202, -21.5814694462068 ], [ -50.464567360597499, -21.5814108217442 ], [ -50.4645812862884, -21.5813462355299 ], [ -50.464594563886003, -21.581280953247092 ], [ -50.4646054145581, -21.581211544972195 ], [ -50.464614781935602, -21.581148950125598 ], [ -50.4646237604913, -21.581085825113107 ], [ -50.464629618181498, -21.581023628119294 ], [ -50.464633238203199, -21.580954981961899 ], [ -50.4646393655512, -21.58088647836459 ], [ -50.464651475951598, -21.580815572524685 ], [ -50.46466379697199, -21.580750420220795 ], [ -50.464677536997797, -21.580681492790394 ], [ -50.464691140416789, -21.5806147792626 ], [ -50.464705385618103, -21.580550958466294 ], [ -50.464716337233703, -21.5804831700036 ], [ -50.464718321332299, -21.580420897575401 ], [ -50.464709136457699, -21.580367320927191 ], [ -50.464681072519909, -21.580323538716801 ], [ -50.464631750854991, -21.580301431375503 ], [ -50.464564904058193, -21.580287299702903 ], [ -50.464498237635297, -21.580283414257192 ], [ -50.464430767852591, -21.580296239800397 ], [ -50.464363850903297, -21.580320017414095 ], [ -50.4642968127663, -21.580351503779799 ], [ -50.464232847483103, -21.580390528690792 ], [ -50.464177745242402, -21.580427084830198 ], [ -50.464116658376213, -21.580470512884887 ], [ -50.464063767855897, -21.580514296540496 ], [ -50.464015654720292, -21.580559237192293 ], [ -50.463964179504792, -21.580607856025395 ], [ -50.463913418280505, -21.580654317500397 ], [ -50.463870483650098, -21.580700938711495 ], [ -50.463833609476303, -21.580751215343799 ], [ -50.463812237803701, -21.580811063197803 ], [ -50.463795189715, -21.580869313453398 ], [ -50.463787252053997, -21.580924627859901 ], [ -50.463801965947304, -21.580970435638005 ], [ -50.463846411276997, -21.580993207543202 ], [ -50.463911730858698, -21.581006552642499 ], [ -50.463981926711988, -21.581022718947001 ], [ -50.464055230389903, -21.581046183953195 ], [ -50.464126807562202, -21.581076345141902 ], [ -50.464189727243003, -21.58110874598249 ], [ -50.464249221554098, -21.581146575713902 ], [ -50.464306342474302, -21.5811886953487 ], [ -50.464358075170402, -21.581239865505005 ], [ -50.464403462149903, -21.581308429767603 ], [ -50.464415519834702, -21.581384229728503 ], [ -50.4644020500808, -21.581455972281102 ], [ -50.464375808281801, -21.581525748951297 ], [ -50.464348867807487, -21.581594557377198 ], [ -50.464319353717208, -21.581659855526691 ], [ -50.464282717752901, -21.581722180191488 ], [ -50.464235406207898, -21.5817824149382 ], [ -50.464166890947808, -21.581831367552891 ], [ -50.46408739483509, -21.581859945860412 ], [ -50.4640130965578, -21.581870283784998 ], [ -50.463939742471688, -21.581875556549793 ], [ -50.463871136212809, -21.581886159888299 ], [ -50.463801409926603, -21.581894094256686 ], [ -50.463733664116099, -21.581901278882793 ], [ -50.463669279093807, -21.581911521299105 ], [ -50.463625338964498, -21.581938216906099 ], [ -50.463599467727597, -21.581983928712308 ], [ -50.463583646195801, -21.582043490026305 ], [ -50.463571150332498, -21.582105681216294 ], [ -50.463540942265702, -21.582243920088803 ], [ -50.463526176374799, -21.582312981075397 ], [ -50.463491746451787, -21.582512896097292 ], [ -50.463481292346508, -21.582575491605301 ], [ -50.463429989359, -21.582863678605907 ], [ -50.463417481776787, -21.582926278079604 ], [ -50.46340333032969, -21.583003374570708 ], [ -50.463388108796899, -21.583073384988005 ], [ -50.463375199098607, -21.583136932259499 ], [ -50.463362956348703, -21.583201185753698 ], [ -50.463327773102598, -21.583412171692505 ], [ -50.463316973408403, -21.583478254309803 ], [ -50.463293849531397, -21.583609800545698 ], [ -50.46328044962209, -21.583682366055598 ], [ -50.46326743556159, -21.583748352274505 ], [ -50.4632518569803, -21.5838178726762 ], [ -50.463238170098897, -21.583889287736088 ], [ -50.463225944358101, -21.583960483584701 ], [ -50.463213704020397, -21.584029486579904 ], [ -50.4632011616483, -21.584093942258885 ], [ -50.463185745756803, -21.584165203025403 ], [ -50.463170203511801, -21.584231052363599 ], [ -50.463159184656092, -21.584297675812792 ], [ -50.463150321196508, -21.584362803208794 ], [ -50.463138641039187, -21.5844340431067 ], [ -50.463126075358304, -21.584498444331203 ], [ -50.463112699522704, -21.5845606687535 ], [ -50.463098164394701, -21.584630540210998 ], [ -50.463081622498997, -21.584696012428999 ], [ -50.463056859473888, -21.584827271484802 ], [ -50.463047229010499, -21.584898126475402 ], [ -50.463024491587802, -21.585036938928791 ], [ -50.463012260488803, -21.585103744504604 ], [ -50.462997976255899, -21.585171328621996 ], [ -50.462970771674399, -21.585305233059305 ], [ -50.462956891177797, -21.5853710158013 ], [ -50.462942470122897, -21.585435672074301 ], [ -50.462927063959199, -21.585497326059691 ], [ -50.462913983385597, -21.5855682347303 ], [ -50.462902062473198, -21.585639899374502 ], [ -50.462890090369299, -21.585710016059004 ], [ -50.46286462985649, -21.5858513672406 ], [ -50.462853694398291, -21.585913773125693 ], [ -50.462841642274398, -21.585988902762395 ], [ -50.462830651098898, -21.5860532666394 ], [ -50.462819810092491, -21.586118785016499 ], [ -50.462782078306986, -21.586336536940003 ], [ -50.462766756449597, -21.586412300258804 ], [ -50.462716303712597, -21.586681974100703 ] ] ] ] } },
{ "type": "Feature", "properties": { "CHAVE": null, "FAZENDA": "Faz. ABC", "NOME_FAZ": null, "ZONA": null, "TALHAO": null, "AREA_TOTAL": null, "TIPO_GEO": "VOO_PROCESSADO", "DATA_INICI": "02-04-2026", "DATA_FINAL": "02-04-2026", "HORA_INICI": "11:39:25", "HORA_FINAL": "11:39:25", "CLASSE": "APLICADO FORA DO TALHÃO", "PILOTO": "valmir alves", "AERONAVE": "PS-CBA", "AREA_HA": 8.3960508198000001e-05 }, "geometry": { "type": "MultiPolygon", "coordinates": [ [ [ [ -50.48542266922226, -21.603043491594089 ], [ -50.485425507927445, -21.603041196437545 ], [ -50.485600507960299, -21.602896196332178 ], [ -50.485395492191735, -21.602679803606286 ], [ -50.485221896680343, -21.602823639811561 ], [ -50.48504333097285, -21.602964508242597 ], [ -50.48524266917795, -21.603185491699261 ], [ -50.48542266922226, -21.603043491594089 ] ] ], [ [ [ -50.486268221974733, -21.602268396408277 ], [ -50.486270498301415, -21.602266009188824 ], [ -50.486422498274983, -21.602103009083645 ], [ -50.486189501877568, -21.601912990836734 ], [ -50.486038625893428, -21.602074785346979 ], [ -50.485883778162133, -21.602233603409577 ], [ -50.486112221991057, -21.602428396513911 ], [ -50.486268221974733, -21.602268396408277 ] ] ], [ [ [ -50.486836566027179, -21.601553879539949 ], [ -50.486842497662948, -21.601544044704177 ], [ -50.486948497532666, -21.601351044615459 ], [ -50.486673502594023, -21.601218955272877 ], [ -50.486570262767529, -21.601406929364082 ], [ -50.486451434012217, -21.601587120261236 ], [ -50.486714566126452, -21.601738879636756 ], [ -50.486836566027179, -21.601553879539949 ] ] ], [ [ [ -50.48518365884933, -21.593524680081625 ], [ -50.485303658737486, -21.593710680173235 ], [ -50.485568341128278, -21.593561319718173 ], [ -50.485448341016422, -21.593375319809784 ], [ -50.48518365884933, -21.593524680081625 ] ] ], [ [ [ -50.484540433663412, -21.592644839215271 ], [ -50.484679433594799, -21.59281783931538 ], [ -50.484926566258707, -21.592644160589053 ], [ -50.484787566190107, -21.592471160689179 ], [ -50.484540433663412, -21.592644839215271 ] ] ], [ [ [ -50.483957470972655, -21.591991030176857 ], [ -50.48411047094099, -21.592152030280648 ], [ -50.484341528907002, -21.591959969635031 ], [ -50.484188528875336, -21.591798969738829 ], [ -50.483957470972655, -21.591991030176857 ] ] ], [ [ [ -50.462929585246002, -21.574203446106161 ], [ -50.463144585443125, -21.574154446063798 ], [ -50.463071414624366, -21.573873553927264 ], [ -50.462856414821495, -21.573922553884902 ], [ -50.462929585246002, -21.574203446106161 ] ] ], [ [ [ -50.463968049987265, -21.574096877074005 ], [ -50.464188050201464, -21.574116877097847 ], [ -50.464217949765683, -21.573829122897717 ], [ -50.463997949979891, -21.57380912292157 ], [ -50.463968049987265, -21.574096877074005 ] ] ] ] } },
{ "type": "Feature", "properties": { "CHAVE": null, "FAZENDA": "Faz. ABC", "NOME_FAZ": null, "ZONA": null, "TALHAO": null, "AREA_TOTAL": null, "TIPO_GEO": "VOO_PROCESSADO", "DATA_INICI": "02-04-2026", "DATA_FINAL": "02-04-2026", "HORA_INICI": "11:39:25", "HORA_FINAL": "11:39:25", "CLASSE": "SOBREPOSIÇÃO", "PILOTO": "valmir alves", "AERONAVE": "PS-CBA", "AREA_HA": 7.544571973e-06 }, "geometry": { "type": "MultiPolygon", "coordinates": [ [ [ [ -50.462729394579831, -21.591987752265034 ], [ -50.462734364761815, -21.591888346520022 ], [ -50.462740288239928, -21.591787645579874 ], [ -50.462747239297826, -21.59168735021337 ], [ -50.462747400799238, -21.591684620161111 ], [ -50.462752335984248, -21.591583940212502 ], [ -50.462759245377114, -21.591483258935146 ], [ -50.462759319982489, -21.591482098874575 ], [ -50.462765282326494, -21.591382724721935 ], [ -50.462772235640635, -21.591282396800576 ], [ -50.462779232276262, -21.591182443353024 ], [ -50.462779319662893, -21.591181098891859 ], [ -50.462785279212106, -21.591081771319974 ], [ -50.462788141037827, -21.591040887477494 ], [ -50.462787004073107, -21.591048467189324 ], [ -50.462771074513022, -21.591150017457078 ], [ -50.462770567469192, -21.591153553076001 ], [ -50.462757713720286, -21.591252427269449 ], [ -50.462742878838306, -21.591353303747205 ], [ -50.462742567253805, -21.591355553100755 ], [ -50.462729725969062, -21.591454331416749 ], [ -50.462714921384574, -21.59155401491498 ], [ -50.462699935907736, -21.591653917396091 ], [ -50.462699694984643, -21.591655594859144 ], [ -50.46268571972216, -21.591757413850178 ], [ -50.462671990135625, -21.591855481591679 ], [ -50.462655280897465, -21.591955736390936 ], [ -50.462654935578414, -21.591957917468498 ], [ -50.462640131901757, -21.592056607957907 ], [ -50.462623353807075, -21.592155302025358 ], [ -50.462622935364728, -21.592157917496611 ], [ -50.462618356524651, -21.592188442884211 ], [ -50.462715246131431, -21.592194258903778 ], [ -50.462722246024121, -21.592092258895157 ], [ -50.462729245915774, -21.59199025890188 ], [ -50.462729394579831, -21.591987752265034 ] ] ], [ [ [ -50.463779405533849, -21.583125588978245 ], [ -50.463806416259885, -21.58291850528137 ], [ -50.463775738016054, -21.582915004782016 ], [ -50.463774376458588, -21.582927145222214 ], [ -50.463761529768789, -21.583030906066519 ], [ -50.463747590528044, -21.583137440836918 ], [ -50.463747305224409, -21.583139779061653 ], [ -50.463735367436321, -21.583245228543223 ], [ -50.463725253199591, -21.583328475771001 ], [ -50.463752405746362, -21.583331589007102 ], [ -50.463779405533849, -21.583125588978245 ] ] ] ] } },
{ "type": "Feature", "properties": { "CHAVE": null, "FAZENDA": "Faz. ABC", "NOME_FAZ": null, "ZONA": null, "TALHAO": null, "AREA_TOTAL": null, "TIPO_GEO": "VOO_PROCESSADO", "DATA_INICI": "02-04-2026", "DATA_FINAL": "02-04-2026", "HORA_INICI": "11:39:25", "HORA_FINAL": "11:39:25", "CLASSE": "APLICADO", "PILOTO": "valmir alves", "AERONAVE": "PS-CBA", "AREA_HA": 0.00044866120676500003 }, "geometry": { "type": "Polygon", "coordinates": [ [ [ -50.462792232063777, -21.590982443366407 ], [ -50.462799177306422, -21.590883224115966 ], [ -50.462807113519219, -21.590786004250326 ], [ -50.462807314322902, -21.590783180461901 ], [ -50.462813270120122, -21.590684908092332 ], [ -50.462820173116576, -21.590588264711112 ], [ -50.462828122180952, -21.590489893752768 ], [ -50.462828217969786, -21.590488635291031 ], [ -50.462835217866783, -21.590390635282525 ], [ -50.46252678215702, -21.590371364575017 ], [ -50.462519827013708, -21.590468735140227 ], [ -50.462511877741626, -21.590567106095573 ], [ -50.462511781947754, -21.590568364588485 ], [ -50.462504781844743, -21.590666364579977 ], [ -50.462504685802145, -21.590667819403016 ], [ -50.462498771324427, -21.590765406582172 ], [ -50.462490886404673, -21.590861995598047 ], [ -50.462490768065834, -21.590863556484408 ], [ -50.46248376796067, -21.590963556475835 ], [ -50.462476767854447, -21.591063556482528 ], [ -50.462476680463034, -21.59106490097307 ], [ -50.462470720703649, -21.59116422854456 ], [ -50.462463767641964, -21.591263556495907 ], [ -50.462456761049417, -21.591364649608717 ], [ -50.462456680143454, -21.591365900990379 ], [ -50.462450714848941, -21.591465320812286 ], [ -50.46244375453859, -21.591566740913734 ], [ -50.462443599325901, -21.591569379702754 ], [ -50.462438666167742, -21.59167001395576 ], [ -50.462431760619125, -21.591769649635534 ], [ -50.462431670307261, -21.591771059332086 ], [ -50.462425670199742, -21.591873059324389 ], [ -50.462425605543473, -21.59187424759881 ], [ -50.462420668135358, -21.591972993670112 ], [ -50.462413753999918, -21.592073740946979 ], [ -50.462406753891564, -21.592175740953703 ], [ -50.462618356517773, -21.592188442945805 ], [ -50.462608131687809, -21.592256607987768 ], [ -50.462591464119285, -21.592354651905858 ], [ -50.462573580871826, -21.592454002704898 ], [ -50.462573138153324, -21.592456607137436 ], [ -50.462557242525641, -21.592555954161483 ], [ -50.462540616630179, -21.592653752946578 ], [ -50.462521915773323, -21.592750209479338 ], [ -50.462521137834607, -21.592754607181934 ], [ -50.462505137732663, -21.592854607165371 ], [ -50.4628108623155, -21.592897392695122 ], [ -50.462826509502293, -21.592799597139997 ], [ -50.46284508418556, -21.59270379036365 ], [ -50.462845646779286, -21.592700697756626 ], [ -50.462862646677834, -21.592600697739172 ], [ -50.462862861996797, -21.592599392739615 ], [ -50.462878653239549, -21.592500696828228 ], [ -50.4628964190807, -21.592401997138214 ], [ -50.462896646457985, -21.592400697804003 ], [ -50.462913646356533, -21.592300697786566 ], [ -50.462914064783163, -21.592298082379177 ], [ -50.462928868253378, -21.592199391889523 ], [ -50.462945646142302, -21.592100697818157 ], [ -50.462946064569479, -21.592098082407272 ], [ -50.462960900702775, -21.591999174162176 ], [ -50.462977719048837, -21.591898263452375 ], [ -50.462978255092438, -21.591894766959086 ], [ -50.462992254989594, -21.591794766944275 ], [ -50.462992305162423, -21.591794405015289 ], [ -50.463006189847803, -21.591693244391802 ], [ -50.46302106403536, -21.591594082448321 ], [ -50.463021093144114, -21.591593887423024 ], [ -50.463036093040621, -21.591492887407313 ], [ -50.463036432889517, -21.591490446772475 ], [ -50.46304928643093, -21.591391572578797 ], [ -50.463064121101816, -21.591290696097023 ], [ -50.463064432674123, -21.591288446797233 ], [ -50.463077202377249, -21.591190217519099 ], [ -50.463092925430189, -21.591089982386691 ], [ -50.463093063491193, -21.591089082548955 ], [ -50.463108063388795, -21.590989082533262 ], [ -50.463108432352143, -21.590986446834229 ], [ -50.463121273428847, -21.590887668523756 ], [ -50.4631360922873, -21.590787887505407 ], [ -50.463136432137823, -21.59078544685887 ], [ -50.463149432034577, -21.590685446844947 ], [ -50.463162346060997, -21.590586107377888 ], [ -50.463176253593332, -21.590486767116332 ], [ -50.463176431817899, -21.590485446895649 ], [ -50.463189345847638, -21.590386107403113 ], [ -50.463203253379824, -21.590286767142643 ], [ -50.463203749996666, -21.590282793402782 ], [ -50.463214530982768, -21.590184783501307 ], [ -50.463228253166285, -21.590086767168948 ], [ -50.463228749783802, -21.590082793423633 ], [ -50.463239676557649, -21.589983458165221 ], [ -50.463251596763499, -21.589884122245287 ], [ -50.463263596656944, -21.589784122256628 ], [ -50.463263749464431, -21.589782793454937 ], [ -50.463274749360458, -21.589682793442801 ], [ -50.463274889279553, -21.589681460837639 ], [ -50.46328475597619, -21.589582792831926 ], [ -50.46329659633723, -21.58948412229066 ], [ -50.463296889066811, -21.589481460856643 ], [ -50.463306888962492, -21.589381460845409 ], [ -50.463316888856113, -21.589281460854927 ], [ -50.463326771194517, -21.589182636429733 ], [ -50.463338633017806, -21.589081810029189 ], [ -50.463339015565012, -21.589078124790575 ], [ -50.4633478353256, -21.58898012630296 ], [ -50.463359595695621, -21.588882122358942 ], [ -50.463359914341382, -21.588879199195613 ], [ -50.463369778538684, -21.588778583301892 ], [ -50.463381614306037, -21.588678964710205 ], [ -50.463381748287937, -21.588677793570156 ], [ -50.463392692253173, -21.588578302024921 ], [ -50.463404623275046, -21.588476887431717 ], [ -50.463416613983227, -21.588375964744245 ], [ -50.463416632262756, -21.588375810132181 ], [ -50.46342855566013, -21.588274460348675 ], [ -50.463441472768899, -21.588173109889969 ], [ -50.46344176361486, -21.588170648662505 ], [ -50.46345255862326, -21.588071529901057 ], [ -50.463466301085511, -21.58797140548057 ], [ -50.46346680830991, -21.587967230278778 ], [ -50.463477577519598, -21.58786541128379 ], [ -50.463491276144119, -21.58776658474298 ], [ -50.463491778587624, -21.587762506542735 ], [ -50.463502577427413, -21.587662370869822 ], [ -50.463516324665392, -21.58756122969373 ], [ -50.463516472111991, -21.587560109989894 ], [ -50.463529472006599, -21.587458109975927 ], [ -50.463529613001413, -21.587456964871912 ], [ -50.463541564133095, -21.587356375290025 ], [ -50.46355449246623, -21.587252947755118 ], [ -50.463567471679305, -21.587151110012826 ], [ -50.463567648715923, -21.587149658580156 ], [ -50.463579573562285, -21.587047302725058 ], [ -50.463592411190923, -21.586945588358951 ], [ -50.463606323899242, -21.586843229785515 ], [ -50.463606777605555, -21.586839506637165 ], [ -50.463617585775879, -21.586739284444036 ], [ -50.463631347018392, -21.586637057272643 ], [ -50.463631648167535, -21.586634658636942 ], [ -50.463643591582191, -21.586532143402287 ], [ -50.463656531499304, -21.586427627799452 ], [ -50.463656647946031, -21.586426658659867 ], [ -50.463668647839185, -21.586323658646762 ], [ -50.463668806559959, -21.586322230443937 ], [ -50.463679594611214, -21.586220233308566 ], [ -50.463693323126634, -21.586119229878058 ], [ -50.463693820469814, -21.586115096230817 ], [ -50.46370460348502, -21.586012166415866 ], [ -50.463718322904683, -21.585911229904639 ], [ -50.463718820248573, -21.58590709625151 ], [ -50.463729621229547, -21.585803994943195 ], [ -50.463743368705387, -21.585700888061155 ], [ -50.463743490907198, -21.58569994638836 ], [ -50.463756490800726, -21.585596946374384 ], [ -50.463756549688206, -21.58559647310188 ], [ -50.463769549578494, -21.585490473087805 ], [ -50.46376966420344, -21.585489509939237 ], [ -50.463781590457963, -21.585386148124662 ], [ -50.463794441720154, -21.585283337162689 ], [ -50.463808368148584, -21.585178888126642 ], [ -50.463808530164002, -21.585177627971856 ], [ -50.463821530055355, -21.585072627957828 ], [ -50.46383445188998, -21.584968258408125 ], [ -50.463848367812609, -21.584863888166165 ], [ -50.463848529828368, -21.584862628008683 ], [ -50.463861529719736, -21.584757627994652 ], [ -50.463874529607857, -21.584652628006943 ], [ -50.463887451442226, -21.584548258459261 ], [ -50.463901367364649, -21.584443888218889 ], [ -50.46390152938087, -21.584442628057793 ], [ -50.463914529272238, -21.584337628043759 ], [ -50.463927471515483, -21.584233093653623 ], [ -50.463941410533252, -21.584126558876754 ], [ -50.463941509419627, -21.584125785835134 ], [ -50.463954509312089, -21.584021785821125 ], [ -50.463954711566203, -21.584020080035501 ], [ -50.46396662459518, -21.583913854530955 ], [ -50.46397952870965, -21.583809628105467 ], [ -50.463979566336789, -21.583809321323972 ], [ -50.463992566226004, -21.58370232130989 ], [ -50.463992679070287, -21.583701364095017 ], [ -50.464004624240808, -21.583596842890955 ], [ -50.464017566000152, -21.583490321334224 ], [ -50.464017695147824, -21.58348922078746 ], [ -50.464029632714187, -21.583383771304714 ], [ -50.464042565773234, -21.583277321358679 ], [ -50.464042694921091, -21.583276220810305 ], [ -50.46405456233704, -21.583171390995872 ], [ -50.464068409401847, -21.583065559007494 ], [ -50.464068527912573, -21.583064628218857 ], [ -50.464081527803955, -21.582959628204833 ], [ -50.464081710435934, -21.582958080148316 ], [ -50.464093632155901, -21.582851777148225 ], [ -50.464106546655081, -21.582746473405635 ], [ -50.464106565204396, -21.582746321445981 ], [ -50.464119565093618, -21.582639321431898 ], [ -50.464119677938719, -21.582638364210037 ], [ -50.464131623108869, -21.582533843009333 ], [ -50.464144479722066, -21.58242802227759 ], [ -50.464158387159181, -21.582322722273354 ], [ -50.463851612881427, -21.582287277586069 ], [ -50.463837612772132, -21.582393277571139 ], [ -50.463837435169943, -21.582394678402835 ], [ -50.463824435059159, -21.582501678388741 ], [ -50.46382432220598, -21.582502635661942 ], [ -50.463812376816023, -21.58260715686226 ], [ -50.463799444065152, -21.58271360242879 ], [ -50.463786453273265, -21.582819526439405 ], [ -50.463786289710356, -21.58282091972363 ], [ -50.463775738014135, -21.582915004807937 ], [ -50.463499583780283, -21.582883494578017 ], [ -50.463472589023546, -21.583090452713616 ], [ -50.463445594293987, -21.583296410852295 ], [ -50.463725253198561, -21.583328475794296 ], [ -50.463722434153702, -21.583351678486295 ], [ -50.463722304997674, -21.583352779084485 ], [ -50.463710367209522, -21.58345822856678 ], [ -50.463697433926789, -21.583564678510733 ], [ -50.463697321074434, -21.583565635776932 ], [ -50.463685375684072, -21.583670156980624 ], [ -50.463672452339623, -21.583776525125831 ], [ -50.463659471220083, -21.583881371739622 ], [ -50.463659288580082, -21.583882919836437 ], [ -50.463647384184391, -21.583989066369178 ], [ -50.463634538950146, -21.584091827378874 ], [ -50.463620589396633, -21.584198440967654 ], [ -50.463620470877999, -21.584199371803081 ], [ -50.463607470769368, -21.584304371789049 ], [ -50.463594548709352, -21.584408741388344 ], [ -50.463580632568089, -21.58451311162565 ], [ -50.463580470542382, -21.584514371839909 ], [ -50.463567470433759, -21.58461937182587 ], [ -50.463554470321874, -21.584724371838135 ], [ -50.463541548261617, -21.58482874143937 ], [ -50.463527632120126, -21.584933111678364 ], [ -50.463527470094881, -21.584934371889002 ], [ -50.463514469986251, -21.585039371874963 ], [ -50.463501547925844, -21.585143741477388 ], [ -50.463487631784147, -21.585248111717906 ], [ -50.463487489382885, -21.585249214186799 ], [ -50.463474489275335, -21.585353214172784 ], [ -50.463474335940532, -21.585354489932737 ], [ -50.463462391420137, -21.585458008165784 ], [ -50.463449479377068, -21.585563290075768 ], [ -50.46343656858199, -21.585665582446964 ], [ -50.463422631227353, -21.58577011178339 ], [ -50.463422179893882, -21.585773903619241 ], [ -50.463411396662138, -21.585876833434156 ], [ -50.463397677030926, -21.585977769940051 ], [ -50.46339717967264, -21.585981903639908 ], [ -50.463386396440576, -21.586084833457793 ], [ -50.463372676808966, -21.586185769966622 ], [ -50.463372193581705, -21.586189769426813 ], [ -50.463361269043183, -21.586293054944651 ], [ -50.463349408567005, -21.586394856445708 ], [ -50.463336468430427, -21.586499372045612 ], [ -50.46333635197567, -21.58650034123503 ], [ -50.46332449173358, -21.586602140727884 ], [ -50.46331065291578, -21.58670494257197 ], [ -50.463310222534524, -21.586708493233587 ], [ -50.463299423485061, -21.58680862889743 ], [ -50.463285676036357, -21.586909770059172 ], [ -50.463285507801402, -21.586911053645309 ], [ -50.463272507694931, -21.587014053631322 ], [ -50.463272351427278, -21.587015341291782 ], [ -50.463260435919452, -21.587117615144198 ], [ -50.463247528254662, -21.58721888983245 ], [ -50.463247487283255, -21.587219214419207 ], [ -50.463234487175697, -21.587323214405195 ], [ -50.463234387140268, -21.587324035000083 ], [ -50.463222455093423, -21.587424462172336 ], [ -50.463209599315952, -21.587525329748576 ], [ -50.4631956752702, -21.587627770150949 ], [ -50.463195221552475, -21.587631493328029 ], [ -50.463184441711405, -21.587731450879563 ], [ -50.463170723794384, -21.587830415101834 ], [ -50.46317019183175, -21.587834769591961 ], [ -50.463159412894427, -21.587936678531399 ], [ -50.463145698851534, -21.588036594364187 ], [ -50.463145236524461, -21.588040351208267 ], [ -50.463134370574899, -21.588140119417627 ], [ -50.463121527165072, -21.58824088995528 ], [ -50.463121367879687, -21.588242189739784 ], [ -50.463109376869333, -21.588344112416408 ], [ -50.463097385949077, -21.588445035101625 ], [ -50.463097367663458, -21.588445189762378 ], [ -50.463085367557674, -21.588547189749303 ], [ -50.4630852518506, -21.588548206300622 ], [ -50.463074316188049, -21.58864762046348 ], [ -50.463062385626266, -21.588748035135673 ], [ -50.463062085796324, -21.588750800673953 ], [ -50.463052229132288, -21.588851337566798 ], [ -50.463040404238079, -21.588949877487003 ], [ -50.463039984568596, -21.588953875077802 ], [ -50.463031150507973, -21.589052030157305 ], [ -50.463019366913088, -21.589152189816605 ], [ -50.463019111282065, -21.589154538993913 ], [ -50.463009111177755, -21.589254538982665 ], [ -50.462999111071362, -21.589354538992158 ], [ -50.462989244164838, -21.589453207018146 ], [ -50.462977403596469, -21.589551877555273 ], [ -50.462977110856556, -21.589554539031937 ], [ -50.462967177413553, -21.589653872415109 ], [ -50.462956323691287, -21.589752541672752 ], [ -50.462944403276758, -21.589851877589293 ], [ -50.462932403170207, -21.58995187760063 ], [ -50.462932250354754, -21.589953206447127 ], [ -50.462921469162524, -21.590051216348769 ], [ -50.462907746773688, -21.590149232675923 ], [ -50.462907250141889, -21.590153206467978 ], [ -50.462896468949346, -21.590251216372401 ], [ -50.462882746560147, -21.590349232702241 ], [ -50.462882568325412, -21.590350552977579 ], [ -50.462869654087115, -21.590449892469898 ], [ -50.462855746346619, -21.590549232728556 ], [ -50.462855568112133, -21.590550553002107 ], [ -50.462842568008895, -21.590650552988187 ], [ -50.462829726721537, -21.590749331324439 ], [ -50.462814907654305, -21.590849112338915 ], [ -50.46281456779117, -21.590851553038991 ], [ -50.462801739216061, -21.590950233589542 ], [ -50.462788141039695, -21.591040887470221 ], [ -50.462792232063777, -21.590982443366407 ] ] ] } }
]
}
