{
"type": "FeatureCollection",
"name": "303350_FAZENDA_SAO_ROQUE_28-04-2026_30-06-2026_14h47m",
"crs": { "type": "name", "properties": { "name": "urn:ogc:def:crs:OGC:1.3:CRS84" } },
"features": [
{ "type": "Feature", "properties": { "CHAVE": "3033504", "FAZENDA": "303350", "NOME_FAZ": "FAZENDA SAO ROQUE", "ZONA": 1.0, "TALHAO": 4.0, "AREA_TOTAL": 12.682251783144009, "TIPO_GEO": "TALHAO", "DATA_INICI": null, "DATA_FINAL": null, "HORA_INICI": null, "HORA_FINAL": null, "CLASSE": null, "PILOTO": null, "AERONAVE": null, "AREA_HA": null }, "geometry": { "type": "Polygon", "coordinates": [ [ [ -50.300091021549598, -21.430684777339305 ], [ -50.30006949788411, -21.430727069444099 ], [ -50.300042995291797, -21.430787259019201 ], [ -50.300011513756303, -21.430865346061498 ], [ -50.299983379299, -21.430937883419283 ], [ -50.299958591928309, -21.431004871094498 ], [ -50.299932528881001, -21.431082817130005 ], [ -50.299905190148799, -21.43117172152489 ], [ -50.299873245765397, -21.431273534003797 ], [ -50.299836695712202, -21.431388254563391 ], [ -50.299803456832201, -21.431504952603504 ], [ -50.299773529131699, -21.431623628126196 ], [ -50.299741547085098, -21.431733295001401 ], [ -50.299707510694198, -21.431833953227997 ], [ -50.299676446105401, -21.431934460235894 ], [ -50.299648353324997, -21.432034816026995 ], [ -50.2996218927561, -21.432122742206595 ], [ -50.299597064409099, -21.432198238776106 ], [ -50.299583379998701, -21.4322457999811 ], [ -50.299580839544298, -21.4322654258253 ], [ -50.299579768834697, -21.432280854751792 ], [ -50.299580167870502, -21.432292086760597 ], [ -50.299609744899598, -21.432338560714101 ], [ -50.299668499970402, -21.432420276597796 ], [ -50.299729309418503, -21.432503484381584 ], [ -50.299792173249102, -21.432588184063686 ], [ -50.299834574316698, -21.432639252532997 ], [ -50.299856512571203, -21.432656689804396 ], [ -50.299879011038399, -21.432666602101811 ], [ -50.299902069715003, -21.432668989424901 ], [ -50.2999223422215, -21.432669237813098 ], [ -50.2999398285571, -21.432667347267202 ], [ -50.299997216225009, -21.432654332544502 ], [ -50.300094505202999, -21.432630193603192 ], [ -50.3001905676429, -21.432606704027986 ], [ -50.300285403546503, -21.432583863821087 ], [ -50.300396871387697, -21.432555038464596 ], [ -50.300524971144, -21.432520227924591 ], [ -50.300648513582608, -21.432488180086605 ], [ -50.300767498713398, -21.432458894961108 ], [ -50.300903633025698, -21.432425099498289 ], [ -50.3010569164963, -21.432386793655596 ], [ -50.301224726779601, -21.432344130080391 ], [ -50.301407063849204, -21.432297108728093 ], [ -50.301608128366396, -21.432244437970688 ], [ -50.301827920289803, -21.432186117739207 ], [ -50.302038256619298, -21.4321315214642 ], [ -50.302239137380603, -21.432080649182101 ], [ -50.302438439645499, -21.432030915541691 ], [ -50.302636163420203, -21.431982320548897 ], [ -50.3028611960953, -21.431924348038898 ], [ -50.303113537598499, -21.431856997899384 ], [ -50.303408044746902, -21.431780004528594 ], [ -50.303744717422603, -21.431693367700408 ], [ -50.304051298491999, -21.431613150631403 ], [ -50.304327788039899, -21.431539353489196 ], [ -50.3045771579825, -21.431471825128792 ], [ -50.304799408385897, -21.431410565673193 ], [ -50.304922435588701, -21.431376221572204 ], [ -50.304946239722199, -21.431368793048108 ], [ -50.304964960852502, -21.431364452535792 ], [ -50.304978598981201, -21.431363200037001 ], [ -50.304989086631402, -21.431362916286897 ], [ -50.304996423803502, -21.431363601285891 ], [ -50.305004282182203, -21.431364942997487 ], [ -50.305012661767599, -21.431366941421096 ], [ -50.305019985771601, -21.431370408200397 ], [ -50.305026254194303, -21.431375343335493 ], [ -50.305031287619698, -21.431382727906495 ], [ -50.305035086047901, -21.431392561913501 ], [ -50.305042480252098, -21.431418120032607 ], [ -50.305053470236302, -21.431459402263606 ], [ -50.305068728745397, -21.431521975068804 ], [ -50.3050882557907, -21.431605838446782 ], [ -50.305111123600902, -21.431685461112007 ], [ -50.305137332179399, -21.431760843063305 ], [ -50.305155097151697, -21.431810826180097 ], [ -50.305164418500802, -21.431835410465194 ], [ -50.305171682123202, -21.431851640704888 ], [ -50.305176888017201, -21.43185951689939 ], [ -50.305182104754202, -21.431865102215209 ], [ -50.305187332333801, -21.431868396652206 ], [ -50.305193439179597, -21.43187054927531 ], [ -50.305200425291403, -21.4318715600843 ], [ -50.305210911429199, -21.431871603589695 ], [ -50.305224897592701, -21.431870679790695 ], [ -50.3052903041159, -21.431852734500705 ], [ -50.305407130958699, -21.431817767658284 ], [ -50.3054671218338, -21.431799239075289 ], [ -50.3054702767812, -21.431797148814006 ], [ -50.305474272407899, -21.431793417426093 ], [ -50.305479108713698, -21.431788044911492 ], [ -50.305477609768303, -21.43176316580919 ], [ -50.305469775574998, -21.4317187801187 ], [ -50.305449193893601, -21.43163564504389 ], [ -50.305415864760199, -21.431513760579993 ], [ -50.305378222212902, -21.431380076324405 ], [ -50.305336266271709, -21.431234592274311 ], [ -50.305293991071203, -21.431082725029402 ], [ -50.305251396617209, -21.430924474589496 ], [ -50.305218278955699, -21.430794900002102 ], [ -50.305194638044298, -21.430694001272798 ], [ -50.305171333533103, -21.430595885771698 ], [ -50.305148365420301, -21.430500553498799 ], [ -50.305121239322297, -21.430397513011492 ], [ -50.305089955251603, -21.430286764307805 ], [ -50.305046640469001, -21.430133092670399 ], [ -50.304991295046499, -21.429936498089795 ], [ -50.304950244677798, -21.429784472197095 ], [ -50.304923489285002, -21.429677015003087 ], [ -50.304890289270602, -21.429564949208604 ], [ -50.304850644652198, -21.429448274810298 ], [ -50.304823925471304, -21.429370108850797 ], [ -50.304810131688001, -21.429330451336103 ], [ -50.304796966593607, -21.429305480038693 ], [ -50.304784430184, -21.429295194958698 ], [ -50.304678320185197, -21.4293189318978 ], [ -50.304478636482997, -21.429376690674697 ], [ -50.304269237538698, -21.429437515111783 ], [ -50.304050123328103, -21.429501405172005 ], [ -50.303792681606602, -21.429576426601592 ], [ -50.3034969122617, -21.429662579220295 ], [ -50.303236672183999, -21.429737915417803 ], [ -50.303011961480998, -21.429802435363097 ], [ -50.3028175240417, -21.429858899156994 ], [ -50.302653359930204, -21.429907306907005 ], [ -50.302459093882703, -21.429964425540796 ], [ -50.302234725832399, -21.430030254951493 ], [ -50.302038885794609, -21.430087530169001 ], [ -50.3018715738339, -21.430136251295497 ], [ -50.301692181842597, -21.430189340092195 ], [ -50.3015007097924, -21.430246796519413 ], [ -50.301307670146798, -21.4303031007226 ], [ -50.301113062908797, -21.430358252696703 ], [ -50.300902529132102, -21.430418083441293 ], [ -50.300676068778699, -21.430482592895398 ], [ -50.300453651529502, -21.430546226454492 ], [ -50.300235277393199, -21.430608984134999 ], [ -50.300120013538702, -21.4306461799715 ], [ -50.3001078600984, -21.430657814181203 ], [ -50.300091021549598, -21.430684777339305 ] ] ] } },
{ "type": "Feature", "properties": { "CHAVE": "3033509", "FAZENDA": "303350", "NOME_FAZ": "FAZENDA SAO ROQUE", "ZONA": 1.0, "TALHAO": 9.0, "AREA_TOTAL": 20.662163442368804, "TIPO_GEO": "TALHAO", "DATA_INICI": null, "DATA_FINAL": null, "HORA_INICI": null, "HORA_FINAL": null, "CLASSE": null, "PILOTO": null, "AERONAVE": null, "AREA_HA": null }, "geometry": { "type": "Polygon", "coordinates": [ [ [ -50.304852458251503, -21.429273377557898 ], [ -50.304850236053099, -21.42928404355299 ], [ -50.304850834651198, -21.429297401881303 ], [ -50.304854254046496, -21.429313452542701 ], [ -50.304860588683802, -21.42934129719939 ], [ -50.304869838566198, -21.429380935851007 ], [ -50.304890638192603, -21.429454331749895 ], [ -50.304922987593507, -21.429561484891899 ], [ -50.304959451645807, -21.429685509758897 ], [ -50.305000030371197, -21.429826406348102 ], [ -50.305037999288501, -21.429964837535898 ], [ -50.305073358388398, -21.430100803323995 ], [ -50.3051102904533, -21.430236775630409 ], [ -50.305148795487497, -21.430372754454293 ], [ -50.305185038681202, -21.430506596598395 ], [ -50.305219020026698, -21.430638302064196 ], [ -50.305253219560107, -21.430760844731999 ], [ -50.305287637276002, -21.430874224601993 ], [ -50.305320465871901, -21.430991034258607 ], [ -50.305351705345799, -21.431111273702697 ], [ -50.305387425356898, -21.431244949992312 ], [ -50.3054276259262, -21.431392063124591 ], [ -50.305465973014599, -21.431524604829988 ], [ -50.305502466607003, -21.431642575110196 ], [ -50.305528473009602, -21.431724324192302 ], [ -50.305543992187303, -21.431769852081796 ], [ -50.305558917427398, -21.431792086842201 ], [ -50.305573248722901, -21.4317910284738 ], [ -50.305655487735301, -21.431770192257101 ], [ -50.305805634405303, -21.431729578090401 ], [ -50.306008454467502, -21.431674781981702 ], [ -50.306263947809498, -21.431605803735994 ], [ -50.306539573321899, -21.431529708412196 ], [ -50.306835330935897, -21.431446495908588 ], [ -50.307124627975597, -21.431361947045389 ], [ -50.307407464443003, -21.431276061855701 ], [ -50.307687667494498, -21.431192619855587 ], [ -50.307965237148203, -21.431111621059003 ], [ -50.308319639164999, -21.431007702614604 ], [ -50.3087508732294, -21.430880864024793 ], [ -50.309080926009599, -21.430788625338792 ], [ -50.309309797913301, -21.430730987167397 ], [ -50.309538340119197, -21.4306690927435 ], [ -50.309766552607599, -21.430602942067996 ], [ -50.310003341582501, -21.430534044573101 ], [ -50.310248707019397, -21.430462400221799 ], [ -50.310513344284701, -21.43038068931769 ], [ -50.310797253293899, -21.430288911766798 ], [ -50.311052611178397, -21.430210598197085 ], [ -50.311279418050901, -21.430145748742696 ], [ -50.311417702807908, -21.430099680641593 ], [ -50.311467465579703, -21.430072394116991 ], [ -50.311506589030401, -21.430040481987195 ], [ -50.311535073162801, -21.430003944259791 ], [ -50.311567644439407, -21.429953023218985 ], [ -50.311604302846206, -21.4298877188617 ], [ -50.311649436861003, -21.429766648908004 ], [ -50.311703046407402, -21.429589813346794 ], [ -50.311752223764699, -21.429426377832499 ], [ -50.311796968962497, -21.429276342370692 ], [ -50.311827554858901, -21.429164212641687 ], [ -50.311843981512503, -21.42908998865639 ], [ -50.311855457954699, -21.429027853513688 ], [ -50.311861984194998, -21.428977807215201 ], [ -50.311861466205798, -21.428901877229197 ], [ -50.311853903997097, -21.428800063555293 ], [ -50.311844778110697, -21.428696279803791 ], [ -50.311834088550199, -21.428590525974595 ], [ -50.311819579477401, -21.428479356408097 ], [ -50.311801250902299, -21.4283627711036 ], [ -50.311787881628298, -21.428269442718097 ], [ -50.311779471641003, -21.428199371253182 ], [ -50.311755396706097, -21.428041034731596 ], [ -50.311715656909101, -21.427794433143998 ], [ -50.311687799414798, -21.427622826415096 ], [ -50.3116718241467, -21.42752621455319 ], [ -50.311661667374302, -21.427455972262489 ], [ -50.311657329084902, -21.427412099543997 ], [ -50.311651714523101, -21.427379512577989 ], [ -50.311644823688702, -21.427358211364385 ], [ -50.311635804240098, -21.427343610546306 ], [ -50.311624656176797, -21.427335710123 ], [ -50.311609473972403, -21.427330902234505 ], [ -50.3115902576263, -21.427329186879689 ], [ -50.311501385552603, -21.427348458108 ], [ -50.311342857688999, -21.427388715806888 ], [ -50.311103643061308, -21.427454332621892 ], [ -50.310783741447104, -21.427545308200703 ], [ -50.310433031789103, -21.4276466291325 ], [ -50.310051513954797, -21.4277582952198 ], [ -50.309698709230098, -21.427858951407597 ], [ -50.309374617748702, -21.42794859788139 ], [ -50.3090512049274, -21.428042501094502 ], [ -50.308728470739197, -21.428140661049895 ], [ -50.308397695416311, -21.428239114444096 ], [ -50.3080588789419, -21.428337861228801 ], [ -50.307554161058803, -21.428483376396692 ], [ -50.306883540833198, -21.428675658419095 ], [ -50.306382316030302, -21.428821184451596 ], [ -50.306050487589999, -21.428919956043892 ], [ -50.305781170476898, -21.428998896219298 ], [ -50.3055743648926, -21.429058005285302 ], [ -50.305412657744697, -21.429104625961592 ], [ -50.305296049113799, -21.429138758381097 ], [ -50.305141700974502, -21.429183879644206 ], [ -50.304949613260298, -21.42923998964439 ], [ -50.304852458251503, -21.429273377557898 ] ] ] } },
{ "type": "Feature", "properties": { "CHAVE": null, "FAZENDA": "Faz. ABC", "NOME_FAZ": null, "ZONA": null, "TALHAO": null, "AREA_TOTAL": null, "TIPO_GEO": "VOO_PROCESSADO", "DATA_INICI": "28-04-2026", "DATA_FINAL": "28-04-2026", "HORA_INICI": "13:45:16", "HORA_FINAL": "13:45:16", "CLASSE": "NÃO APLICADO DENTRO DO TALHÃO", "PILOTO": "valmir alves", "AERONAVE": "PS-CBA", "AREA_HA": 0.0022821282681190001 }, "geometry": { "type": "MultiPolygon", "coordinates": [ [ [ [ -50.299958591928309, -21.431004871094498 ], [ -50.299932528881001, -21.431082817130005 ], [ -50.299905190148799, -21.43117172152489 ], [ -50.299873245765397, -21.431273534003797 ], [ -50.299836695712202, -21.431388254563391 ], [ -50.299803456832201, -21.431504952603504 ], [ -50.299773529131699, -21.431623628126196 ], [ -50.299741547085098, -21.431733295001401 ], [ -50.299707510694198, -21.431833953227997 ], [ -50.299676446105401, -21.431934460235894 ], [ -50.299648353324997, -21.432034816026995 ], [ -50.2996218927561, -21.432122742206595 ], [ -50.299597064409099, -21.432198238776106 ], [ -50.299583379998701, -21.4322457999811 ], [ -50.299580839544298, -21.4322654258253 ], [ -50.299579768834697, -21.432280854751792 ], [ -50.299580167870502, -21.432292086760597 ], [ -50.299609744899598, -21.432338560714101 ], [ -50.299668499970402, -21.432420276597796 ], [ -50.299729309418503, -21.432503484381584 ], [ -50.299792173249102, -21.432588184063686 ], [ -50.299834574316698, -21.432639252532997 ], [ -50.299856512571203, -21.432656689804396 ], [ -50.299879011038399, -21.432666602101811 ], [ -50.299902069715003, -21.432668989424901 ], [ -50.2999223422215, -21.432669237813098 ], [ -50.2999398285571, -21.432667347267202 ], [ -50.299997216225009, -21.432654332544502 ], [ -50.300094505202999, -21.432630193603192 ], [ -50.3001905676429, -21.432606704027986 ], [ -50.300285403546503, -21.432583863821087 ], [ -50.300396871387697, -21.432555038464596 ], [ -50.300524971144, -21.432520227924591 ], [ -50.300648513582608, -21.432488180086605 ], [ -50.300767498713398, -21.432458894961108 ], [ -50.300903633025698, -21.432425099498289 ], [ -50.3010569164963, -21.432386793655596 ], [ -50.301224726779601, -21.432344130080391 ], [ -50.301407063849204, -21.432297108728093 ], [ -50.301608128366396, -21.432244437970688 ], [ -50.301827920289803, -21.432186117739207 ], [ -50.302038256619298, -21.4321315214642 ], [ -50.302239137380603, -21.432080649182101 ], [ -50.302438439645499, -21.432030915541691 ], [ -50.302636163420203, -21.431982320548897 ], [ -50.3028611960953, -21.431924348038898 ], [ -50.303113537598499, -21.431856997899384 ], [ -50.303408044746902, -21.431780004528594 ], [ -50.303744717422603, -21.431693367700408 ], [ -50.304051298491999, -21.431613150631403 ], [ -50.304327788039899, -21.431539353489196 ], [ -50.3045771579825, -21.431471825128792 ], [ -50.304799408385897, -21.431410565673193 ], [ -50.304922435588701, -21.431376221572204 ], [ -50.304946239722199, -21.431368793048108 ], [ -50.304964960852502, -21.431364452535792 ], [ -50.304978598981201, -21.431363200037001 ], [ -50.304989086631402, -21.431362916286897 ], [ -50.304996423803502, -21.431363601285891 ], [ -50.305004282182203, -21.431364942997487 ], [ -50.305012661767599, -21.431366941421096 ], [ -50.305019985771601, -21.431370408200397 ], [ -50.305026254194303, -21.431375343335493 ], [ -50.305031287619698, -21.431382727906495 ], [ -50.305035086047901, -21.431392561913501 ], [ -50.305042480252098, -21.431418120032607 ], [ -50.305053470236302, -21.431459402263606 ], [ -50.305068728745397, -21.431521975068804 ], [ -50.3050882557907, -21.431605838446782 ], [ -50.305111123600902, -21.431685461112007 ], [ -50.305137332179399, -21.431760843063305 ], [ -50.305155097151697, -21.431810826180097 ], [ -50.305164418500802, -21.431835410465194 ], [ -50.305171682123202, -21.431851640704888 ], [ -50.305176888017201, -21.43185951689939 ], [ -50.305182104754202, -21.431865102215209 ], [ -50.305187332333801, -21.431868396652206 ], [ -50.305193439179597, -21.43187054927531 ], [ -50.305200425291403, -21.4318715600843 ], [ -50.305210911429199, -21.431871603589695 ], [ -50.305224897592701, -21.431870679790695 ], [ -50.3052903041159, -21.431852734500705 ], [ -50.305407130958699, -21.431817767658284 ], [ -50.3054671218338, -21.431799239075289 ], [ -50.3054702767812, -21.431797148814006 ], [ -50.305474272407899, -21.431793417426093 ], [ -50.305479108713698, -21.431788044911492 ], [ -50.305477609768303, -21.43176316580919 ], [ -50.305469775574998, -21.4317187801187 ], [ -50.305449193893601, -21.43163564504389 ], [ -50.305415864760199, -21.431513760579993 ], [ -50.305378222212902, -21.431380076324405 ], [ -50.305336266271709, -21.431234592274311 ], [ -50.305293991071203, -21.431082725029402 ], [ -50.305251396617209, -21.430924474589496 ], [ -50.305218278955699, -21.430794900002102 ], [ -50.305194638044298, -21.430694001272798 ], [ -50.305171333533103, -21.430595885771698 ], [ -50.305148365420301, -21.430500553498799 ], [ -50.305121239322297, -21.430397513011492 ], [ -50.305091674409141, -21.430292850295498 ], [ -50.305008388816383, -21.430316170260912 ], [ -50.304884537842653, -21.430352830147978 ], [ -50.304882234300294, -21.430353493523928 ], [ -50.304757234319673, -21.430388493517391 ], [ -50.30463281295399, -21.43042333149894 ], [ -50.304510105480702, -21.4304586712509 ], [ -50.304386807912948, -21.430497140091148 ], [ -50.304383390366574, -21.430498165202337 ], [ -50.304258964864509, -21.430533999746313 ], [ -50.304135282589044, -21.430570609699291 ], [ -50.30401259405108, -21.430608207799278 ], [ -50.303889161850165, -21.430647029217017 ], [ -50.303887334717373, -21.430647592044199 ], [ -50.30376133460932, -21.430685592076323 ], [ -50.303760538165491, -21.430685830046762 ], [ -50.30363628267898, -21.430722609670479 ], [ -50.303513024774809, -21.430760382253386 ], [ -50.303512334784116, -21.430760592022704 ], [ -50.30338633467607, -21.430798592054824 ], [ -50.303385879061409, -21.43079872873302 ], [ -50.303261937873636, -21.430835711183668 ], [ -50.303135904293079, -21.430873422018657 ], [ -50.303011808164833, -21.430912140010133 ], [ -50.303008390602606, -21.430913165126068 ], [ -50.302884536850513, -21.430948835006301 ], [ -50.302760896295652, -21.430986421734179 ], [ -50.302634114788788, -21.43102535463748 ], [ -50.302633677635676, -21.431025488206345 ], [ -50.30250924367401, -21.431063316130587 ], [ -50.302384808280173, -21.431102139973074 ], [ -50.302383334986139, -21.431102591957721 ], [ -50.302257335008598, -21.431140591950477 ], [ -50.302132250474855, -21.431178315857448 ], [ -50.302009162198452, -21.431217029105216 ], [ -50.3020073350541, -21.431217591935958 ], [ -50.301881335076544, -21.431255591928718 ], [ -50.301755506445858, -21.431293540245516 ], [ -50.301632367342314, -21.431330974533299 ], [ -50.301509043821547, -21.431371424647786 ], [ -50.30150567784213, -21.431372488140436 ], [ -50.301381807089513, -21.431410144849352 ], [ -50.301257930564859, -21.431449785336895 ], [ -50.301158069524703, -21.431176214648531 ], [ -50.30122861841275, -21.431153639004449 ], [ -50.301165624141092, -21.431171383869167 ], [ -50.301024768559387, -21.43121134289823 ], [ -50.301024479686404, -21.431211424559375 ], [ -50.300883495067374, -21.431251138535853 ], [ -50.300742506156951, -21.43129283947993 ], [ -50.300739740425428, -21.431293630915395 ], [ -50.300600127273214, -21.431332247318515 ], [ -50.300459506203907, -21.431373839464339 ], [ -50.300458061419825, -21.431374259516247 ], [ -50.300318061442375, -21.43141425950872 ], [ -50.300178061320459, -21.431454259542473 ], [ -50.300087938760761, -21.431177740445431 ], [ -50.300227938783294, -21.431137740437908 ], [ -50.300367215171683, -21.431097947183385 ], [ -50.30050849375732, -21.431056160558345 ], [ -50.300511259777295, -21.431055369040276 ], [ -50.300614045140229, -21.431026939045783 ], [ -50.300526936714348, -21.430766030249611 ], [ -50.300649528470963, -21.430730149734917 ], [ -50.30077312106873, -21.430693271297738 ], [ -50.300897120962041, -21.430656271328992 ], [ -50.300898275551845, -21.430655931475627 ], [ -50.301022275444339, -21.430619931506033 ], [ -50.301023765622723, -21.430619506576651 ], [ -50.301147610972869, -21.430584829877997 ], [ -50.301271461984008, -21.430548169977548 ], [ -50.301396461876216, -21.430511170008803 ], [ -50.30139760969616, -21.430510834850939 ], [ -50.301522035111269, -21.430475000330755 ], [ -50.301646461918622, -21.43043816999489 ], [ -50.301647939179034, -21.430437740334959 ], [ -50.301773367962909, -21.430401903538854 ], [ -50.301898798242462, -21.430365070836739 ], [ -50.302024798133544, -21.430328070867997 ], [ -50.302025609800054, -21.430327834816726 ], [ -50.30215036964794, -21.430291903979747 ], [ -50.302276795711052, -21.430255071188952 ], [ -50.302401462046362, -21.430218169952916 ], [ -50.30240179832726, -21.430218070808905 ], [ -50.302527798218364, -21.430181070840177 ], [ -50.302528939323977, -21.430180740287199 ], [ -50.302654028553697, -21.43014500050673 ], [ -50.30277712128234, -21.430108271223833 ], [ -50.302778129954497, -21.43010797380774 ], [ -50.302905129844497, -21.430070973838976 ], [ -50.302905609945974, -21.430070834768721 ], [ -50.303028894708639, -21.430035328756965 ], [ -50.303152192199157, -21.429996859939042 ], [ -50.303155275929079, -21.429995931351701 ], [ -50.303278697947476, -21.429960099152265 ], [ -50.303402121390548, -21.429923271188606 ], [ -50.303403939469582, -21.429922740239515 ], [ -50.303528855163279, -21.429887050040861 ], [ -50.303650775836218, -21.429850374715535 ], [ -50.303651462389418, -21.429850169844823 ], [ -50.303776462281647, -21.429813169876077 ], [ -50.303776937262761, -21.429813030069852 ], [ -50.303898382588521, -21.429777485096416 ], [ -50.304020838513608, -21.429738970732146 ], [ -50.30402543899509, -21.4297375983775 ], [ -50.304148856791286, -21.429702762708459 ], [ -50.304271524824209, -21.429667149407855 ], [ -50.304393776093107, -21.429630374635114 ], [ -50.304516775987565, -21.429593374666393 ], [ -50.30451943907606, -21.429592598350929 ], [ -50.304641927504349, -21.429558025003875 ], [ -50.304762425569436, -21.429521480507688 ], [ -50.304766285779429, -21.42952036183295 ], [ -50.304865792771494, -21.429492855834795 ], [ -50.304850644652198, -21.429448274810298 ], [ -50.304823925471304, -21.429370108850797 ], [ -50.304810131688001, -21.429330451336103 ], [ -50.304796966593607, -21.429305480038693 ], [ -50.304784430184, -21.429295194958698 ], [ -50.304678320185197, -21.4293189318978 ], [ -50.304478636482997, -21.429376690674697 ], [ -50.304269237538698, -21.429437515111783 ], [ -50.304050123328103, -21.429501405172005 ], [ -50.303792681606602, -21.429576426601592 ], [ -50.3034969122617, -21.429662579220295 ], [ -50.303236672183999, -21.429737915417803 ], [ -50.303011961480998, -21.429802435363097 ], [ -50.3028175240417, -21.429858899156994 ], [ -50.302653359930204, -21.429907306907005 ], [ -50.302459093882703, -21.429964425540796 ], [ -50.302234725832399, -21.430030254951493 ], [ -50.302038885794609, -21.430087530169001 ], [ -50.3018715738339, -21.430136251295497 ], [ -50.301692181842597, -21.430189340092195 ], [ -50.3015007097924, -21.430246796519413 ], [ -50.301307670146798, -21.4303031007226 ], [ -50.301113062908797, -21.430358252696703 ], [ -50.300902529132102, -21.430418083441293 ], [ -50.300676068778699, -21.430482592895398 ], [ -50.300453651529502, -21.430546226454492 ], [ -50.300235277393199, -21.430608984134999 ], [ -50.300120013538702, -21.4306461799715 ], [ -50.3001078600984, -21.430657814181203 ], [ -50.300091021549598, -21.430684777339305 ], [ -50.30006949788411, -21.430727069444099 ], [ -50.300042995291797, -21.430787259019201 ], [ -50.300011513756303, -21.430865346061498 ], [ -50.299983379299, -21.430937883419283 ], [ -50.299958591928309, -21.431004871094498 ] ] ], [ [ [ -50.304735574411701, -21.429833519510264 ], [ -50.304732561112601, -21.429834401607682 ], [ -50.304609896295929, -21.429869024741002 ], [ -50.304488224119197, -21.429905625313427 ], [ -50.304365224013651, -21.429942625344705 ], [ -50.304363724093228, -21.429943068660215 ], [ -50.304239723985731, -21.429979068690624 ], [ -50.304238561193579, -21.4299794015811 ], [ -50.30411687279129, -21.430013749113989 ], [ -50.303995161469743, -21.430052029286649 ], [ -50.303992062926596, -21.430052969887164 ], [ -50.303869300430414, -21.430088900373224 ], [ -50.303744881227544, -21.430125728456701 ], [ -50.303622224143197, -21.430162625302582 ], [ -50.30362006072135, -21.430163259718 ], [ -50.303494971401662, -21.430198999523089 ], [ -50.303371878587143, -21.430235728829683 ], [ -50.303370724260795, -21.43023606860547 ], [ -50.303248271223381, -21.430271619487186 ], [ -50.30312480778246, -21.430310140079964 ], [ -50.303121390244421, -21.430311165188627 ], [ -50.302996630308115, -21.430347096049513 ], [ -50.302870375009057, -21.430383879088719 ], [ -50.302746878695359, -21.430420728794441 ], [ -50.302745060866961, -21.430421259670318 ], [ -50.302619631994091, -21.430457096490461 ], [ -50.302494369953763, -21.430493879787115 ], [ -50.302369537929621, -21.430530830065528 ], [ -50.302368870343606, -21.430531026113954 ], [ -50.302241870233601, -21.430568026145192 ], [ -50.30224139039035, -21.430568165140638 ], [ -50.302116796462244, -21.430604048191238 ], [ -50.302058081347496, -21.430621289930865 ], [ -50.302076679698132, -21.430616252877385 ], [ -50.302217174037985, -21.430577392739295 ], [ -50.302360947115801, -21.430537455771912 ], [ -50.302503806111233, -21.4304974952124 ], [ -50.302505294768622, -21.430497086420537 ], [ -50.30264540616087, -21.430459325902341 ], [ -50.302786520680151, -21.430419575331882 ], [ -50.302787088296249, -21.430419416551022 ], [ -50.302931088169942, -21.430379416584753 ], [ -50.30293126014756, -21.430379368914842 ], [ -50.303072260023768, -21.430340368947746 ], [ -50.303072543712943, -21.430340290756892 ], [ -50.303213521877503, -21.430301571400925 ], [ -50.303354504274054, -21.430260865214514 ], [ -50.303357294895619, -21.43026008637727 ], [ -50.303497114256281, -21.430222404562791 ], [ -50.303635939176353, -21.430182740298278 ], [ -50.303636520958328, -21.430182575246153 ], [ -50.303778376357812, -21.430142615977548 ], [ -50.303919085555449, -21.430102698473551 ], [ -50.30405893924393, -21.430062740275702 ], [ -50.304059232009166, -21.430062656925198 ], [ -50.304200231886156, -21.430022656958968 ], [ -50.304202013556896, -21.430022162461007 ], [ -50.304340825453004, -21.42998448494545 ], [ -50.304478643021994, -21.429944825211805 ], [ -50.304478939454818, -21.429944740212147 ], [ -50.304618939332912, -21.429904740245913 ], [ -50.3046192320976, -21.429904656895573 ], [ -50.304760085691505, -21.429864698428176 ], [ -50.304899791260183, -21.429824782550355 ], [ -50.304956706790875, -21.429808403979941 ], [ -50.304950244677798, -21.429784472197095 ], [ -50.304947095792386, -21.429771825386293 ], [ -50.304855652226422, -21.429797102469315 ], [ -50.304735574411701, -21.429833519510264 ] ] ], [ [ [ -50.305253219560107, -21.430760844731999 ], [ -50.305287637276002, -21.430874224601993 ], [ -50.305320465871901, -21.430991034258607 ], [ -50.305351705345799, -21.431111273702697 ], [ -50.305387425356898, -21.431244949992312 ], [ -50.3054276259262, -21.431392063124591 ], [ -50.305465973014599, -21.431524604829988 ], [ -50.305502466607003, -21.431642575110196 ], [ -50.305528473009602, -21.431724324192302 ], [ -50.305543992187303, -21.431769852081796 ], [ -50.305558917427398, -21.431792086842201 ], [ -50.305573248722901, -21.4317910284738 ], [ -50.305655487735301, -21.431770192257101 ], [ -50.305805634405303, -21.431729578090401 ], [ -50.306008454467502, -21.431674781981702 ], [ -50.306263947809498, -21.431605803735994 ], [ -50.306539573321899, -21.431529708412196 ], [ -50.306835330935897, -21.431446495908588 ], [ -50.307124627975597, -21.431361947045389 ], [ -50.307407464443003, -21.431276061855701 ], [ -50.307687667494498, -21.431192619855587 ], [ -50.307965237148203, -21.431111621059003 ], [ -50.308319639164999, -21.431007702614604 ], [ -50.3087508732294, -21.430880864024793 ], [ -50.309080926009599, -21.430788625338792 ], [ -50.309309797913301, -21.430730987167397 ], [ -50.309538340119197, -21.4306690927435 ], [ -50.309766552607599, -21.430602942067996 ], [ -50.310003341582501, -21.430534044573101 ], [ -50.310248707019397, -21.430462400221799 ], [ -50.310513344284701, -21.43038068931769 ], [ -50.310797253293899, -21.430288911766798 ], [ -50.311052611178397, -21.430210598197085 ], [ -50.311279418050901, -21.430145748742696 ], [ -50.311417702807908, -21.430099680641593 ], [ -50.311467465579703, -21.430072394116991 ], [ -50.311506589030401, -21.430040481987195 ], [ -50.311535073162801, -21.430003944259791 ], [ -50.311567644439407, -21.429953023218985 ], [ -50.311604302846206, -21.4298877188617 ], [ -50.311649436861003, -21.429766648908004 ], [ -50.311703046407402, -21.429589813346794 ], [ -50.311752223764699, -21.429426377832499 ], [ -50.311796968962497, -21.429276342370692 ], [ -50.311827554858901, -21.429164212641687 ], [ -50.311843981512503, -21.42908998865639 ], [ -50.311855457954699, -21.429027853513688 ], [ -50.311861984194998, -21.428977807215201 ], [ -50.311861466205798, -21.428901877229197 ], [ -50.311853903997097, -21.428800063555293 ], [ -50.311844778110697, -21.428696279803791 ], [ -50.311834088550199, -21.428590525974595 ], [ -50.311819579477401, -21.428479356408097 ], [ -50.311801250902299, -21.4283627711036 ], [ -50.311796724194473, -21.428331171008256 ], [ -50.311729592418722, -21.428349671890704 ], [ -50.311729069068953, -21.428349815180898 ], [ -50.311604651758174, -21.428383656688407 ], [ -50.31148081182674, -21.428418331868158 ], [ -50.311356389076444, -21.428454165619133 ], [ -50.311355233246466, -21.428454493869342 ], [ -50.311231732920881, -21.428489073960119 ], [ -50.311110449786604, -21.428525557503587 ], [ -50.310985676044076, -21.428563488720865 ], [ -50.310984536932516, -21.428563830448667 ], [ -50.310859536824779, -21.428600830479962 ], [ -50.310859062107006, -21.428600970208677 ], [ -50.310737263068383, -21.428636618707639 ], [ -50.310612375897932, -21.428675274235925 ], [ -50.310489375793267, -21.42871327426808 ], [ -50.310488223434305, -21.428713625591037 ], [ -50.310365449922053, -21.428750557460226 ], [ -50.310241026344251, -21.428788382227602 ], [ -50.310118416921306, -21.428826261561206 ], [ -50.309992376012495, -21.428865274199492 ], [ -50.30986937590783, -21.428903274231647 ], [ -50.309868223546403, -21.428903625555364 ], [ -50.309745450033951, -21.42894055742461 ], [ -50.30962085013239, -21.428978435794306 ], [ -50.309497772986006, -21.429016152984335 ], [ -50.30937551959174, -21.429054916255453 ], [ -50.309373676466322, -21.429055488588194 ], [ -50.309249599973803, -21.429093207841984 ], [ -50.309127519639169, -21.429131916240447 ], [ -50.3091260239311, -21.42913238253248 ], [ -50.309002023953859, -21.429170382525232 ], [ -50.30887802384806, -21.429208382557373 ], [ -50.308876878132232, -21.429208729038187 ], [ -50.308753277650958, -21.429245609826623 ], [ -50.308629600088985, -21.429283207805344 ], [ -50.308507519756091, -21.429321916203246 ], [ -50.308503723755777, -21.429323068827642 ], [ -50.308380876723547, -21.429358734094791 ], [ -50.308258023960612, -21.429396382521364 ], [ -50.308256878242361, -21.42939672900291 ], [ -50.308133844833783, -21.429433440584404 ], [ -50.30800980729272, -21.429472140296678 ], [ -50.308007062610038, -21.429472970048078 ], [ -50.307884300113344, -21.429508900534309 ], [ -50.307759707914293, -21.429545779824597 ], [ -50.307635878222946, -21.429582729006086 ], [ -50.307634723904613, -21.429583068779529 ], [ -50.307511131024022, -21.429618950582977 ], [ -50.307386537438838, -21.429655830283391 ], [ -50.307383911356553, -21.429656583611983 ], [ -50.307259573374779, -21.429691121939815 ], [ -50.307138223904872, -21.429727625437724 ], [ -50.307135233954497, -21.429728493640908 ], [ -50.307010812583393, -21.429763331623999 ], [ -50.306886389841502, -21.429799165372536 ], [ -50.306885233993818, -21.429799493627787 ], [ -50.306760234013204, -21.429834493621257 ], [ -50.306635234032569, -21.429869493614753 ], [ -50.306510234051963, -21.429904493608216 ], [ -50.306385234071328, -21.429939493601708 ], [ -50.306260233961908, -21.429974493631253 ], [ -50.306258443324637, -21.429974983992604 ], [ -50.30613250444285, -21.430008699912758 ], [ -50.306009561117875, -21.430043401656228 ], [ -50.306006897823721, -21.430044129015435 ], [ -50.305882906627943, -21.430076862690051 ], [ -50.305757911477016, -21.430111583563722 ], [ -50.305756210580967, -21.430112046111656 ], [ -50.305633062465503, -21.430144819399366 ], [ -50.305507911514347, -21.430179583550913 ], [ -50.305505589592883, -21.430180210059564 ], [ -50.305380915263513, -21.430212862859129 ], [ -50.305257234112808, -21.43024749357966 ], [ -50.305256070096924, -21.430247814842637 ], [ -50.305131652798003, -21.430281656346885 ], [ -50.305123635006261, -21.430283901328519 ], [ -50.305148795487497, -21.430372754454293 ], [ -50.305185038681202, -21.430506596598395 ], [ -50.305219020026698, -21.430638302064196 ], [ -50.305253219560107, -21.430760844731999 ] ] ], [ [ [ -50.304869838566198, -21.429380935851007 ], [ -50.304890638192603, -21.429454331749895 ], [ -50.304899378495094, -21.429483282854015 ], [ -50.305008776071688, -21.429450374638797 ], [ -50.305009121795486, -21.429450271060087 ], [ -50.305133121688819, -21.429413271091367 ], [ -50.305135107411267, -21.429412692341675 ], [ -50.305257521694415, -21.42937785900839 ], [ -50.305379937406748, -21.429342030018422 ], [ -50.305381107451169, -21.429341692328478 ], [ -50.305503112530431, -21.429306975435512 ], [ -50.305626121772384, -21.429270271063938 ], [ -50.305628107491636, -21.42926969231517 ], [ -50.305750112572134, -21.429234975421839 ], [ -50.305873121814464, -21.429198271050154 ], [ -50.305874276385346, -21.429197931202349 ], [ -50.305998276277855, -21.429161931232773 ], [ -50.305999439316729, -21.429161598271634 ], [ -50.306122104054701, -21.429126975159676 ], [ -50.306243776283523, -21.429090374569469 ], [ -50.306246766471524, -21.429089506297252 ], [ -50.306370266696185, -21.429054926233931 ], [ -50.306491776325906, -21.429018374555586 ], [ -50.306495089068378, -21.429017416326808 ], [ -50.306620010962952, -21.428982715799837 ], [ -50.306741700153431, -21.428947099450337 ], [ -50.306866462806134, -21.42891016970442 ], [ -50.306868107693987, -21.428909692248517 ], [ -50.306990283849217, -21.428874926675313 ], [ -50.307114462847942, -21.428838169690707 ], [ -50.307116766611252, -21.428837506251103 ], [ -50.307240850440635, -21.428802762778197 ], [ -50.307362937737572, -21.428767029909707 ], [ -50.307363940121697, -21.428766740025274 ], [ -50.30748960810255, -21.428730834887116 ], [ -50.307613276544679, -21.428694931144904 ], [ -50.307614439577421, -21.428694598185537 ], [ -50.30773744923048, -21.428659877718371 ], [ -50.307861462972717, -21.428623169649608 ], [ -50.307861937947465, -21.428623029845248 ], [ -50.307984937841098, -21.428587029875665 ], [ -50.307985610788698, -21.428586834492183 ], [ -50.308110443659345, -21.428550882624666 ], [ -50.308234276647568, -21.428514931111099 ], [ -50.308235766790354, -21.428514506191874 ], [ -50.308359267024727, -21.428479926125831 ], [ -50.308480776791455, -21.428443374406282 ], [ -50.308603776685928, -21.428406374437564 ], [ -50.308606107977276, -21.428405692155224 ], [ -50.308728692006042, -21.428370810520281 ], [ -50.308851525596161, -21.428335149154783 ], [ -50.308973776749504, -21.428298374416826 ], [ -50.308975771532914, -21.428297788280958 ], [ -50.309096772043326, -21.428263075019355 ], [ -50.309218776791894, -21.428226374403032 ], [ -50.309219594604393, -21.428226130739926 ], [ -50.309341594499124, -21.428190130770368 ], [ -50.309343108098751, -21.428189692115495 ], [ -50.3094647634178, -21.428155074747945 ], [ -50.309585426400474, -21.42811848023586 ], [ -50.309588108139259, -21.428117692102258 ], [ -50.309709763459317, -21.428083074734428 ], [ -50.309830426443142, -21.428046480221997 ], [ -50.30983310817976, -21.428045692089047 ], [ -50.309955350199722, -21.428010907773817 ], [ -50.310076594623716, -21.427975130729742 ], [ -50.310078108219678, -21.427974692075917 ], [ -50.310199763541796, -21.427940074707493 ], [ -50.310320426527866, -21.42790348019437 ], [ -50.310323108260199, -21.427902692062695 ], [ -50.310444763583163, -21.42786807469405 ], [ -50.310565426570541, -21.427831480180522 ], [ -50.31056928670688, -21.427830361527139 ], [ -50.310690348840772, -21.42779689719714 ], [ -50.310810426612605, -21.427760480166782 ], [ -50.310810777193566, -21.427760374275422 ], [ -50.310933601857847, -21.427723427018325 ], [ -50.311055426656523, -21.427686480152715 ], [ -50.311056938486907, -21.42768602966936 ], [ -50.311179938380548, -21.427650029699809 ], [ -50.311272061702439, -21.427925970287589 ], [ -50.311149818748611, -21.42796174871275 ], [ -50.311028573324656, -21.427998519865223 ], [ -50.311028222996931, -21.427998625680086 ], [ -50.310905398249091, -21.428035572961601 ], [ -50.310783573368575, -21.42807251985116 ], [ -50.310779713479995, -21.428073638432693 ], [ -50.310658651261718, -21.428107102785411 ], [ -50.310538573410632, -21.428143519837409 ], [ -50.310535891927948, -21.428144307895696 ], [ -50.310414236520991, -21.428178925287579 ], [ -50.310293573453301, -21.428215519823556 ], [ -50.310290891968457, -21.428216307882479 ], [ -50.310168649861936, -21.428251092221142 ], [ -50.310047405354602, -21.428286869287941 ], [ -50.310045892008382, -21.428287307869354 ], [ -50.309924236602896, -21.428321925260828 ], [ -50.309803573538034, -21.428358519795932 ], [ -50.309800892048877, -21.428359307856127 ], [ -50.309679236644591, -21.428393925247256 ], [ -50.309558573580702, -21.428430519782072 ], [ -50.309555892089385, -21.428431307842907 ], [ -50.309433649985408, -21.428466092180837 ], [ -50.309312814748111, -21.428501748479597 ], [ -50.309190223187557, -21.428538625615083 ], [ -50.309188228654705, -21.428539211677275 ], [ -50.309067228061409, -21.428573924961825 ], [ -50.308945223229948, -21.428610625601301 ], [ -50.308943723331922, -21.428611068910179 ], [ -50.308819723224445, -21.428647068940609 ], [ -50.308818892210859, -21.428647307803171 ], [ -50.308697060633214, -21.428681975324835 ], [ -50.308575223420846, -21.428718625542242 ], [ -50.308452223315321, -21.428755625573547 ], [ -50.308449233398839, -21.428756493766873 ], [ -50.308324979506921, -21.428791284855865 ], [ -50.308201723327343, -21.428827068906902 ], [ -50.308201389401695, -21.42882716546513 ], [ -50.308076726005346, -21.428863068522567 ], [ -50.307954299744232, -21.428898900598245 ], [ -50.307829537003308, -21.428935830368832 ], [ -50.307827560611237, -21.428936401773065 ], [ -50.307704142720944, -21.428971237467128 ], [ -50.307580723430235, -21.429007068873091 ], [ -50.307580060069235, -21.429007259932227 ], [ -50.307454561678959, -21.429043116614451 ], [ -50.307332062239034, -21.429078970108137 ], [ -50.307330233577943, -21.429079493707643 ], [ -50.307206388118153, -21.429114170435824 ], [ -50.307082537128089, -21.429150830327746 ], [ -50.307080892494149, -21.429151307709908 ], [ -50.306958716254819, -21.429186073305875 ], [ -50.306834537169898, -21.429222830314032 ], [ -50.306834062448957, -21.429222970043678 ], [ -50.306711062342586, -21.429258970074098 ], [ -50.306708911121348, -21.429259583632117 ], [ -50.306584573131218, -21.4292941219623 ], [ -50.30646322365353, -21.429330625462534 ], [ -50.306460233717672, -21.42933149366149 ], [ -50.306336733406241, -21.42936607374827 ], [ -50.306215223695922, -21.429402625448635 ], [ -50.306212560871927, -21.429403401686962 ], [ -50.306089142983666, -21.429438237380459 ], [ -50.305966301694781, -21.42947390097968 ], [ -50.305842878163247, -21.42951072896814 ], [ -50.305840892696516, -21.429511307643256 ], [ -50.305718887532102, -21.429546024559443 ], [ -50.305595878205331, -21.429582728954358 ], [ -50.305593892736972, -21.429583307629947 ], [ -50.305471478367842, -21.429618140986317 ], [ -50.305349062569825, -21.429653969999418 ], [ -50.305347892776879, -21.429654307616754 ], [ -50.305225887613886, -21.429689024532539 ], [ -50.305103051216058, -21.429725677327745 ], [ -50.30498154662817, -21.429762227487799 ], [ -50.304991926647098, -21.429798268769257 ], [ -50.305038643112688, -21.429784825181684 ], [ -50.30504026047366, -21.429784368805187 ], [ -50.305180823916935, -21.429745489553799 ], [ -50.305318163758379, -21.429706676119103 ], [ -50.305457120891283, -21.429666974080394 ], [ -50.305594305016484, -21.429626216476912 ], [ -50.305596973459316, -21.429625448470514 ], [ -50.305735789117151, -21.429586778393741 ], [ -50.305873610567446, -21.429546126022196 ], [ -50.305875973503461, -21.429545448455844 ], [ -50.306014635597187, -21.429506821157712 ], [ -50.30615130510963, -21.42946621644618 ], [ -50.306151912485589, -21.429466037283689 ], [ -50.306291912364514, -21.429425037318325 ], [ -50.306292343438095, -21.429424911722698 ], [ -50.306430343318425, -21.429384911756493 ], [ -50.306430643482976, -21.429384825065348 ], [ -50.30656949337294, -21.429344868261584 ], [ -50.306707343364053, -21.429304911741443 ], [ -50.306707939815574, -21.42930474009259 ], [ -50.306847641427282, -21.429264825345513 ], [ -50.306984306476053, -21.429225212287388 ], [ -50.307121274040618, -21.429183526505966 ], [ -50.307123643597606, -21.429182825027713 ], [ -50.307261973509895, -21.42914301785807 ], [ -50.307399305321674, -21.429102216376794 ], [ -50.307400643643597, -21.429101825012655 ], [ -50.30753845587499, -21.429062166816205 ], [ -50.307675274280498, -21.429020526430932 ], [ -50.307813274162513, -21.428978526466466 ], [ -50.307813996189289, -21.428978308553777 ], [ -50.307949610237351, -21.428937723327824 ], [ -50.30808623288145, -21.428894162484248 ], [ -50.308087959612926, -21.428893622547616 ], [ -50.308224959496066, -21.428851622583153 ], [ -50.308226305610951, -21.428851216287427 ], [ -50.308363275503773, -21.428810522333638 ], [ -50.308500250073877, -21.42876784185103 ], [ -50.308500959688388, -21.428767622523541 ], [ -50.30863795957152, -21.428725622559053 ], [ -50.3086382744562, -21.428725526374947 ], [ -50.308776116986735, -21.428683574300148 ], [ -50.308912959621843, -21.428641622543037 ], [ -50.308914611235814, -21.42864112580985 ], [ -50.309052623976449, -21.42860041701563 ], [ -50.309187640978379, -21.428558720587876 ], [ -50.309188585414169, -21.428558432074635 ], [ -50.309327683202135, -21.428516402560412 ], [ -50.309463683085539, -21.42847540259509 ], [ -50.309465040160603, -21.428474999932238 ], [ -50.3096011556487, -21.428435258183523 ], [ -50.309738274510806, -21.428393526355102 ], [ -50.309738996532865, -21.428393308443841 ], [ -50.309875996415137, -21.428352308478519 ], [ -50.309877040231342, -21.428351999909374 ], [ -50.310013155720476, -21.428312258160364 ], [ -50.310150274583982, -21.428270526331541 ], [ -50.310152040278481, -21.428269999894152 ], [ -50.310287837599255, -21.428230351041147 ], [ -50.310422641201122, -21.42818872051626 ], [ -50.310425040325661, -21.428187999878947 ], [ -50.310561886383532, -21.428148044824837 ], [ -50.310696522404172, -21.42810844599504 ], [ -50.310830318561038, -21.428066820523313 ], [ -50.310831996724758, -21.42806630838205 ], [ -50.310968996607052, -21.428025308416718 ], [ -50.310969421100644, -21.428025182009943 ], [ -50.311103367426689, -21.42798549420953 ], [ -50.311237318635563, -21.427943820499483 ], [ -50.311315286962191, -21.428163527692849 ], [ -50.311390610896808, -21.428141834399028 ], [ -50.311391766982091, -21.42814150607628 ], [ -50.311516766872693, -21.428106506105824 ], [ -50.311517931118985, -21.428106184779235 ], [ -50.311642669197745, -21.428072256020659 ], [ -50.311755419275059, -21.428041183163526 ], [ -50.311755396706097, -21.428041034731596 ], [ -50.311715656909101, -21.427794433143998 ], [ -50.311687799414798, -21.427622826415096 ], [ -50.3116718241467, -21.42752621455319 ], [ -50.311661667374302, -21.427455972262489 ], [ -50.311657329084902, -21.427412099543997 ], [ -50.311651714523101, -21.427379512577989 ], [ -50.311644823688702, -21.427358211364385 ], [ -50.311635804240098, -21.427343610546306 ], [ -50.311624656176797, -21.427335710123 ], [ -50.311609473972403, -21.427330902234505 ], [ -50.3115902576263, -21.427329186879689 ], [ -50.311501385552603, -21.427348458108 ], [ -50.311342857688999, -21.427388715806888 ], [ -50.311103643061308, -21.427454332621892 ], [ -50.310783741447104, -21.427545308200703 ], [ -50.310433031789103, -21.4276466291325 ], [ -50.310051513954797, -21.4277582952198 ], [ -50.309698709230098, -21.427858951407597 ], [ -50.309374617748702, -21.42794859788139 ], [ -50.3090512049274, -21.428042501094502 ], [ -50.308728470739197, -21.428140661049895 ], [ -50.308397695416311, -21.428239114444096 ], [ -50.3080588789419, -21.428337861228801 ], [ -50.307554161058803, -21.428483376396692 ], [ -50.306883540833198, -21.428675658419095 ], [ -50.306382316030302, -21.428821184451596 ], [ -50.306050487589999, -21.428919956043892 ], [ -50.305781170476898, -21.428998896219298 ], [ -50.3055743648926, -21.429058005285302 ], [ -50.305412657744697, -21.429104625961592 ], [ -50.305296049113799, -21.429138758381097 ], [ -50.305141700974502, -21.429183879644206 ], [ -50.304949613260298, -21.42923998964439 ], [ -50.304852458251503, -21.429273377557898 ], [ -50.304850236053099, -21.42928404355299 ], [ -50.304850834651198, -21.429297401881303 ], [ -50.304854254046496, -21.429313452542701 ], [ -50.304860588683802, -21.42934129719939 ], [ -50.304869838566198, -21.429380935851007 ] ] ] ] } },
{ "type": "Feature", "properties": { "CHAVE": null, "FAZENDA": "Faz. ABC", "NOME_FAZ": null, "ZONA": null, "TALHAO": null, "AREA_TOTAL": null, "TIPO_GEO": "VOO_PROCESSADO", "DATA_INICI": "28-04-2026", "DATA_FINAL": "28-04-2026", "HORA_INICI": "13:45:16", "HORA_FINAL": "13:45:16", "CLASSE": "APLICADO FORA DO TALHÃO", "PILOTO": "valmir alves", "AERONAVE": "PS-CBA", "AREA_HA": 6.3465616e-08 }, "geometry": { "type": "Polygon", "coordinates": [ [ [ -50.311856592530297, -21.428314671861159 ], [ -50.311832760559803, -21.428238860092492 ], [ -50.311835710208946, -21.428263436309578 ], [ -50.311835836629569, -21.428264396806945 ], [ -50.311843553305771, -21.428318265348114 ], [ -50.311856592530297, -21.428314671861159 ] ] ] } },
{ "type": "Feature", "properties": { "CHAVE": null, "FAZENDA": "Faz. ABC", "NOME_FAZ": null, "ZONA": null, "TALHAO": null, "AREA_TOTAL": null, "TIPO_GEO": "VOO_PROCESSADO", "DATA_INICI": "28-04-2026", "DATA_FINAL": "28-04-2026", "HORA_INICI": "13:45:16", "HORA_FINAL": "13:45:16", "CLASSE": "SOBREPOSIÇÃO", "PILOTO": "valmir alves", "AERONAVE": "PS-CBA", "AREA_HA": 6.8023934932000005e-05 }, "geometry": { "type": "MultiPolygon", "coordinates": [ [ [ [ -50.30193180602393, -21.430655495242103 ], [ -50.30178917449021, -21.430695392176087 ], [ -50.301647543498532, -21.430734290829971 ], [ -50.301646805980262, -21.430734495256925 ], [ -50.301503806105472, -21.43077449522319 ], [ -50.301503520482818, -21.430774575398885 ], [ -50.301361663230452, -21.430814535189565 ], [ -50.30121880606125, -21.430854495238115 ], [ -50.301218520438312, -21.430854575413882 ], [ -50.301076520562432, -21.430894575380137 ], [ -50.301076231398312, -21.430894657123584 ], [ -50.300935375915593, -21.430934616127008 ], [ -50.300793520517921, -21.430974575395091 ], [ -50.30079149380429, -21.430975160542761 ], [ -50.300650872831511, -21.431016752662902 ], [ -50.300614045140229, -21.431026939045783 ], [ -50.300619063368607, -21.431041969737823 ], [ -50.30074206347502, -21.431005969707424 ], [ -50.30074287903728, -21.431005728682262 ], [ -50.30086687914396, -21.430968728651013 ], [ -50.300990302537883, -21.430931900703644 ], [ -50.301112980692729, -21.430896284466016 ], [ -50.301237234566464, -21.430861493382153 ], [ -50.301239538121251, -21.430860830002644 ], [ -50.301364538229045, -21.430823829971391 ], [ -50.301488964992963, -21.430786999650174 ], [ -50.301613390494239, -21.430751165106418 ], [ -50.301614538057365, -21.430750830023563 ], [ -50.301738800682962, -21.430714048287371 ], [ -50.301864061011905, -21.430678259622578 ], [ -50.3018652018621, -21.430677929143613 ], [ -50.301991201971006, -21.430640929112361 ], [ -50.302058081347496, -21.430621289930865 ], [ -50.301933100201069, -21.430655138992524 ], [ -50.30193180602393, -21.430655495242103 ] ] ], [ [ [ -50.301450194143662, -21.431091504716481 ], [ -50.301450479473274, -21.431091424623059 ], [ -50.301592336826033, -21.431051464806654 ], [ -50.301734825610751, -21.431011607805335 ], [ -50.301876456704782, -21.430972709125829 ], [ -50.301877193930558, -21.43097250477997 ], [ -50.302019547797308, -21.430932685518147 ], [ -50.302162900003459, -21.430893860963547 ], [ -50.302163740061125, -21.430893631029559 ], [ -50.302304740184937, -21.430854630996681 ], [ -50.302304911869768, -21.430854583407935 ], [ -50.30244891199608, -21.430814583374197 ], [ -50.302449193843252, -21.430814504809671 ], [ -50.30259145073574, -21.430774712673553 ], [ -50.302731705433061, -21.430736913536471 ], [ -50.302733479275943, -21.430736424690039 ], [ -50.302875195753167, -21.43069650455697 ], [ -50.303018825934615, -21.430656607285595 ], [ -50.30315959825208, -21.430617670263004 ], [ -50.303301456490374, -21.430578709198905 ], [ -50.303303495684624, -21.43057813480781 ], [ -50.303444104416883, -21.430537536513544 ], [ -50.303583705306067, -21.43049991357973 ], [ -50.303586060782962, -21.430499259723401 ], [ -50.303725770188379, -21.430459342751639 ], [ -50.303867479245994, -21.430419424708298 ], [ -50.303867768116362, -21.430419343047891 ], [ -50.30400876823937, -21.430379343014128 ], [ -50.304009060715387, -21.430379259745976 ], [ -50.304148914499031, -21.430339301523201 ], [ -50.304288878947247, -21.430299595298255 ], [ -50.304427986644193, -21.430261837495841 ], [ -50.304430356938958, -21.430261174809726 ], [ -50.304569208886662, -21.430221217415767 ], [ -50.304708914411535, -21.430181301552565 ], [ -50.304849768106116, -21.430141343058704 ], [ -50.304850060581344, -21.43014125979078 ], [ -50.30499006070324, -21.430101259756995 ], [ -50.304990356848251, -21.430101174839859 ], [ -50.305128549620626, -21.430061407136957 ], [ -50.305268739729058, -21.430022631150464 ], [ -50.305269611828322, -21.430022387311883 ], [ -50.305407611948823, -21.429983387278959 ], [ -50.30540806049234, -21.429983259820485 ], [ -50.30554806061425, -21.429943259786707 ], [ -50.305549694948731, -21.429942783544838 ], [ -50.305686364551683, -21.429902178809034 ], [ -50.305825026742809, -21.42986355148496 ], [ -50.305827389396136, -21.429862873999713 ], [ -50.305965210941864, -21.429822221602663 ], [ -50.306104026698662, -21.429783551499654 ], [ -50.306106694855593, -21.429782783575575 ], [ -50.306244391483354, -21.429741873708711 ], [ -50.306383872278936, -21.429701025762199 ], [ -50.306521506730533, -21.429661131719108 ], [ -50.306660356719547, -21.429621174888627 ], [ -50.306660656598538, -21.429621088279969 ], [ -50.306798358677725, -21.429581174634848 ], [ -50.306938060387559, -21.429541259861502 ], [ -50.306938656552887, -21.429541088295018 ], [ -50.307076656672564, -21.429501088261233 ], [ -50.307078725927227, -21.429500473516129 ], [ -50.307215544279565, -21.429458833148992 ], [ -50.307353356604921, -21.429419174926242 ], [ -50.307354694643536, -21.429418783644959 ], [ -50.307492026549653, -21.429377982137584 ], [ -50.307630356558931, -21.429338174941325 ], [ -50.307632725830352, -21.429337473547637 ], [ -50.307770725948338, -21.429295473512109 ], [ -50.30790836519617, -21.42925358330681 ], [ -50.308045004013032, -21.429212691398476 ], [ -50.308047767091608, -21.42921183753846 ], [ -50.30818490554082, -21.429168112236074 ], [ -50.308320368525358, -21.429126583438098 ], [ -50.308457694591951, -21.429085783665005 ], [ -50.308459749896592, -21.429085158171397 ], [ -50.308597395489066, -21.429042268603006 ], [ -50.308733883126457, -21.429000425677867 ], [ -50.308871725747636, -21.428958473576078 ], [ -50.308872040347666, -21.42895837747891 ], [ -50.309008216145976, -21.428916630154575 ], [ -50.309146388967676, -21.428875874142726 ], [ -50.3091483589928, -21.428875279433896 ], [ -50.309283887384986, -21.428833425077926 ], [ -50.309422365846871, -21.42879158266523 ], [ -50.309557639451796, -21.428750801652747 ], [ -50.309693960040761, -21.428711000021412 ], [ -50.309695725457068, -21.428710473666975 ], [ -50.309833364849254, -21.428668583417736 ], [ -50.309969482345252, -21.428627847525402 ], [ -50.310105959970024, -21.428588000044257 ], [ -50.310107725383887, -21.428587473690548 ], [ -50.310244844340183, -21.428545741835126 ], [ -50.310380959922895, -21.428506000059482 ], [ -50.310383358770068, -21.428505279505512 ], [ -50.310518162461271, -21.428463648954597 ], [ -50.310653959875694, -21.428424000074699 ], [ -50.310654267424361, -21.428423909949441 ], [ -50.310790267541812, -21.42838390991561 ], [ -50.310792681411833, -21.428383179498294 ], [ -50.310926844006758, -21.428341440024845 ], [ -50.311062791327842, -21.428300755060363 ], [ -50.31119757909957, -21.428260817943347 ], [ -50.311199681337314, -21.428260179522141 ], [ -50.311334681451918, -21.428218179486588 ], [ -50.311315286962191, -21.428163527692849 ], [ -50.311266188233461, -21.428177668127155 ], [ -50.311141766942747, -21.428212506089373 ], [ -50.311138776783331, -21.428213374353273 ], [ -50.311015776888851, -21.42825037432198 ], [ -50.311015323934797, -21.428250511297879 ], [ -50.310890892889688, -21.428288338336181 ], [ -50.310766700497645, -21.428325099284663 ], [ -50.31064393808235, -21.42836102974827 ], [ -50.310641542229817, -21.428361751094695 ], [ -50.310515583265541, -21.42840073839335 ], [ -50.310393199735188, -21.42843854793972 ], [ -50.310270776756205, -21.428475374364456 ], [ -50.310270323800971, -21.428475511340714 ], [ -50.310145323907854, -21.42851351130858 ], [ -50.310144624120909, -21.428513725772014 ], [ -50.31002162422557, -21.428551725739862 ], [ -50.309895583137681, -21.428590738433883 ], [ -50.309773199622477, -21.428628547975602 ], [ -50.309650776644098, -21.428665374400158 ], [ -50.309650323687897, -21.428665511376696 ], [ -50.309525323794801, -21.428703511344548 ], [ -50.309524976247573, -21.428703617424773 ], [ -50.309400976353352, -21.42874161739261 ], [ -50.309399480393374, -21.428742083763172 ], [ -50.309277400136111, -21.428780792137751 ], [ -50.309153323726349, -21.428818511366245 ], [ -50.309151480345939, -21.428819083778173 ], [ -50.309029227030969, -21.428857847024641 ], [ -50.308905976261045, -21.428895617421798 ], [ -50.308782548374047, -21.428933442097367 ], [ -50.308659122058792, -21.428970270917517 ], [ -50.308658323506386, -21.428970511434411 ], [ -50.308533323613283, -21.429008511402259 ], [ -50.308531480229007, -21.429009083815373 ], [ -50.308410370374091, -21.429047484501847 ], [ -50.308288276434105, -21.429082931129511 ], [ -50.308285976019953, -21.429083617497195 ], [ -50.308162548262288, -21.429121442133145 ], [ -50.308039121948674, -21.429158270952808 ], [ -50.308037192688921, -21.429158859722307 ], [ -50.307913560994926, -21.429197432811542 ], [ -50.307791937579317, -21.42923302990889 ], [ -50.307791462601109, -21.429233169714283 ], [ -50.307666462708887, -21.429270169682997 ], [ -50.307666121754799, -21.429270271012207 ], [ -50.307542698308666, -21.429307098976775 ], [ -50.307419276285266, -21.429342931177636 ], [ -50.3074184625372, -21.429343169735077 ], [ -50.30729477210501, -21.429379782104199 ], [ -50.307170088833182, -21.429414416346923 ], [ -50.30716677607456, -21.42941537458038 ], [ -50.307045266452164, -21.429451926256515 ], [ -50.306921766234701, -21.429486506317851 ], [ -50.306920610131705, -21.429486834645616 ], [ -50.306796187477488, -21.429522668371142 ], [ -50.306671766195379, -21.429557506330958 ], [ -50.306546766175991, -21.429592506337499 ], [ -50.306421766156632, -21.429627506344008 ], [ -50.306296766137237, -21.429662506350535 ], [ -50.306172659852621, -21.429697256111712 ], [ -50.306046556864381, -21.42973101596786 ], [ -50.306044438854173, -21.429731598361464 ], [ -50.305921767117482, -21.42976622345002 ], [ -50.305798102362914, -21.429798870946158 ], [ -50.305796088491697, -21.42979941645428 ], [ -50.305670937631305, -21.429834180583693 ], [ -50.305547789605164, -21.429866953849796 ], [ -50.305546088454371, -21.429867416467054 ], [ -50.305421246905155, -21.429902094676837 ], [ -50.305296410594302, -21.429934789902166 ], [ -50.30529376585757, -21.429935506438181 ], [ -50.305169347300094, -21.42997034363562 ], [ -50.305044930091015, -21.430004185117539 ], [ -50.305043765819384, -21.430004506451137 ], [ -50.304918765928804, -21.430039506421615 ], [ -50.304916462133356, -21.430040169870477 ], [ -50.304792611245269, -21.430076829734489 ], [ -50.304668765888898, -21.430111506434848 ], [ -50.304543765869525, -21.430146506441389 ], [ -50.304542609757888, -21.430146834771612 ], [ -50.304417609866483, -21.430182834741196 ], [ -50.30441419206867, -21.430183859927848 ], [ -50.304290894582273, -21.430222328744495 ], [ -50.304167609823836, -21.430257834755011 ], [ -50.304166462006762, -21.430258169912033 ], [ -50.30404146211454, -21.430295169880761 ], [ -50.304039975296703, -21.430295617736032 ], [ -50.303915975402518, -21.430333617703894 ], [ -50.30391483813316, -21.430333970801797 ], [ -50.303791749930852, -21.430372684027137 ], [ -50.303667063352755, -21.430410287915997 ], [ -50.303542462026066, -21.430447169909154 ], [ -50.303540975205713, -21.430447617765182 ], [ -50.303417320042918, -21.430485512089714 ], [ -50.303291893101779, -21.430523339262841 ], [ -50.30316812112963, -21.430560271222721 ], [ -50.303041003418713, -21.430598306395236 ], [ -50.303039191816765, -21.43059886000886 ], [ -50.302915894338327, -21.430637328823028 ], [ -50.302792609587797, -21.430672834831277 ], [ -50.302790322495859, -21.430673511765587 ], [ -50.302665322602785, -21.430711511733463 ], [ -50.302664885189401, -21.430711645381869 ], [ -50.302538103768114, -21.430750578259651 ], [ -50.302413322556987, -21.430788511748137 ], [ -50.302412191701407, -21.430788860045922 ], [ -50.302287927241608, -21.430827630557811 ], [ -50.302162665207064, -21.43086540799694 ], [ -50.302036665184609, -21.430903408004191 ], [ -50.302034837784866, -21.430903970913615 ], [ -50.301911749588086, -21.430942684137232 ], [ -50.301786665139105, -21.430980408018723 ], [ -50.301660665116657, -21.43101840802596 ], [ -50.301660322290672, -21.43101851183134 ], [ -50.301535322397605, -21.431056511799206 ], [ -50.301531956165597, -21.431057575371696 ], [ -50.301408632722371, -21.431098025461395 ], [ -50.30128532235053, -21.431135511814055 ], [ -50.301283069419512, -21.431136214682354 ], [ -50.30122861841275, -21.431153639004449 ], [ -50.301307336874721, -21.431131464790489 ], [ -50.301450194143662, -21.431091504716481 ] ] ] ] } },
{ "type": "Feature", "properties": { "CHAVE": null, "FAZENDA": "Faz. ABC", "NOME_FAZ": null, "ZONA": null, "TALHAO": null, "AREA_TOTAL": null, "TIPO_GEO": "VOO_PROCESSADO", "DATA_INICI": "28-04-2026", "DATA_FINAL": "28-04-2026", "HORA_INICI": "13:45:16", "HORA_FINAL": "13:45:16", "CLASSE": "APLICADO", "PILOTO": "valmir alves", "AERONAVE": "PS-CBA", "AREA_HA": 0.001058907760249 }, "geometry": { "type": "Polygon", "coordinates": [ [ [ -50.311835710208946, -21.428263436309578 ], [ -50.311832760559803, -21.428238860092492 ], [ -50.311769407548383, -21.428037328127434 ], [ -50.311642669197745, -21.428072256020659 ], [ -50.311517931118985, -21.428106184779235 ], [ -50.311516766872693, -21.428106506105824 ], [ -50.311391766982091, -21.42814150607628 ], [ -50.311390610896808, -21.428141834399028 ], [ -50.31131528693971, -21.428163527712581 ], [ -50.311237318635563, -21.427943820499483 ], [ -50.311103367426689, -21.42798549420953 ], [ -50.310969421100644, -21.428025182009943 ], [ -50.310968996607052, -21.428025308416718 ], [ -50.310831996724758, -21.42806630838205 ], [ -50.310830318561038, -21.428066820523313 ], [ -50.310696522404172, -21.42810844599504 ], [ -50.310561886383532, -21.428148044824837 ], [ -50.310425040325661, -21.428187999878947 ], [ -50.310422641201122, -21.42818872051626 ], [ -50.310287837599255, -21.428230351041147 ], [ -50.310152040278481, -21.428269999894152 ], [ -50.310150274583982, -21.428270526331541 ], [ -50.310013155720476, -21.428312258160364 ], [ -50.309877040231342, -21.428351999909374 ], [ -50.309875996415137, -21.428352308478519 ], [ -50.309738996532865, -21.428393308443841 ], [ -50.309738274510806, -21.428393526355102 ], [ -50.3096011556487, -21.428435258183523 ], [ -50.309465040160603, -21.428474999932238 ], [ -50.309463683085539, -21.42847540259509 ], [ -50.309327683202135, -21.428516402560412 ], [ -50.309188585414169, -21.428558432074635 ], [ -50.309187640978379, -21.428558720587876 ], [ -50.309052623976449, -21.42860041701563 ], [ -50.308914611235814, -21.42864112580985 ], [ -50.308912959621843, -21.428641622543037 ], [ -50.308776116986735, -21.428683574300148 ], [ -50.3086382744562, -21.428725526374947 ], [ -50.30863795957152, -21.428725622559053 ], [ -50.308500959688388, -21.428767622523541 ], [ -50.308500250073877, -21.42876784185103 ], [ -50.308363275503773, -21.428810522333638 ], [ -50.308226305610951, -21.428851216287427 ], [ -50.308224959496066, -21.428851622583153 ], [ -50.308087959612926, -21.428893622547616 ], [ -50.30808623288145, -21.428894162484248 ], [ -50.307949610237351, -21.428937723327824 ], [ -50.307813996189289, -21.428978308553777 ], [ -50.307813274162513, -21.428978526466466 ], [ -50.307675274280498, -21.429020526430932 ], [ -50.30753845587499, -21.429062166816205 ], [ -50.307400643643597, -21.429101825012655 ], [ -50.307399305321674, -21.429102216376794 ], [ -50.307261973509895, -21.42914301785807 ], [ -50.307123643597606, -21.429182825027713 ], [ -50.307121274040618, -21.429183526505966 ], [ -50.306984306476053, -21.429225212287388 ], [ -50.306847641427282, -21.429264825345513 ], [ -50.306707939815574, -21.42930474009259 ], [ -50.306707343364053, -21.429304911741443 ], [ -50.30656949337294, -21.429344868261584 ], [ -50.306430643482976, -21.429384825065348 ], [ -50.306430343318425, -21.429384911756493 ], [ -50.306292343438095, -21.429424911722698 ], [ -50.306291912364514, -21.429425037318325 ], [ -50.306151912485589, -21.429466037283689 ], [ -50.30615130510963, -21.42946621644618 ], [ -50.306014635597187, -21.429506821157712 ], [ -50.305875973503461, -21.429545448455844 ], [ -50.305873610567446, -21.429546126022196 ], [ -50.305735789117151, -21.429586778393741 ], [ -50.305596973459316, -21.429625448470514 ], [ -50.305594305016484, -21.429626216476912 ], [ -50.305457120891283, -21.429666974080394 ], [ -50.305318163758379, -21.429706676119103 ], [ -50.305180823916935, -21.429745489553799 ], [ -50.30504026047366, -21.429784368805187 ], [ -50.305038643112688, -21.429784825181684 ], [ -50.304899791260183, -21.429824782550355 ], [ -50.304760085691505, -21.429864698428176 ], [ -50.3046192320976, -21.429904656895573 ], [ -50.304618939332912, -21.429904740245913 ], [ -50.304478939454818, -21.429944740212147 ], [ -50.304478643021994, -21.429944825211805 ], [ -50.304340825453004, -21.42998448494545 ], [ -50.304202013556896, -21.430022162461007 ], [ -50.304200231886156, -21.430022656958968 ], [ -50.304059232009166, -21.430062656925198 ], [ -50.30405893924393, -21.430062740275702 ], [ -50.303919085555449, -21.430102698473551 ], [ -50.303778376357812, -21.430142615977548 ], [ -50.303636520958328, -21.430182575246153 ], [ -50.303635939176353, -21.430182740298278 ], [ -50.303497114256281, -21.430222404562791 ], [ -50.303357294895619, -21.43026008637727 ], [ -50.303354504274054, -21.430260865214514 ], [ -50.303213521877503, -21.430301571400925 ], [ -50.303072543712943, -21.430340290756892 ], [ -50.303072260023768, -21.430340368947746 ], [ -50.30293126014756, -21.430379368914842 ], [ -50.302931088169942, -21.430379416584753 ], [ -50.302787088296249, -21.430419416551022 ], [ -50.302786520680151, -21.430419575331882 ], [ -50.30264540616087, -21.430459325902341 ], [ -50.302505294768622, -21.430497086420537 ], [ -50.302503806111233, -21.4304974952124 ], [ -50.302360947115801, -21.430537455771912 ], [ -50.302217174037985, -21.430577392739295 ], [ -50.302076679698132, -21.430616252877385 ], [ -50.302058081610191, -21.430621289867883 ], [ -50.302116796462244, -21.430604048191238 ], [ -50.30224139039035, -21.430568165140638 ], [ -50.302241870233601, -21.430568026145192 ], [ -50.302368870343606, -21.430531026113954 ], [ -50.302369537929621, -21.430530830065528 ], [ -50.302494369953763, -21.430493879787115 ], [ -50.302619631994091, -21.430457096490461 ], [ -50.302745060866961, -21.430421259670318 ], [ -50.302746878695359, -21.430420728794441 ], [ -50.302870375009057, -21.430383879088719 ], [ -50.302996630308115, -21.430347096049513 ], [ -50.303121390244421, -21.430311165188627 ], [ -50.30312480778246, -21.430310140079964 ], [ -50.303248271223381, -21.430271619487186 ], [ -50.303370724260795, -21.43023606860547 ], [ -50.303371878587143, -21.430235728829683 ], [ -50.303494971401662, -21.430198999523089 ], [ -50.30362006072135, -21.430163259718 ], [ -50.303622224143197, -21.430162625302582 ], [ -50.303744881227544, -21.430125728456701 ], [ -50.303869300430414, -21.430088900373224 ], [ -50.303992062926596, -21.430052969887164 ], [ -50.303995161469743, -21.430052029286649 ], [ -50.30411687279129, -21.430013749113989 ], [ -50.304238561193579, -21.4299794015811 ], [ -50.304239723985731, -21.429979068690624 ], [ -50.304363724093228, -21.429943068660215 ], [ -50.304365224013651, -21.429942625344705 ], [ -50.304488224119197, -21.429905625313427 ], [ -50.304609896295929, -21.429869024741002 ], [ -50.304732561112601, -21.429834401607682 ], [ -50.304735574411701, -21.429833519510264 ], [ -50.304855652226422, -21.429797102469315 ], [ -50.304976714407452, -21.429763638126921 ], [ -50.304980223907727, -21.429762625379304 ], [ -50.305103051216058, -21.429725677327745 ], [ -50.305225887613886, -21.429689024532539 ], [ -50.305347892776879, -21.429654307616754 ], [ -50.305349062569825, -21.429653969999418 ], [ -50.305471478367842, -21.429618140986317 ], [ -50.305593892736972, -21.429583307629947 ], [ -50.305595878205331, -21.429582728954358 ], [ -50.305718887532102, -21.429546024559443 ], [ -50.305840892696516, -21.429511307643256 ], [ -50.305842878163247, -21.42951072896814 ], [ -50.305966301694781, -21.42947390097968 ], [ -50.306089142983666, -21.429438237380459 ], [ -50.306212560871927, -21.429403401686962 ], [ -50.306215223695922, -21.429402625448635 ], [ -50.306336733406241, -21.42936607374827 ], [ -50.306460233717672, -21.42933149366149 ], [ -50.30646322365353, -21.429330625462534 ], [ -50.306584573131218, -21.4292941219623 ], [ -50.306708911121348, -21.429259583632117 ], [ -50.306711062342586, -21.429258970074098 ], [ -50.306834062448957, -21.429222970043678 ], [ -50.306834537169898, -21.429222830314032 ], [ -50.306958716254819, -21.429186073305875 ], [ -50.307080892494149, -21.429151307709908 ], [ -50.307082537128089, -21.429150830327746 ], [ -50.307206388118153, -21.429114170435824 ], [ -50.307330233577943, -21.429079493707643 ], [ -50.307332062239034, -21.429078970108137 ], [ -50.307454561678959, -21.429043116614451 ], [ -50.307580060069235, -21.429007259932227 ], [ -50.307580723430235, -21.429007068873091 ], [ -50.307704142720944, -21.428971237467128 ], [ -50.307827560611237, -21.428936401773065 ], [ -50.307829537003308, -21.428935830368832 ], [ -50.307954299744232, -21.428898900598245 ], [ -50.308076726005346, -21.428863068522567 ], [ -50.308201389401695, -21.42882716546513 ], [ -50.308201723327343, -21.428827068906902 ], [ -50.308324979506921, -21.428791284855865 ], [ -50.308449233398839, -21.428756493766873 ], [ -50.308452223315321, -21.428755625573547 ], [ -50.308575223420846, -21.428718625542242 ], [ -50.308697060633214, -21.428681975324835 ], [ -50.308818892210859, -21.428647307803171 ], [ -50.308819723224445, -21.428647068940609 ], [ -50.308943723331922, -21.428611068910179 ], [ -50.308945223229948, -21.428610625601301 ], [ -50.309067228061409, -21.428573924961825 ], [ -50.309188228654705, -21.428539211677275 ], [ -50.309190223187557, -21.428538625615083 ], [ -50.309312814748111, -21.428501748479597 ], [ -50.309433649985408, -21.428466092180837 ], [ -50.309555892089385, -21.428431307842907 ], [ -50.309558573580702, -21.428430519782072 ], [ -50.309679236644591, -21.428393925247256 ], [ -50.309800892048877, -21.428359307856127 ], [ -50.309803573538034, -21.428358519795932 ], [ -50.309924236602896, -21.428321925260828 ], [ -50.310045892008382, -21.428287307869354 ], [ -50.310047405354602, -21.428286869287941 ], [ -50.310168649861936, -21.428251092221142 ], [ -50.310290891968457, -21.428216307882479 ], [ -50.310293573453301, -21.428215519823556 ], [ -50.310414236520991, -21.428178925287579 ], [ -50.310535891927948, -21.428144307895696 ], [ -50.310538573410632, -21.428143519837409 ], [ -50.310658651261718, -21.428107102785411 ], [ -50.310779713479995, -21.428073638432693 ], [ -50.310783573368575, -21.42807251985116 ], [ -50.310905398249091, -21.428035572961601 ], [ -50.311028222996931, -21.427998625680086 ], [ -50.311028573324656, -21.427998519865223 ], [ -50.311149818748611, -21.42796174871275 ], [ -50.311272061702439, -21.427925970287589 ], [ -50.311179938380548, -21.427650029699809 ], [ -50.311056938486907, -21.42768602966936 ], [ -50.311055426656523, -21.427686480152715 ], [ -50.310933601857847, -21.427723427018325 ], [ -50.310810777193566, -21.427760374275422 ], [ -50.310810426612605, -21.427760480166782 ], [ -50.310690348840772, -21.42779689719714 ], [ -50.31056928670688, -21.427830361527139 ], [ -50.310565426570541, -21.427831480180522 ], [ -50.310444763583163, -21.42786807469405 ], [ -50.310323108260199, -21.427902692062695 ], [ -50.310320426527866, -21.42790348019437 ], [ -50.310199763541796, -21.427940074707493 ], [ -50.310078108219678, -21.427974692075917 ], [ -50.310076594623716, -21.427975130729742 ], [ -50.309955350199722, -21.428010907773817 ], [ -50.30983310817976, -21.428045692089047 ], [ -50.309830426443142, -21.428046480221997 ], [ -50.309709763459317, -21.428083074734428 ], [ -50.309588108139259, -21.428117692102258 ], [ -50.309585426400474, -21.42811848023586 ], [ -50.3094647634178, -21.428155074747945 ], [ -50.309343108098751, -21.428189692115495 ], [ -50.309341594499124, -21.428190130770368 ], [ -50.309219594604393, -21.428226130739926 ], [ -50.309218776791894, -21.428226374403032 ], [ -50.309096772043326, -21.428263075019355 ], [ -50.308975771532914, -21.428297788280958 ], [ -50.308973776749504, -21.428298374416826 ], [ -50.308851525596161, -21.428335149154783 ], [ -50.308728692006042, -21.428370810520281 ], [ -50.308606107977276, -21.428405692155224 ], [ -50.308603776685928, -21.428406374437564 ], [ -50.308480776791455, -21.428443374406282 ], [ -50.308359267024727, -21.428479926125831 ], [ -50.308235766790354, -21.428514506191874 ], [ -50.308234276647568, -21.428514931111099 ], [ -50.308110443659345, -21.428550882624666 ], [ -50.307985610788698, -21.428586834492183 ], [ -50.307984937841098, -21.428587029875665 ], [ -50.307861937947465, -21.428623029845248 ], [ -50.307861462972717, -21.428623169649608 ], [ -50.30773744923048, -21.428659877718371 ], [ -50.307614439577421, -21.428694598185537 ], [ -50.307613276544679, -21.428694931144904 ], [ -50.30748960810255, -21.428730834887116 ], [ -50.307363940121697, -21.428766740025274 ], [ -50.307362937737572, -21.428767029909707 ], [ -50.307240850440635, -21.428802762778197 ], [ -50.307116766611252, -21.428837506251103 ], [ -50.307114462847942, -21.428838169690707 ], [ -50.306990283849217, -21.428874926675313 ], [ -50.306868107693987, -21.428909692248517 ], [ -50.306866462806134, -21.42891016970442 ], [ -50.306741700153431, -21.428947099450337 ], [ -50.306620010962952, -21.428982715799837 ], [ -50.306495089068378, -21.429017416326808 ], [ -50.306491776325906, -21.429018374555586 ], [ -50.306370266696185, -21.429054926233931 ], [ -50.306246766471524, -21.429089506297252 ], [ -50.306243776283523, -21.429090374569469 ], [ -50.306122104054701, -21.429126975159676 ], [ -50.305999439316729, -21.429161598271634 ], [ -50.305998276277855, -21.429161931232773 ], [ -50.305874276385346, -21.429197931202349 ], [ -50.305873121814464, -21.429198271050154 ], [ -50.305750112572134, -21.429234975421839 ], [ -50.305628107491636, -21.42926969231517 ], [ -50.305626121772384, -21.429270271063938 ], [ -50.305503112530431, -21.429306975435512 ], [ -50.305381107451169, -21.429341692328478 ], [ -50.305379937406748, -21.429342030018422 ], [ -50.305257521694415, -21.42937785900839 ], [ -50.305135107411267, -21.429412692341675 ], [ -50.305133121688819, -21.429413271091367 ], [ -50.305009121795486, -21.429450271060087 ], [ -50.305008776071688, -21.429450374638797 ], [ -50.304887524491541, -21.429486848692598 ], [ -50.304766285779429, -21.42952036183295 ], [ -50.304762425569436, -21.429521480507688 ], [ -50.304641927504349, -21.429558025003875 ], [ -50.30451943907606, -21.429592598350929 ], [ -50.304516775987565, -21.429593374666393 ], [ -50.304393776093107, -21.429630374635114 ], [ -50.304271524824209, -21.429667149407855 ], [ -50.304148856791286, -21.429702762708459 ], [ -50.30402543899509, -21.4297375983775 ], [ -50.304020838513608, -21.429738970732146 ], [ -50.303898382588521, -21.429777485096416 ], [ -50.303776937262761, -21.429813030069852 ], [ -50.303776462281647, -21.429813169876077 ], [ -50.303651462389418, -21.429850169844823 ], [ -50.303650775836218, -21.429850374715535 ], [ -50.303528855163279, -21.429887050040861 ], [ -50.303403939469582, -21.429922740239515 ], [ -50.303402121390548, -21.429923271188606 ], [ -50.303278697947476, -21.429960099152265 ], [ -50.303155275929079, -21.429995931351701 ], [ -50.303152192199157, -21.429996859939042 ], [ -50.303028894708639, -21.430035328756965 ], [ -50.302905609945974, -21.430070834768721 ], [ -50.302905129844497, -21.430070973838976 ], [ -50.302778129954497, -21.43010797380774 ], [ -50.30277712128234, -21.430108271223833 ], [ -50.302654028553697, -21.43014500050673 ], [ -50.302528939323977, -21.430180740287199 ], [ -50.302527798218364, -21.430181070840177 ], [ -50.30240179832726, -21.430218070808905 ], [ -50.302401462046362, -21.430218169952916 ], [ -50.302276795711052, -21.430255071188952 ], [ -50.30215036964794, -21.430291903979747 ], [ -50.302025609800054, -21.430327834816726 ], [ -50.302024798133544, -21.430328070867997 ], [ -50.301898798242462, -21.430365070836739 ], [ -50.301773367962909, -21.430401903538854 ], [ -50.301647939179034, -21.430437740334959 ], [ -50.301646461918622, -21.43043816999489 ], [ -50.301522035111269, -21.430475000330755 ], [ -50.30139760969616, -21.430510834850939 ], [ -50.301396461876216, -21.430511170008803 ], [ -50.301271461984008, -21.430548169977548 ], [ -50.301147610972869, -21.430584829877997 ], [ -50.301023765622723, -21.430619506576651 ], [ -50.301022275444339, -21.430619931506033 ], [ -50.300898275551845, -21.430655931475627 ], [ -50.300897120962041, -21.430656271328992 ], [ -50.30077312106873, -21.430693271297738 ], [ -50.300649528470963, -21.430730149734917 ], [ -50.300526936714348, -21.430766030249611 ], [ -50.300614045136108, -21.43102693906032 ], [ -50.300511259777295, -21.431055369040276 ], [ -50.30050849375732, -21.431056160558345 ], [ -50.300367215171683, -21.431097947183385 ], [ -50.300227938783294, -21.431137740437908 ], [ -50.300087938760761, -21.431177740445431 ], [ -50.300178061320459, -21.431454259542473 ], [ -50.300318061442375, -21.43141425950872 ], [ -50.300458061419825, -21.431374259516247 ], [ -50.300459506203907, -21.431373839464339 ], [ -50.300600127273214, -21.431332247318515 ], [ -50.300739740425428, -21.431293630915395 ], [ -50.300742506156951, -21.43129283947993 ], [ -50.300883495067374, -21.431251138535853 ], [ -50.301024479686404, -21.431211424559375 ], [ -50.301024768559387, -21.43121134289823 ], [ -50.301165624141092, -21.431171383869167 ], [ -50.301228618325055, -21.431153639046808 ], [ -50.301158069524703, -21.431176214648531 ], [ -50.301257930564859, -21.431449785336895 ], [ -50.301381807089513, -21.431410144849352 ], [ -50.30150567784213, -21.431372488140436 ], [ -50.301509043821547, -21.431371424647786 ], [ -50.301632367342314, -21.431330974533299 ], [ -50.301755506445858, -21.431293540245516 ], [ -50.301881335076544, -21.431255591928718 ], [ -50.3020073350541, -21.431217591935958 ], [ -50.302009162198452, -21.431217029105216 ], [ -50.302132250474855, -21.431178315857448 ], [ -50.302257335008598, -21.431140591950477 ], [ -50.302383334986139, -21.431102591957721 ], [ -50.302384808280173, -21.431102139973074 ], [ -50.30250924367401, -21.431063316130587 ], [ -50.302633677635676, -21.431025488206345 ], [ -50.302634114788788, -21.43102535463748 ], [ -50.302760896295652, -21.430986421734179 ], [ -50.302884536850513, -21.430948835006301 ], [ -50.303008390602606, -21.430913165126068 ], [ -50.303011808164833, -21.430912140010133 ], [ -50.303135904293079, -21.430873422018657 ], [ -50.303261937873636, -21.430835711183668 ], [ -50.303385879061409, -21.43079872873302 ], [ -50.30338633467607, -21.430798592054824 ], [ -50.303512334784116, -21.430760592022704 ], [ -50.303513024774809, -21.430760382253386 ], [ -50.30363628267898, -21.430722609670479 ], [ -50.303760538165491, -21.430685830046762 ], [ -50.30376133460932, -21.430685592076323 ], [ -50.303887334717373, -21.430647592044199 ], [ -50.303889161850165, -21.430647029217017 ], [ -50.30401259405108, -21.430608207799278 ], [ -50.304135282589044, -21.430570609699291 ], [ -50.304258964864509, -21.430533999746313 ], [ -50.304383390366574, -21.430498165202337 ], [ -50.304386807912948, -21.430497140091148 ], [ -50.304510105480702, -21.4304586712509 ], [ -50.30463281295399, -21.43042333149894 ], [ -50.304757234319673, -21.430388493517391 ], [ -50.304882234300294, -21.430353493523928 ], [ -50.304884537842653, -21.430352830147978 ], [ -50.305008388816383, -21.430316170260912 ], [ -50.305131652798003, -21.430281656346885 ], [ -50.305256070096924, -21.430247814842637 ], [ -50.305257234112808, -21.43024749357966 ], [ -50.305380915263513, -21.430212862859129 ], [ -50.305505589592883, -21.430180210059564 ], [ -50.305507911514347, -21.430179583550913 ], [ -50.305633062465503, -21.430144819399366 ], [ -50.305756210580967, -21.430112046111656 ], [ -50.305757911477016, -21.430111583563722 ], [ -50.305882906627943, -21.430076862690051 ], [ -50.306006897823721, -21.430044129015435 ], [ -50.306009561117875, -21.430043401656228 ], [ -50.30613250444285, -21.430008699912758 ], [ -50.306258443324637, -21.429974983992604 ], [ -50.306260233961908, -21.429974493631253 ], [ -50.306385234071328, -21.429939493601708 ], [ -50.306510234051963, -21.429904493608216 ], [ -50.306635234032569, -21.429869493614753 ], [ -50.306760234013204, -21.429834493621257 ], [ -50.306885233993818, -21.429799493627787 ], [ -50.306886389841502, -21.429799165372536 ], [ -50.307010812583393, -21.429763331623999 ], [ -50.307135233954497, -21.429728493640908 ], [ -50.307138223904872, -21.429727625437724 ], [ -50.307259573374779, -21.429691121939815 ], [ -50.307383911356553, -21.429656583611983 ], [ -50.307386537438838, -21.429655830283391 ], [ -50.307511131024022, -21.429618950582977 ], [ -50.307634723904613, -21.429583068779529 ], [ -50.307635878222946, -21.429582729006086 ], [ -50.307759707914293, -21.429545779824597 ], [ -50.307884300113344, -21.429508900534309 ], [ -50.308007062610038, -21.429472970048078 ], [ -50.30800980729272, -21.429472140296678 ], [ -50.308133844833783, -21.429433440584404 ], [ -50.308256878242361, -21.42939672900291 ], [ -50.308258023960612, -21.429396382521364 ], [ -50.308380876723547, -21.429358734094791 ], [ -50.308503723755777, -21.429323068827642 ], [ -50.308507519756091, -21.429321916203246 ], [ -50.308629600088985, -21.429283207805344 ], [ -50.308753277650958, -21.429245609826623 ], [ -50.308876878132232, -21.429208729038187 ], [ -50.30887802384806, -21.429208382557373 ], [ -50.309002023953859, -21.429170382525232 ], [ -50.3091260239311, -21.42913238253248 ], [ -50.309127519639169, -21.429131916240447 ], [ -50.309249599973803, -21.429093207841984 ], [ -50.309373676466322, -21.429055488588194 ], [ -50.30937551959174, -21.429054916255453 ], [ -50.309497772986006, -21.429016152984335 ], [ -50.30962085013239, -21.428978435794306 ], [ -50.309745450033951, -21.42894055742461 ], [ -50.309868223546403, -21.428903625555364 ], [ -50.30986937590783, -21.428903274231647 ], [ -50.309992376012495, -21.428865274199492 ], [ -50.310118416921306, -21.428826261561206 ], [ -50.310241026344251, -21.428788382227602 ], [ -50.310365449922053, -21.428750557460226 ], [ -50.310488223434305, -21.428713625591037 ], [ -50.310489375793267, -21.42871327426808 ], [ -50.310612375897932, -21.428675274235925 ], [ -50.310737263068383, -21.428636618707639 ], [ -50.310859062107006, -21.428600970208677 ], [ -50.310859536824779, -21.428600830479962 ], [ -50.310984536932516, -21.428563830448667 ], [ -50.310985676044076, -21.428563488720865 ], [ -50.311110449786604, -21.428525557503587 ], [ -50.311231732920881, -21.428489073960119 ], [ -50.311355233246466, -21.428454493869342 ], [ -50.311356389076444, -21.428454165619133 ], [ -50.31148081182674, -21.428418331868158 ], [ -50.311604651758174, -21.428383656688407 ], [ -50.311729069068953, -21.428349815180898 ], [ -50.311729592418722, -21.428349671890704 ], [ -50.311843553305771, -21.428318265348114 ], [ -50.311835836629569, -21.428264396806945 ], [ -50.311835710208946, -21.428263436309578 ] ] ] } }
]
}
