{
"type": "FeatureCollection",
"name": "306037_SITIO_SANTA_CRISTINA_28-04-2026_30-06-2026_12h59m",
"crs": { "type": "name", "properties": { "name": "urn:ogc:def:crs:OGC:1.3:CRS84" } },
"features": [
{ "type": "Feature", "properties": { "CHAVE": "3060371", "FAZENDA": "306037", "NOME_FAZ": "SITIO SANTA CRISTINA", "ZONA": 999.0, "TALHAO": 1.0, "AREA_TOTAL": 11.408839392769337, "TIPO_GEO": "TALHAO", "DATA_INICI": null, "DATA_FINAL": null, "HORA_INICI": null, "HORA_FINAL": null, "CLASSE": null, "PILOTO": null, "AERONAVE": null, "AREA_HA": null }, "geometry": { "type": "Polygon", "coordinates": [ [ [ -50.256035009210393, -21.547310374745656 ], [ -50.256364436624054, -21.547045145180849 ], [ -50.256319632847628, -21.546874745376751 ], [ -50.256027393063256, -21.546361146095823 ], [ -50.25573097681832, -21.546163230421588 ], [ -50.255056686075108, -21.54574751439381 ], [ -50.254713372178394, -21.54561238967851 ], [ -50.254115943806596, -21.545490479477913 ], [ -50.252899122924987, -21.545214899954004 ], [ -50.252815018081414, -21.545317847400611 ], [ -50.251589508740821, -21.547160491202661 ], [ -50.253109602766912, -21.548630276860823 ], [ -50.253225489109603, -21.548561740397041 ], [ -50.253374553649699, -21.548501900196754 ], [ -50.253498042299164, -21.548387473405111 ], [ -50.253667508117147, -21.548270520780747 ], [ -50.253870515014626, -21.54815346771754 ], [ -50.254095854924877, -21.548082224321021 ], [ -50.254289707549319, -21.548089455962536 ], [ -50.254386403662259, -21.548128239354245 ], [ -50.254421397914236, -21.548241547239275 ], [ -50.254446745962277, -21.548360026419449 ], [ -50.254474944694344, -21.548420155867493 ], [ -50.256035009210393, -21.547310374745656 ] ] ] } },
{ "type": "Feature", "properties": { "CHAVE": "3060371", "FAZENDA": "306037", "NOME_FAZ": "SITIO SANTA CRISTINA", "ZONA": 999.0, "TALHAO": 1.0, "AREA_TOTAL": 6.2539701099008322, "TIPO_GEO": "TALHAO", "DATA_INICI": null, "DATA_FINAL": null, "HORA_INICI": null, "HORA_FINAL": null, "CLASSE": null, "PILOTO": null, "AERONAVE": null, "AREA_HA": null }, "geometry": { "type": "Polygon", "coordinates": [ [ [ -50.251761826168106, -21.549678982468979 ], [ -50.251945700432223, -21.549369194298588 ], [ -50.252146478546329, -21.549055474451851 ], [ -50.252239733522174, -21.548828202690544 ], [ -50.252347316789681, -21.548693201192322 ], [ -50.252472472388945, -21.548657018187797 ], [ -50.252648154236667, -21.548683110412238 ], [ -50.252772804369627, -21.548714396351826 ], [ -50.252921744919639, -21.548741213742751 ], [ -50.253076235441355, -21.548649984226653 ], [ -50.251568472077679, -21.547192120876939 ], [ -50.249686931077377, -21.550021043205845 ], [ -50.249679350420685, -21.550049410293454 ], [ -50.250146716486967, -21.550946697873492 ], [ -50.250284562887252, -21.550999001250879 ], [ -50.250459524511442, -21.551017653594368 ], [ -50.250666363873066, -21.550988835282858 ], [ -50.250867865611035, -21.550876363643201 ], [ -50.250992816030234, -21.550754652074218 ], [ -50.251096502158966, -21.550583797966169 ], [ -50.251206301178108, -21.550289581869947 ], [ -50.251390266473919, -21.550020217524871 ], [ -50.251761826168106, -21.549678982468979 ] ] ] } },
{ "type": "Feature", "properties": { "CHAVE": null, "FAZENDA": "Faz. ABC", "NOME_FAZ": null, "ZONA": null, "TALHAO": null, "AREA_TOTAL": null, "TIPO_GEO": "VOO_PROCESSADO", "DATA_INICI": "28-04-2026", "DATA_FINAL": "28-04-2026", "HORA_INICI": "14:09:54", "HORA_FINAL": "14:09:54", "CLASSE": "NÃO APLICADO DENTRO DO TALHÃO", "PILOTO": "valmir alves", "AERONAVE": "PS-CBA", "AREA_HA": 0.00055850878797299999 }, "geometry": { "type": "MultiPolygon", "coordinates": [ [ [ [ -50.252136676359207, -21.548974412135482 ], [ -50.252061056442301, -21.549078887142187 ], [ -50.251984172506461, -21.549185725983509 ], [ -50.251983018611448, -21.549187306753378 ], [ -50.251906483016626, -21.549290679622093 ], [ -50.251830940321753, -21.549395047939942 ], [ -50.25182974637147, -21.549396673478768 ], [ -50.251751152734336, -21.549502128350827 ], [ -50.251675675023698, -21.549605413757437 ], [ -50.251598795878863, -21.549711247507915 ], [ -50.251597484311986, -21.549713024347565 ], [ -50.251519951429508, -21.54981640163939 ], [ -50.251443482920486, -21.549920676997754 ], [ -50.251367554199305, -21.550024579577656 ], [ -50.251365539408319, -21.550027270505268 ], [ -50.251287763750476, -21.550128674321421 ], [ -50.251212941274723, -21.550232047597646 ], [ -50.25121121217726, -21.550234386589175 ], [ -50.251134416802671, -21.550336115638917 ], [ -50.251057689049368, -21.550438751578906 ], [ -50.250981757889107, -21.550540659302655 ], [ -50.250757742656241, -21.550394577949504 ], [ -50.250740671203708, -21.550416391494945 ], [ -50.250504206523161, -21.55025442871176 ], [ -50.250427654476695, -21.550359442537236 ], [ -50.250172345667544, -21.550196557368345 ], [ -50.250250345713667, -21.550089557428496 ], [ -50.25025100022183, -21.550088666749836 ], [ -50.250330481090245, -21.549981367699178 ], [ -50.25040797083691, -21.549874074328461 ], [ -50.250408622523395, -21.549873179240144 ], [ -50.250412430754153, -21.549867990531659 ], [ -50.250196757196505, -21.549728996230353 ], [ -50.250277247683698, -21.549619688286306 ], [ -50.25035574688355, -21.549510385730997 ], [ -50.250434746932562, -21.549400385792264 ], [ -50.250435252130423, -21.549399686768496 ], [ -50.25051506960785, -21.549289937864252 ], [ -50.25059488821509, -21.549179189676227 ], [ -50.250595252382148, -21.549178686678115 ], [ -50.250674889496416, -21.549069185773174 ], [ -50.250754386585434, -21.548957889980269 ], [ -50.250832242869926, -21.548848092787349 ], [ -50.25083253128313, -21.54884768753406 ], [ -50.250912531333626, -21.54873568759621 ], [ -50.250913252887941, -21.548734686496648 ], [ -50.250992384197325, -21.548625881073264 ], [ -50.251069541207059, -21.548515091655705 ], [ -50.251071389720082, -21.54851249892641 ], [ -50.251151450651264, -21.548402785926061 ], [ -50.251228541460804, -21.548292091564999 ], [ -50.251230253394901, -21.548289686314799 ], [ -50.251309890508821, -21.548180185410313 ], [ -50.251389208970913, -21.548069139695045 ], [ -50.251466889549405, -21.547958594390085 ], [ -50.251468253774242, -21.547956686178683 ], [ -50.251547638961831, -21.547847531672858 ], [ -50.251626037000314, -21.547736385219974 ], [ -50.251626748904961, -21.547735385006305 ], [ -50.251705748953974, -21.547625385067565 ], [ -50.251705890062325, -21.547625188934305 ], [ -50.251785890111407, -21.547514188996242 ], [ -50.251787135470423, -21.547512487374945 ], [ -50.251834242924495, -21.547449095934375 ], [ -50.251568472077679, -21.547192120876939 ], [ -50.249686931077377, -21.550021043205845 ], [ -50.249679350420685, -21.550049410293454 ], [ -50.250146716486967, -21.550946697873492 ], [ -50.250284562887252, -21.550999001250879 ], [ -50.250459524511442, -21.551017653594368 ], [ -50.250666363873066, -21.550988835282858 ], [ -50.250867865611035, -21.550876363643201 ], [ -50.250992816030234, -21.550754652074218 ], [ -50.251096502158966, -21.550583797966169 ], [ -50.251206301178108, -21.550289581869947 ], [ -50.251390266473919, -21.550020217524871 ], [ -50.251761826168106, -21.549678982468979 ], [ -50.251945700432223, -21.549369194298588 ], [ -50.252146478546329, -21.549055474451851 ], [ -50.252234445225881, -21.548841090800824 ], [ -50.252213410394901, -21.548869774694065 ], [ -50.252136676359207, -21.548974412135482 ] ] ], [ [ [ -50.252720704094251, -21.548701319702566 ], [ -50.252708262325726, -21.548693296083673 ], [ -50.252705220187444, -21.548697433396459 ], [ -50.252709780773401, -21.548698578058037 ], [ -50.252720704094251, -21.548701319702566 ] ] ], [ [ [ -50.252552076439905, -21.548668840961692 ], [ -50.252552076439912, -21.5486688409617 ], [ -50.252648154236667, -21.548683110412238 ], [ -50.252552076439905, -21.548668840961692 ] ] ], [ [ [ -50.252291701689799, -21.548762990128658 ], [ -50.252347316789681, -21.548693201192322 ], [ -50.252472472388945, -21.548657018187797 ], [ -50.252552076439898, -21.548668840961692 ], [ -50.252420631071409, -21.54858425056528 ], [ -50.252368055961647, -21.548656887314795 ], [ -50.252291701689799, -21.548762990128658 ] ] ], [ [ [ -50.25344152147315, -21.548182347665239 ], [ -50.253401390266148, -21.548238421472718 ], [ -50.253399895753702, -21.548240471415788 ], [ -50.253325098961312, -21.548341197876329 ], [ -50.253250300820213, -21.548442923463927 ], [ -50.25324948288273, -21.54844402488148 ], [ -50.253174894696684, -21.548543475906932 ], [ -50.253112199951467, -21.54862874085719 ], [ -50.253225489109603, -21.548561740397041 ], [ -50.253374553649699, -21.548501900196754 ], [ -50.253498042299164, -21.548387473405111 ], [ -50.253626014036698, -21.548299156889573 ], [ -50.25344152147315, -21.548182347665239 ] ] ], [ [ [ -50.253992694682317, -21.547879063094282 ], [ -50.254059615919864, -21.547785570298249 ], [ -50.25412761596251, -21.547690570351044 ], [ -50.254127780447391, -21.547690341030201 ], [ -50.254196489919885, -21.547594745355156 ], [ -50.254237175876575, -21.547537306426186 ], [ -50.254218213742476, -21.54756304077997 ], [ -50.254217042648563, -21.547564607840442 ], [ -50.254145713277474, -21.547658723086368 ], [ -50.25407736964079, -21.54775182901588 ], [ -50.254076778018643, -21.547752629209786 ], [ -50.254007212560111, -21.547846045787743 ], [ -50.253937640947306, -21.547941458394817 ], [ -50.253937214242342, -21.547942040532124 ], [ -50.253867214282295, -21.548037040585861 ], [ -50.253866186486889, -21.548038418249515 ], [ -50.253795922524297, -21.548131443880362 ], [ -50.253726801874151, -21.548226238023535 ], [ -50.253714274310525, -21.548243555558106 ], [ -50.253870515014626, -21.54815346771754 ], [ -50.253948909889516, -21.548128682418071 ], [ -50.253853038588829, -21.548067982593057 ], [ -50.253921038630068, -21.547973982645647 ], [ -50.253922813605378, -21.547971581600457 ], [ -50.253992694682317, -21.547879063094282 ] ] ], [ [ [ -50.254115943806596, -21.545490479477913 ], [ -50.252899122924987, -21.545214899954004 ], [ -50.252815018081414, -21.545317847400611 ], [ -50.251589508740821, -21.547160491202661 ], [ -50.25185671571262, -21.547418854809226 ], [ -50.251867434335992, -21.547404430999041 ], [ -50.251945749329657, -21.547295384932795 ], [ -50.251946759970856, -21.547293995234043 ], [ -50.252027624012136, -21.547184179994403 ], [ -50.25210648866679, -21.547076365147067 ], [ -50.252106760219149, -21.547075995144798 ], [ -50.252187436310827, -21.546966435145322 ], [ -50.252266115887963, -21.546857877373515 ], [ -50.25226700391238, -21.546856665431914 ], [ -50.252347003957198, -21.546748665493205 ], [ -50.252347519126893, -21.546747974325918 ], [ -50.25242780955876, -21.546640920536323 ], [ -50.252506116257948, -21.546532877240622 ], [ -50.252507519374078, -21.546530974236997 ], [ -50.252588000103195, -21.546423666717764 ], [ -50.252666489532182, -21.54631636483607 ], [ -50.252667909598195, -21.546314456593485 ], [ -50.252747926980966, -21.546208754735556 ], [ -50.252824975140264, -21.546102072792234 ], [ -50.25282638987791, -21.546100147646627 ], [ -50.252906059611192, -21.54599358949741 ], [ -50.252983732877851, -21.545888033639368 ], [ -50.252984390120496, -21.545887147559323 ], [ -50.253064390163907, -21.545780147620377 ], [ -50.253064652695308, -21.545779797588136 ], [ -50.253143259131427, -21.545675320795155 ], [ -50.253221870535342, -21.545568847241615 ], [ -50.253222896369557, -21.545567474889108 ], [ -50.253250896384102, -21.545530474910368 ], [ -50.253458428355664, -21.545667934148344 ], [ -50.253499390346306, -21.545613147546849 ], [ -50.253499710934506, -21.545612720404115 ], [ -50.253554710963542, -21.545539720445966 ], [ -50.253780069975676, -21.545688330153681 ], [ -50.25381618087625, -21.545638176184141 ], [ -50.253886525185699, -21.545537118285477 ], [ -50.253887204649544, -21.545536150650864 ], [ -50.253938204682584, -21.545464150690613 ], [ -50.254195795460184, -21.545623849213214 ], [ -50.254145137295673, -21.545695366708042 ], [ -50.25412042265738, -21.545730872288217 ], [ -50.254343465384991, -21.545870313565484 ], [ -50.254273465429179, -21.54596831361987 ], [ -50.254273148147988, -21.545968756046541 ], [ -50.254201148261856, -21.546068756005724 ], [ -50.254129708685582, -21.546167977756518 ], [ -50.254060258263777, -21.546267192765111 ], [ -50.254059703729155, -21.54626797935201 ], [ -50.253988703774816, -21.54636797940729 ], [ -50.253988544476933, -21.546368203318295 ], [ -50.253916739129316, -21.546468930384293 ], [ -50.253845123116506, -21.546570386524746 ], [ -50.253773667902685, -21.546672607302966 ], [ -50.253704117978458, -21.54677395160487 ], [ -50.253633216895388, -21.546877806843359 ], [ -50.253632312833481, -21.546879115501163 ], [ -50.253560312882037, -21.546982115557565 ], [ -50.253559774580872, -21.546982880328382 ], [ -50.253487419774295, -21.547084970110166 ], [ -50.253416050195575, -21.547189050875517 ], [ -50.25341568547011, -21.54718958022611 ], [ -50.253343685520072, -21.54729358028268 ], [ -50.253343152903568, -21.54729434432365 ], [ -50.253270153021958, -21.54739834428133 ], [ -50.253197153070573, -21.547502344338415 ], [ -50.253196467247278, -21.547503312896264 ], [ -50.253122000465702, -21.547607566514802 ], [ -50.253049523735449, -21.547711813994177 ], [ -50.253048467486451, -21.547713312810618 ], [ -50.252973467533792, -21.547818312868895 ], [ -50.252972157242986, -21.547820117643301 ], [ -50.252897091246922, -21.547921851938678 ], [ -50.252830045992972, -21.548016983831836 ], [ -50.252870640837585, -21.547962154493405 ], [ -50.252945302833595, -21.547859618803592 ], [ -50.252945842735237, -21.547858882239545 ], [ -50.253021842778402, -21.547755882297857 ], [ -50.253022790670741, -21.547754612263923 ], [ -50.253099037868658, -21.5476536095941 ], [ -50.253173303184283, -21.547551618677563 ], [ -50.253173700162584, -21.547551076149968 ], [ -50.253248700278739, -21.547449076108219 ], [ -50.253323700321836, -21.547347076165853 ], [ -50.253325206980634, -21.547345063948281 ], [ -50.253401444627023, -21.547245064027802 ], [ -50.253475350513391, -21.547144552136402 ], [ -50.25354800459705, -21.547044030849889 ], [ -50.253548700741092, -21.54704307594201 ], [ -50.253623700857261, -21.546941075900246 ], [ -50.253698700900358, -21.546839075957884 ], [ -50.253698962692987, -21.546838721054819 ], [ -50.253772480032907, -21.546739373410968 ], [ -50.253845005058139, -21.546639030684361 ], [ -50.253845406839858, -21.546638477556503 ], [ -50.253918127739887, -21.546538860000233 ], [ -50.253989851334666, -21.546439244012912 ], [ -50.254061772760252, -21.546339353261342 ], [ -50.254132694398315, -21.546240462643105 ], [ -50.25413285156128, -21.546240243931642 ], [ -50.2542048516056, -21.546140243987406 ], [ -50.254205101135071, -21.546139898495277 ], [ -50.254276101177908, -21.546041898550143 ], [ -50.254490504255287, -21.546177852738012 ], [ -50.254507263442321, -21.546152960447884 ], [ -50.254508741811762, -21.546150807143544 ], [ -50.254577899790888, -21.546052010152017 ], [ -50.254644083520539, -21.545953228592744 ], [ -50.25464426373351, -21.545952960272313 ], [ -50.254712263784576, -21.545851960326285 ], [ -50.254717338257493, -21.545844893625915 ], [ -50.25473033826399, -21.545827893635728 ], [ -50.254981661882375, -21.545996106272902 ], [ -50.254971310387255, -21.546009642858461 ], [ -50.254925536979727, -21.546077629916784 ], [ -50.254933065056875, -21.546067950970631 ], [ -50.25518293509019, -21.546238048939088 ], [ -50.25517019551728, -21.546254428407462 ], [ -50.255163956038466, -21.546262936797312 ], [ -50.255412212493937, -21.546423041196864 ], [ -50.255398580507972, -21.546441541770353 ], [ -50.255377022143499, -21.546471331544922 ], [ -50.255611218367278, -21.546618659290651 ], [ -50.255574742702585, -21.546669408101213 ], [ -50.255804118799908, -21.546817335354604 ], [ -50.255808515420291, -21.546811328711101 ], [ -50.255809088827327, -21.54681055079088 ], [ -50.255881088867419, -21.546713550846007 ], [ -50.256134911277648, -21.546878449060724 ], [ -50.256063199380179, -21.546975061031556 ], [ -50.255992484765542, -21.54707167124937 ], [ -50.255992332752456, -21.547071878542393 ], [ -50.255920332793949, -21.547169878597707 ], [ -50.255919197615135, -21.547171402631605 ], [ -50.255845197653905, -21.547269402687867 ], [ -50.255595639115825, -21.547104471916647 ], [ -50.255526466887275, -21.547201313150765 ], [ -50.255526057968233, -21.547201882706915 ], [ -50.255456263260385, -21.547298598344 ], [ -50.255386467109311, -21.547396313071186 ], [ -50.255384911860794, -21.547398448841754 ], [ -50.255313699799778, -21.547494387421647 ], [ -50.25524446739869, -21.547591312897261 ], [ -50.255174467442892, -21.547689312951629 ], [ -50.254952160074915, -21.54755033469317 ], [ -50.254917538167021, -21.547599794622091 ], [ -50.254848813754364, -21.547699395343656 ], [ -50.254847467515866, -21.547701312847334 ], [ -50.25477862661382, -21.547797690225877 ], [ -50.254711738468608, -21.547897038920819 ], [ -50.254710260234198, -21.547899192033871 ], [ -50.254640260345298, -21.547999191997128 ], [ -50.254570430537058, -21.548098948987914 ], [ -50.254502599680066, -21.548196705343432 ], [ -50.25424793104311, -21.548042045965484 ], [ -50.254246186503323, -21.548044418253397 ], [ -50.254214293636977, -21.548086642658447 ], [ -50.254289707549319, -21.548089455962536 ], [ -50.254386403662259, -21.548128239354245 ], [ -50.254421397914236, -21.548241547239275 ], [ -50.254446745962277, -21.548360026419449 ], [ -50.254474944694344, -21.548420155867493 ], [ -50.256035009210393, -21.547310374745656 ], [ -50.256364436624054, -21.547045145180849 ], [ -50.256319632847628, -21.546874745376751 ], [ -50.256027393063256, -21.546361146095823 ], [ -50.25573097681832, -21.546163230421588 ], [ -50.255056686075108, -21.54574751439381 ], [ -50.254713372178394, -21.54561238967851 ], [ -50.254115943806596, -21.545490479477913 ] ] ] ] } },
{ "type": "Feature", "properties": { "CHAVE": null, "FAZENDA": "Faz. ABC", "NOME_FAZ": null, "ZONA": null, "TALHAO": null, "AREA_TOTAL": null, "TIPO_GEO": "VOO_PROCESSADO", "DATA_INICI": "28-04-2026", "DATA_FINAL": "28-04-2026", "HORA_INICI": "14:09:54", "HORA_FINAL": "14:09:54", "CLASSE": "APLICADO FORA DO TALHÃO", "PILOTO": "valmir alves", "AERONAVE": "PS-CBA", "AREA_HA": 1.858797883e-06 }, "geometry": { "type": "MultiPolygon", "coordinates": [ [ [ [ -50.25296221521721, -21.548829040200776 ], [ -50.252962320972074, -21.548828896490612 ], [ -50.25302256714307, -21.548746922099614 ], [ -50.253038967574149, -21.548725409822367 ], [ -50.252951373698494, -21.548777135633863 ], [ -50.252930534933945, -21.548784804006171 ], [ -50.252908142064499, -21.548784765473609 ], [ -50.252827615745502, -21.548770266359465 ], [ -50.252948215225203, -21.548848040211521 ], [ -50.25296221521721, -21.548829040200776 ] ] ], [ [ [ -50.252646139001094, -21.548729374013799 ], [ -50.252670301155149, -21.548744923334489 ], [ -50.252676188747181, -21.548736916200205 ], [ -50.252646139001094, -21.548729374013799 ] ] ], [ [ [ -50.25409439398728, -21.548130367970387 ], [ -50.253999138311713, -21.548160483973039 ], [ -50.254108961555019, -21.54823001731204 ], [ -50.254176086985971, -21.54813722616796 ], [ -50.254181083069426, -21.548130611627599 ], [ -50.254111776672595, -21.548128026162825 ], [ -50.25409439398728, -21.548130367970387 ] ] ] ] } },
{ "type": "Feature", "properties": { "CHAVE": null, "FAZENDA": "Faz. ABC", "NOME_FAZ": null, "ZONA": null, "TALHAO": null, "AREA_TOTAL": null, "TIPO_GEO": "VOO_PROCESSADO", "DATA_INICI": "28-04-2026", "DATA_FINAL": "28-04-2026", "HORA_INICI": "14:09:54", "HORA_FINAL": "14:09:54", "CLASSE": "SOBREPOSIÇÃO", "PILOTO": "valmir alves", "AERONAVE": "PS-CBA", "AREA_HA": 8.059743714e-05 }, "geometry": { "type": "MultiPolygon", "coordinates": [ [ [ [ -50.252595409794566, -21.548342774909674 ], [ -50.252595939122585, -21.548342048370333 ], [ -50.252671939076585, -21.548237048311584 ], [ -50.252747938957008, -21.5481320483545 ], [ -50.252748467890171, -21.548131312741162 ], [ -50.252823467842838, -21.548026312682907 ], [ -50.252823996256019, -21.548025567928317 ], [ -50.252830045992972, -21.548016983831836 ], [ -50.252793982689766, -21.548065692653726 ], [ -50.252793302597887, -21.548066618888249 ], [ -50.252718640602033, -21.548169154577849 ], [ -50.252641982453952, -21.548272692738518 ], [ -50.252641842189526, -21.548272882509547 ], [ -50.252565842146375, -21.548375882451229 ], [ -50.252565302244889, -21.548376619015077 ], [ -50.252490499957872, -21.548479347370794 ], [ -50.252415698989488, -21.548581076571637 ], [ -50.252420631071409, -21.54858425056528 ], [ -50.252443939435331, -21.548552048182856 ], [ -50.252444468368331, -21.548551312569753 ], [ -50.25251894385525, -21.548447046765052 ], [ -50.252595409794566, -21.548342774909674 ] ] ], [ [ [ -50.25082147035743, -21.550306311847784 ], [ -50.250896206977103, -21.550201680456478 ], [ -50.250971941185959, -21.550097047545716 ], [ -50.251047941066361, -21.549992047588635 ], [ -50.251048692328808, -21.549990999838307 ], [ -50.251124247641322, -21.549884625784891 ], [ -50.25120079602214, -21.549779247371706 ], [ -50.251201173172753, -21.549778725735617 ], [ -50.251278057107626, -21.549671886895602 ], [ -50.251353940582284, -21.549567047762302 ], [ -50.251354172931322, -21.549566725822199 ], [ -50.251431172883848, -21.549459725762542 ], [ -50.251431319721362, -21.549459521339465 ], [ -50.251507246274301, -21.549353623653889 ], [ -50.251583533841817, -21.549247613533741 ], [ -50.25166088102101, -21.549143492213194 ], [ -50.251662172447361, -21.549141725995803 ], [ -50.251738984357708, -21.549034987242077 ], [ -50.251815724039915, -21.548929345479038 ], [ -50.251893531780361, -21.548822609096682 ], [ -50.251970410212827, -21.548717774750521 ], [ -50.251971690877426, -21.548716000358414 ], [ -50.252046866238189, -21.548610161238216 ], [ -50.252123017827799, -21.548507307026032 ], [ -50.252124171723196, -21.548505726255627 ], [ -50.252201171675715, -21.548398726195966 ], [ -50.252278055537069, -21.548291887458156 ], [ -50.252353866659945, -21.548187148284764 ], [ -50.252430602372705, -21.548081511986474 ], [ -50.252507409368725, -21.547976775053691 ], [ -50.252509726078671, -21.5479735224908 ], [ -50.252582846449428, -21.547867794257218 ], [ -50.252657938528884, -21.547764048499161 ], [ -50.252658689792582, -21.547763000747093 ], [ -50.25273457875857, -21.54765615694372 ], [ -50.252809467292963, -21.547551312871068 ], [ -50.252883942707484, -21.54744704716774 ], [ -50.252960408646366, -21.547342775312963 ], [ -50.252961466981681, -21.547341313057885 ], [ -50.253036466934333, -21.54723631299963 ], [ -50.253110818877019, -21.547132220157209 ], [ -50.253186156333967, -21.547030117960809 ], [ -50.253262156216664, -21.546927118002987 ], [ -50.253263085058066, -21.546925844706525 ], [ -50.253338085012132, -21.546821844648473 ], [ -50.253338235327448, -21.54682163581877 ], [ -50.253411894848746, -21.546719109608084 ], [ -50.253487550381251, -21.546615580865236 ], [ -50.253488774082236, -21.546613880572334 ], [ -50.253561239787686, -21.546511634318062 ], [ -50.253635695454932, -21.546409381749605 ], [ -50.25363638815503, -21.546408422202383 ], [ -50.25370911702754, -21.546306800918192 ], [ -50.253782843353733, -21.546205178025946 ], [ -50.253783773615559, -21.546203880739483 ], [ -50.253856773568359, -21.546100880682598 ], [ -50.253857475349378, -21.546099881549743 ], [ -50.25392747751296, -21.545999314938875 ], [ -50.254000443702623, -21.545899725835014 ], [ -50.254001147990557, -21.545898756166586 ], [ -50.254073147946244, -21.545798756110816 ], [ -50.254074475004664, -21.545796881672963 ], [ -50.25412042265738, -21.545730872288217 ], [ -50.254086534758223, -21.545709686338817 ], [ -50.254016692918796, -21.545807464798223 ], [ -50.253944851951289, -21.545907243802521 ], [ -50.253872851837428, -21.546007243843345 ], [ -50.253871741925408, -21.54600880719277 ], [ -50.253802017775811, -21.546108412999647 ], [ -50.253731375906682, -21.546207908470734 ], [ -50.253659455620443, -21.546308796529939 ], [ -50.253659067732926, -21.546309343333732 ], [ -50.253587067685778, -21.546411343277551 ], [ -50.25358668766043, -21.546411884276218 ], [ -50.253514687611883, -21.546514884219835 ], [ -50.253513981445678, -21.5465159037552 ], [ -50.253443981395861, -21.546617903700028 ], [ -50.253443783296746, -21.546618193114305 ], [ -50.253373231507354, -21.546721536450658 ], [ -50.253301955116598, -21.546823501162628 ], [ -50.253229225514737, -21.546926119518591 ], [ -50.253227949996869, -21.546927949083113 ], [ -50.253156131692307, -21.547032683979502 ], [ -50.253084579641609, -21.547136036813789 ], [ -50.253011847190145, -21.547239655522532 ], [ -50.252939187903664, -21.547343169997113 ], [ -50.252864532848598, -21.547447686949795 ], [ -50.252863476456405, -21.547449185965778 ], [ -50.252790999557192, -21.547553433432917 ], [ -50.252717180476267, -21.547656780023754 ], [ -50.252641842858651, -21.547758882204725 ], [ -50.252640003935213, -21.547761432032964 ], [ -50.252566266862907, -21.547866058833815 ], [ -50.252491795514409, -21.547970318598029 ], [ -50.25241606114087, -21.548074951491888 ], [ -50.252340324504651, -21.548179587512511 ], [ -50.252263590305304, -21.548284224937063 ], [ -50.252262531822254, -21.548285687392834 ], [ -50.252187795035816, -21.548390318770068 ], [ -50.252112060662562, -21.548494951663542 ], [ -50.25211182816512, -21.548495273808541 ], [ -50.252035206535673, -21.548601747896342 ], [ -50.251958589824561, -21.548706225109704 ], [ -50.251881589704979, -21.548811225152679 ], [ -50.251881060227994, -21.548811951894791 ], [ -50.251805060181994, -21.548916951836038 ], [ -50.251804827684616, -21.548917273980937 ], [ -50.251728398991219, -21.549023479963381 ], [ -50.251651981490298, -21.54912669309417 ], [ -50.251651059868138, -21.549127952023955 ], [ -50.251575650870734, -21.5492321353866 ], [ -50.251497253730456, -21.549337326367841 ], [ -50.251496446466817, -21.549338420215165 ], [ -50.251420446422237, -21.549442420156605 ], [ -50.251420204311266, -21.549442752456901 ], [ -50.251343852956232, -21.549547859396085 ], [ -50.251266515791713, -21.549650975500324 ], [ -50.251265588672126, -21.549652225599097 ], [ -50.251188588627485, -21.54975722553986 ], [ -50.251188445989634, -21.549757420386637 ], [ -50.251113436996683, -21.549860064154956 ], [ -50.251035460699164, -21.549961729343849 ], [ -50.251033058915176, -21.549964952366256 ], [ -50.250957911121134, -21.550068774856591 ], [ -50.250881787928229, -21.55016961326006 ], [ -50.2508813800901, -21.550170156152213 ], [ -50.250804380048301, -21.550273156093432 ], [ -50.250804242297896, -21.550273340662418 ], [ -50.250728242256159, -21.550375340604312 ], [ -50.250757742656241, -21.550394577949504 ], [ -50.250758671195484, -21.55039339148146 ], [ -50.250762180207218, -21.550388716675954 ], [ -50.250821180170824, -21.550306716630239 ], [ -50.25082147035743, -21.550306311847784 ] ] ], [ [ [ -50.25066370525618, -21.550036374263069 ], [ -50.250743189154385, -21.549928077327873 ], [ -50.250822999508095, -21.549820333228588 ], [ -50.250823748314524, -21.549819313037023 ], [ -50.250902871568847, -21.549710518437571 ], [ -50.250983969015756, -21.549603707048547 ], [ -50.25098574806632, -21.549601313126225 ], [ -50.251065563086939, -21.549491567346138 ], [ -50.251145376954227, -21.549382820827464 ], [ -50.251145747816921, -21.549382313215808 ], [ -50.251225496078789, -21.549272659229178 ], [ -50.251306242203768, -21.5491630038727 ], [ -50.251387242078479, -21.549053003917745 ], [ -50.251388252562336, -21.54905161443212 ], [ -50.251466751512069, -21.548942311969004 ], [ -50.251547241827851, -21.548833004007793 ], [ -50.251547747190571, -21.548832313440744 ], [ -50.251627747142898, -21.548722313379002 ], [ -50.251628252186599, -21.548721614566922 ], [ -50.251706751136346, -21.54861231210381 ], [ -50.251787241451929, -21.548503004142844 ], [ -50.251788251936119, -21.548501614656761 ], [ -50.251866750885654, -21.548392312193961 ], [ -50.251947241201314, -21.548283004232928 ], [ -50.251948251685661, -21.548281614746621 ], [ -50.252027251636633, -21.548171614685362 ], [ -50.252106000002748, -21.548061964932895 ], [ -50.252185746265916, -21.547952313693848 ], [ -50.252187110337104, -21.547950405692802 ], [ -50.252264436272341, -21.547840364806238 ], [ -50.252343746014155, -21.547731313784166 ], [ -50.252344755751835, -21.547729907748568 ], [ -50.252422683033366, -21.547620010168671 ], [ -50.25250118112379, -21.547509715252424 ], [ -50.252580745637111, -21.54740031391945 ], [ -50.252581755375033, -21.547398907883512 ], [ -50.252659575304023, -21.547289161698558 ], [ -50.252737140348508, -21.547180769392863 ], [ -50.252815884323589, -21.547072122515814 ], [ -50.25281776266074, -21.547069468430994 ], [ -50.25289301660046, -21.546960548120882 ], [ -50.252971138086522, -21.546851771239208 ], [ -50.253049025558056, -21.546743926921721 ], [ -50.2530492499342, -21.546743615374471 ], [ -50.253128249885179, -21.54663361531324 ], [ -50.253129411169986, -21.54663197430801 ], [ -50.253204726638465, -21.546523955938778 ], [ -50.253281768950572, -21.546417281843006 ], [ -50.253360510426539, -21.546309635144382 ], [ -50.253360649863737, -21.546309444193419 ], [ -50.253438199629144, -21.546203061700808 ], [ -50.253516742594847, -21.546097674818299 ], [ -50.253517649621223, -21.54609644428055 ], [ -50.253595265930933, -21.545989970502639 ], [ -50.253672743861223, -21.545885673171298 ], [ -50.253752449917144, -21.545779066202865 ], [ -50.253807289182177, -21.545706279461697 ], [ -50.253780069975676, -21.545688330153681 ], [ -50.2537452021961, -21.54573675756831 ], [ -50.2536715563988, -21.545837274013977 ], [ -50.253669524840994, -21.545840118408695 ], [ -50.253598873475262, -21.545941617429563 ], [ -50.253526687912242, -21.546043468170495 ], [ -50.253453156745785, -21.54614482182221 ], [ -50.25345261203406, -21.546145577758736 ], [ -50.253379956284689, -21.54624709663133 ], [ -50.253305304644719, -21.54634961809807 ], [ -50.253304226107801, -21.54635111938838 ], [ -50.253231831468668, -21.546453265127365 ], [ -50.253156449718496, -21.546556418981979 ], [ -50.253155764861923, -21.54655736414329 ], [ -50.253081839877943, -21.546660259608124 ], [ -50.253007375878113, -21.546763516234147 ], [ -50.252931843884966, -21.546865881845065 ], [ -50.252855843767662, -21.546968881887246 ], [ -50.252854533328431, -21.546970686861894 ], [ -50.2527795332811, -21.547075686803634 ], [ -50.252705057556028, -21.547179952695704 ], [ -50.252628591453494, -21.54728422453379 ], [ -50.252627532969818, -21.547285686990431 ], [ -50.252552532922486, -21.54739068693215 ], [ -50.252477532802921, -21.54749568697499 ], [ -50.252477310399179, -21.547495999216061 ], [ -50.252401683538764, -21.547602473748007 ], [ -50.252326061568994, -21.547706951347241 ], [ -50.252324274114386, -21.547709477469741 ], [ -50.252251408915491, -21.54781483647956 ], [ -50.252175590731142, -21.547918224793037 ], [ -50.252175206055867, -21.547918751839461 ], [ -50.252098206009805, -21.548024751780012 ], [ -50.252098061133211, -21.548024951578832 ], [ -50.252022061087217, -21.548129951520078 ], [ -50.252021828589733, -21.548130273665116 ], [ -50.251944828542257, -21.548237273605466 ], [ -50.251868399774729, -21.548343479690921 ], [ -50.251791982273943, -21.548446692821528 ], [ -50.251790309314345, -21.548448999604744 ], [ -50.251714942575347, -21.54855510791386 ], [ -50.251638589887051, -21.548659225096205 ], [ -50.251638347333603, -21.548659556837958 ], [ -50.251560347287487, -21.548766556777814 ], [ -50.251560205090065, -21.548766752186154 ], [ -50.251483205044018, -21.548872752126723 ], [ -50.251482827743722, -21.548873273968628 ], [ -50.251406466422836, -21.548979386329712 ], [ -50.251329119080822, -21.549083507633881 ], [ -50.251327827502337, -21.549085274055258 ], [ -50.251250827454875, -21.549192273995601 ], [ -50.251250680469475, -21.549192478624065 ], [ -50.251174753748671, -21.549298376293997 ], [ -50.251097943155827, -21.549405112966586 ], [ -50.25102205951562, -21.549509952084094 ], [ -50.251021827018342, -21.549510274228837 ], [ -50.250945014939603, -21.549617012966436 ], [ -50.250868204075879, -21.549722752474228 ], [ -50.250867307862976, -21.549724000124858 ], [ -50.250791681002077, -21.549830474657494 ], [ -50.250716059031546, -21.549934952257757 ], [ -50.250640058911948, -21.550039952300693 ], [ -50.250639529833151, -21.550040688114834 ], [ -50.25056467451433, -21.550145485437042 ], [ -50.250507525066929, -21.550224913390792 ], [ -50.25049132894366, -21.550245608415167 ], [ -50.250504206523161, -21.55025442871176 ], [ -50.250505328956727, -21.550252888961385 ], [ -50.250584999878349, -21.550145333095461 ], [ -50.250586029354423, -21.55014392563691 ], [ -50.25066370525618, -21.550036374263069 ] ] ], [ [ [ -50.250691001702506, -21.549561964314758 ], [ -50.250770747966037, -21.549452313075211 ], [ -50.25077111197767, -21.549451810290609 ], [ -50.25085093041023, -21.549341062085919 ], [ -50.250930747714307, -21.549231313165595 ], [ -50.250931469112913, -21.549230312279708 ], [ -50.251011469062419, -21.549118312217548 ], [ -50.251011757323298, -21.549117907177308 ], [ -50.251089613431503, -21.549008109970273 ], [ -50.251169110267476, -21.548896814268183 ], [ -50.251248747208514, -21.548787313347074 ], [ -50.251250458988061, -21.548784908308242 ], [ -50.251327549618452, -21.54867421393504 ], [ -50.251407610376475, -21.548564500916832 ], [ -50.251409458734308, -21.54856190839897 ], [ -50.251486615565035, -21.5484511189687 ], [ -50.251565746701552, -21.548342313528934 ], [ -50.251566468100613, -21.548341312642407 ], [ -50.251646468050112, -21.548229312580265 ], [ -50.251647110644761, -21.548228405574211 ], [ -50.251724436580147, -21.548118364687433 ], [ -50.251803746322203, -21.548009313665037 ], [ -50.251804963194132, -21.548007614745259 ], [ -50.251883609412452, -21.547896116175085 ], [ -50.251962180720653, -21.547786712958548 ], [ -50.252041493841091, -21.547676665875731 ], [ -50.252121864629814, -21.547568512469887 ], [ -50.252123250862859, -21.54756661503313 ], [ -50.252201749811974, -21.547457312570877 ], [ -50.252282240127521, -21.547348004609983 ], [ -50.252282511523774, -21.547347634819552 ], [ -50.252361376008693, -21.547239819957127 ], [ -50.252442239879237, -21.547130004699241 ], [ -50.252442884303576, -21.547129122592747 ], [ -50.25252144353626, -21.547020730614616 ], [ -50.252600739680005, -21.546913680699596 ], [ -50.25268148097517, -21.546806025519725 ], [ -50.252682883933595, -21.546804122725671 ], [ -50.252761190462103, -21.546696079416048 ], [ -50.252841480727987, -21.546589025608654 ], [ -50.252842510658382, -21.546587635130564 ], [ -50.252920808782697, -21.546480594534859 ], [ -50.25300109050572, -21.54637454325297 ], [ -50.253003025051036, -21.546371927173126 ], [ -50.253080325950414, -21.546264895034476 ], [ -50.253159610224088, -21.546158852199508 ], [ -50.2531602673115, -21.546157966326735 ], [ -50.253237940412305, -21.546052410454621 ], [ -50.253317478992912, -21.545946027484373 ], [ -50.253396347408433, -21.545841202259311 ], [ -50.253397129654225, -21.545840152725376 ], [ -50.253475620941551, -21.54573384162148 ], [ -50.253503103761815, -21.545697524997593 ], [ -50.253458428355664, -21.545667934148344 ], [ -50.253419390302902, -21.545720147485788 ], [ -50.253419122844861, -21.545720506365278 ], [ -50.253341122801579, -21.545825506305597 ], [ -50.253340350569104, -21.545826555685164 ], [ -50.253262800636506, -21.545932938162917 ], [ -50.253184257507051, -21.546038325028309 ], [ -50.253183350326587, -21.546039555772303 ], [ -50.253105419918164, -21.546146460183753 ], [ -50.253026489671647, -21.546254364700633 ], [ -50.253025974958149, -21.546255072849743 ], [ -50.252947974910612, -21.546363072789394 ], [ -50.25294658902363, -21.546365025654428 ], [ -50.252871163644699, -21.546473201394999 ], [ -50.252792862181046, -21.546582228620455 ], [ -50.252714974538158, -21.546690072922942 ], [ -50.252714750010078, -21.546690384680431 ], [ -50.252635749961058, -21.546800384619186 ], [ -50.252634237533798, -21.546802531531082 ], [ -50.252559161031797, -21.546911194755623 ], [ -50.252481115772746, -21.547018877328384 ], [ -50.252480606050845, -21.547019585103229 ], [ -50.252402606001894, -21.547128585042692 ], [ -50.252402244818185, -21.547129092081132 ], [ -50.252324745234453, -21.547238386235602 ], [ -50.252245254459325, -21.547347685924269 ], [ -50.252244390014162, -21.547348887432278 ], [ -50.252165389963736, -21.547459887370813 ], [ -50.252165244441379, -21.54746009221607 ], [ -50.252087744857356, -21.547569386370949 ], [ -50.252008254082284, -21.547678686059548 ], [ -50.252006889857071, -21.54768059427149 ], [ -50.251929563744916, -21.547790635144672 ], [ -50.251850253830533, -21.547899686149876 ], [ -50.251849748632132, -21.54790038517438 ], [ -50.251770748583112, -21.548010385113141 ], [ -50.251692249383694, -21.548119687667867 ], [ -50.251611758897091, -21.548228995611119 ], [ -50.251610748256404, -21.548230385309147 ], [ -50.251532249133099, -21.548339687757871 ], [ -50.251451758646475, -21.548448995701168 ], [ -50.251450748005922, -21.548450385399008 ], [ -50.251371999389157, -21.548560035242946 ], [ -50.251292504566912, -21.548669340497071 ], [ -50.25121175827055, -21.548778995836216 ], [ -50.251210747630196, -21.548780385533796 ], [ -50.251132248506678, -21.548889687982836 ], [ -50.251051758019933, -21.548998995926301 ], [ -50.250970757894649, -21.549108995971324 ], [ -50.250970252374877, -21.549109686751382 ], [ -50.250890437181582, -21.549219432515422 ], [ -50.250810623144083, -21.549328179017028 ], [ -50.250810252125461, -21.549328686840955 ], [ -50.250731128699861, -21.549437481426434 ], [ -50.250650031088249, -21.549544292797403 ], [ -50.250648251877266, -21.549546686930178 ], [ -50.250568623899426, -21.549656175273526 ], [ -50.250489000592076, -21.549763666616702 ], [ -50.250488622569648, -21.549764179301665 ], [ -50.250412430754153, -21.549867990531659 ], [ -50.250451242948216, -21.549893003675844 ], [ -50.250532242901912, -21.549783003613634 ], [ -50.250533253385228, -21.549781614128733 ], [ -50.250612253336222, -21.549671614067485 ], [ -50.250691001702506, -21.549561964314758 ] ] ], [ [ [ -50.252973017647768, -21.548333307109072 ], [ -50.252973697590797, -21.548332381075117 ], [ -50.253048359425122, -21.548229845371292 ], [ -50.253125017411982, -21.54812630719384 ], [ -50.253125697355088, -21.548125381159782 ], [ -50.253200428576363, -21.548022750164339 ], [ -50.253275687057695, -21.547920755001844 ], [ -50.253352209434709, -21.54781938758531 ], [ -50.2533536970044, -21.547817381285796 ], [ -50.253428499130592, -21.547714652914081 ], [ -50.253503299938956, -21.54761292369853 ], [ -50.253577555633733, -21.547511935839459 ], [ -50.253653793126674, -21.547411935901838 ], [ -50.253655299634758, -21.547409923881041 ], [ -50.253730299591659, -21.547307923823407 ], [ -50.253730995591155, -21.54730696911162 ], [ -50.253803649515575, -21.547206447811604 ], [ -50.25387829936043, -21.547104923906499 ], [ -50.253953168630972, -21.547003101582678 ], [ -50.254027037410317, -21.546903278795 ], [ -50.254027995130052, -21.546901969277172 ], [ -50.254100794879108, -21.546801246219388 ], [ -50.254173593261449, -21.546701522292924 ], [ -50.254174148922822, -21.546700755851059 ], [ -50.254246148878494, -21.546600755795296 ], [ -50.254318148764618, -21.54650075583616 ], [ -50.254318305789354, -21.546500537316536 ], [ -50.254389227270217, -21.546401646684398 ], [ -50.254461024039585, -21.546301928832232 ], [ -50.254531898965993, -21.546204101355087 ], [ -50.254490504255287, -21.546177852738012 ], [ -50.25443999232445, -21.546252877716014 ], [ -50.254370741582903, -21.546351807225253 ], [ -50.254370524231177, -21.546352118600268 ], [ -50.254299907425427, -21.546453567971685 ], [ -50.254229295956414, -21.54655302062552 ], [ -50.254228357361661, -21.546554358598978 ], [ -50.254158900829211, -21.546654574329747 ], [ -50.254087455093661, -21.546754796700014 ], [ -50.254086905713692, -21.546755572757881 ], [ -50.254015986263518, -21.546856458050705 ], [ -50.253944260255587, -21.546958069772899 ], [ -50.253872454747466, -21.547058796823976 ], [ -50.253872066860147, -21.547059343627481 ], [ -50.253800066813, -21.547161343571304 ], [ -50.253799523309404, -21.547162118929545 ], [ -50.253729254127805, -21.547263068898289 ], [ -50.253657004295796, -21.547363030877069 ], [ -50.253656066512917, -21.54736434375172 ], [ -50.253584222913794, -21.547466122061302 ], [ -50.253510690402337, -21.547569464927328 ], [ -50.253438003946115, -21.547670031002447 ], [ -50.25343761027024, -21.547670578363903 ], [ -50.253364881235704, -21.547772199634728 ], [ -50.253291154749157, -21.54787382251137 ], [ -50.253291003643135, -21.547874031183515 ], [ -50.253218003598754, -21.547975031127056 ], [ -50.253217609922977, -21.547975578488394 ], [ -50.253145347730417, -21.548076547460813 ], [ -50.253071104349701, -21.548176528433558 ], [ -50.25307069936752, -21.548177076499829 ], [ -50.252996105563007, -21.548278523958846 ], [ -50.252921517222575, -21.548377974968716 ], [ -50.252920699137498, -21.548379076582538 ], [ -50.252846443211432, -21.548480064527798 ], [ -50.252770205564616, -21.548580064448814 ], [ -50.252768679207648, -21.548582103462358 ], [ -50.252707732004041, -21.548665031530142 ], [ -50.252693784919529, -21.548683959694738 ], [ -50.252708262325726, -21.548693296083673 ], [ -50.25274530111205, -21.548642923276862 ], [ -50.252745697943801, -21.548642380948294 ], [ -50.252820429164586, -21.548539749953544 ], [ -50.252896087904134, -21.548437212334719 ], [ -50.252973017647768, -21.548333307109072 ] ] ], [ [ [ -50.255214798290282, -21.546651725854019 ], [ -50.255147163494101, -21.546748204784528 ], [ -50.255077533486379, -21.546845686679276 ], [ -50.255077132996199, -21.546846250215435 ], [ -50.255007132950588, -21.546945250160846 ], [ -50.255006740813045, -21.54694580754586 ], [ -50.254936740766034, -21.547045807491081 ], [ -50.254936401527132, -21.547046294248943 ], [ -50.254868961561691, -21.547143487021039 ], [ -50.25479953303649, -21.547240686840333 ], [ -50.254798740476097, -21.547241807666271 ], [ -50.254728740429087, -21.547341807611492 ], [ -50.25465874031525, -21.547441807652152 ], [ -50.254658186435407, -21.547442604612851 ], [ -50.25458985137459, -21.54754164081055 ], [ -50.25452053258315, -21.547638687002614 ], [ -50.254518261722552, -21.547641961033907 ], [ -50.254450990603544, -21.547741878303729 ], [ -50.254381739860982, -21.547840807814431 ], [ -50.254311739747131, -21.547940807855088 ], [ -50.254311400508549, -21.547941294612517 ], [ -50.254243400461654, -21.548039294559121 ], [ -50.25424793104311, -21.548042045965484 ], [ -50.254248384331646, -21.548041429567434 ], [ -50.254316384277089, -21.547946429531269 ], [ -50.254384302054724, -21.547851544288616 ], [ -50.254453219653421, -21.547755658821043 ], [ -50.254453797874312, -21.54775484845338 ], [ -50.254521382409379, -21.547659434878106 ], [ -50.254588960864623, -21.547566017492372 ], [ -50.254589630795728, -21.547565083602588 ], [ -50.25465850748197, -21.547468256841334 ], [ -50.254726383636488, -21.547373429748468 ], [ -50.254727202417818, -21.547372273907644 ], [ -50.254794795880308, -21.547275853704573 ], [ -50.254862383417809, -21.547181429826789 ], [ -50.254862630358495, -21.547181083759146 ], [ -50.254931297225362, -21.547084551961952 ], [ -50.254998960209655, -21.54699101772723 ], [ -50.254999797003407, -21.546989848765175 ], [ -50.255066804258412, -21.546895250175151 ], [ -50.255135776945473, -21.546802629604837 ], [ -50.255137218499229, -21.54680065930356 ], [ -50.255206089424213, -21.546704838773646 ], [ -50.25527337404543, -21.546611827571716 ], [ -50.255342776621916, -21.546518629721124 ], [ -50.255343944053962, -21.546517039503506 ], [ -50.255377022143499, -21.546471331544922 ], [ -50.255354781776234, -21.546457340614054 ], [ -50.255285862123962, -21.54655322871325 ], [ -50.255215942695777, -21.54665011695031 ], [ -50.255214798290282, -21.546651725854019 ] ] ], [ [ [ -50.254860617708133, -21.546165569734448 ], [ -50.25479261766548, -21.546260569681674 ], [ -50.25479203341834, -21.546261391968276 ], [ -50.254725323932725, -21.546355979931054 ], [ -50.254657617449112, -21.546450569759191 ], [ -50.254589908238948, -21.54654516339712 ], [ -50.254521202028066, -21.546639758794882 ], [ -50.254519798319578, -21.546641725860951 ], [ -50.254452775625673, -21.546737331647346 ], [ -50.254383787049122, -21.546830958893736 ], [ -50.254382616948654, -21.546832570006629 ], [ -50.254315196089188, -21.546926760802485 ], [ -50.254245786832676, -21.547020958971476 ], [ -50.254175786724474, -21.547115959010391 ], [ -50.254106808381067, -21.547209572371216 ], [ -50.254035864369754, -21.547301208287603 ], [ -50.254033786442207, -21.547303959180049 ], [ -50.253964366410443, -21.547398171973885 ], [ -50.253892957460231, -21.547492392012945 ], [ -50.253891630543635, -21.547494170943178 ], [ -50.253822924875969, -21.547587769862123 ], [ -50.253753222088051, -21.54768137064363 ], [ -50.253752359238291, -21.547682541564736 ], [ -50.253682571790243, -21.547778249954806 ], [ -50.253613295481578, -21.54787226769578 ], [ -50.253542813621806, -21.547965581604331 ], [ -50.253541358913772, -21.547967541681352 ], [ -50.253471358872417, -21.548063541627389 ], [ -50.253471038537306, -21.548063982688589 ], [ -50.253403038496081, -21.548157982636013 ], [ -50.25344152147315, -21.548182347665239 ], [ -50.253474194050199, -21.548136695517375 ], [ -50.253546921043892, -21.548036073120837 ], [ -50.253620845350369, -21.547934177336753 ], [ -50.253621389918884, -21.547933421597207 ], [ -50.253694193703467, -21.547831695641118 ], [ -50.253766996153303, -21.547730968846157 ], [ -50.253767619959397, -21.547730098994624 ], [ -50.253841619912116, -21.547626098937045 ], [ -50.253841933676846, -21.547625656208059 ], [ -50.253913468571284, -21.547524314986013 ], [ -50.253985995803625, -21.54742396897154 ], [ -50.253987476880972, -21.547421881028882 ], [ -50.254058206410058, -21.547320269468212 ], [ -50.254129740002256, -21.547218930090331 ], [ -50.254201545349908, -21.547118203024262 ], [ -50.254201933098521, -21.547117656414983 ], [ -50.254273933051373, -21.547015656358788 ], [ -50.25427409447579, -21.54701542720094 ], [ -50.254344821074625, -21.546914816002104 ], [ -50.254416545003714, -21.546814203148212 ], [ -50.254417642828422, -21.546812641358482 ], [ -50.25448717744176, -21.5467123127215 ], [ -50.254557704140836, -21.546612979223152 ], [ -50.254558475959193, -21.546611881358171 ], [ -50.254629367448935, -21.546510037121131 ], [ -50.254699258512268, -21.54641019262305 ], [ -50.254700736748838, -21.546408039506844 ], [ -50.254768007702175, -21.546308122228066 ], [ -50.254837258283395, -21.546209192704765 ], [ -50.254838916670252, -21.546206771361 ], [ -50.254905826670019, -21.546106905560613 ], [ -50.254925536979727, -21.546077629916784 ], [ -50.254919065050323, -21.546085950960119 ], [ -50.254916592714615, -21.546089224109529 ], [ -50.254861592682744, -21.546164224067233 ], [ -50.254860617708133, -21.546165569734448 ] ] ], [ [ [ -50.25512759866146, -21.54730170570701 ], [ -50.255195429518203, -21.54720394935185 ], [ -50.255265063948194, -21.547104471473428 ], [ -50.255334667606668, -21.547006031895187 ], [ -50.255404466612646, -21.546908313170668 ], [ -50.255405201897446, -21.546907274102328 ], [ -50.255472635398206, -21.546811082080435 ], [ -50.255542057405158, -21.546714882900478 ], [ -50.255542218410007, -21.546714659344119 ], [ -50.255574742702585, -21.546669408101213 ], [ -50.255550787156416, -21.546653958897096 ], [ -50.255480787116468, -21.546748958843374 ], [ -50.255479942505715, -21.546750117079583 ], [ -50.255410361699148, -21.546846536084953 ], [ -50.255340786897754, -21.546940958921944 ], [ -50.25533953330013, -21.546942686807938 ], [ -50.255269736993277, -21.547040401521869 ], [ -50.255199942132698, -21.547137117143873 ], [ -50.255199533078098, -21.547137686887506 ], [ -50.255130300455157, -21.547234612445553 ], [ -50.255059088244195, -21.547330551009843 ], [ -50.255057532856121, -21.547332686967092 ], [ -50.254987532811924, -21.547430686912719 ], [ -50.254917532700333, -21.547528686952674 ], [ -50.254952160074915, -21.54755033469317 ], [ -50.254987259779909, -21.547500192196146 ], [ -50.255056866171067, -21.547400754373697 ], [ -50.255126467062517, -21.547303313009614 ], [ -50.25512759866146, -21.54730170570701 ] ] ], [ [ [ -50.255595846715906, -21.5471041812762 ], [ -50.25566521320701, -21.547010040930584 ], [ -50.255666057680784, -21.547008882879528 ], [ -50.25573563833526, -21.546912463860338 ], [ -50.255805212988314, -21.546818041009143 ], [ -50.255804118799908, -21.546817335354604 ], [ -50.255737591289041, -21.546908224948421 ], [ -50.255666229707039, -21.547005355880298 ], [ -50.255592802491918, -21.547102597219947 ], [ -50.255595639115825, -21.547104471916647 ], [ -50.255595846715906, -21.5471041812762 ] ] ], [ [ [ -50.255019223484766, -21.546447370132274 ], [ -50.255018040366934, -21.546448982022632 ], [ -50.254950040325696, -21.546542981970052 ], [ -50.254949781686996, -21.54654334065463 ], [ -50.254881493724831, -21.546638349882393 ], [ -50.25481222316121, -21.54673137024858 ], [ -50.254810203183453, -21.546734151191632 ], [ -50.254742618496508, -21.546829564753317 ], [ -50.254675039892959, -21.54692298212532 ], [ -50.254674369828642, -21.546923916198615 ], [ -50.254605492988013, -21.54702074294616 ], [ -50.254537616682853, -21.547115570024875 ], [ -50.254536797769916, -21.547116726048721 ], [ -50.25446920415277, -21.547213146238658 ], [ -50.254401616464179, -21.547307570103214 ], [ -50.25440136939141, -21.54730791635517 ], [ -50.254332702371457, -21.547404448138007 ], [ -50.254265039237978, -21.547497982360156 ], [ -50.254264202312541, -21.547499151503413 ], [ -50.254237175876575, -21.547537306426186 ], [ -50.25428719187137, -21.547469427499788 ], [ -50.254358135742798, -21.54737779156763 ], [ -50.254360213528436, -21.547375040856984 ], [ -50.254430213488504, -21.547280040803251 ], [ -50.254500213380304, -21.54718504084212 ], [ -50.254570213272103, -21.547090040881042 ], [ -50.25457138323732, -21.547088429950598 ], [ -50.25463880394657, -21.546994239143096 ], [ -50.254708213055657, -21.546900040958796 ], [ -50.254710201868157, -21.546897274095425 ], [ -50.254777508570236, -21.54680126294846 ], [ -50.254845798074662, -21.546707241057199 ], [ -50.254846382802363, -21.546706430106514 ], [ -50.254914382759729, -21.54661143005373 ], [ -50.254982382651555, -21.546516430092485 ], [ -50.254982966768225, -21.546515607987558 ], [ -50.25504967610221, -21.546421020012094 ], [ -50.255116898992732, -21.546327105568903 ], [ -50.255163956038466, -21.546262936797312 ], [ -50.255157787650781, -21.546258958709398 ], [ -50.255143787642787, -21.546277958698642 ], [ -50.255143056123195, -21.546278960444138 ], [ -50.255088634135156, -21.54635416164961 ], [ -50.255019223484766, -21.546447370132274 ] ] ] ] } },
{ "type": "Feature", "properties": { "CHAVE": null, "FAZENDA": "Faz. ABC", "NOME_FAZ": null, "ZONA": null, "TALHAO": null, "AREA_TOTAL": null, "TIPO_GEO": "VOO_PROCESSADO", "DATA_INICI": "28-04-2026", "DATA_FINAL": "28-04-2026", "HORA_INICI": "14:09:54", "HORA_FINAL": "14:09:54", "CLASSE": "APLICADO", "PILOTO": "valmir alves", "AERONAVE": "PS-CBA", "AREA_HA": 0.001219986216319 }, "geometry": { "type": "Polygon", "coordinates": [ [ [ -50.254711738468608, -21.547897038920819 ], [ -50.25477862661382, -21.547797690225877 ], [ -50.254847467515866, -21.547701312847334 ], [ -50.254848813754364, -21.547699395343656 ], [ -50.254917538167021, -21.547599794622091 ], [ -50.254952160064285, -21.547550334729724 ], [ -50.255174467442892, -21.547689312951629 ], [ -50.25524446739869, -21.547591312897261 ], [ -50.255313699799778, -21.547494387421647 ], [ -50.255384911860794, -21.547398448841754 ], [ -50.255386467109311, -21.547396313071186 ], [ -50.255456263260385, -21.547298598344 ], [ -50.255526057968233, -21.547201882706915 ], [ -50.255526466887275, -21.547201313150765 ], [ -50.255595639113913, -21.547104471919582 ], [ -50.255845197653905, -21.547269402687867 ], [ -50.255919197615135, -21.547171402631605 ], [ -50.255920332793949, -21.547169878597707 ], [ -50.255992332752456, -21.547071878542393 ], [ -50.255992484765542, -21.54707167124937 ], [ -50.256063199380179, -21.546975061031556 ], [ -50.256134911277648, -21.546878449060724 ], [ -50.255881088867419, -21.546713550846007 ], [ -50.255809088827327, -21.54681055079088 ], [ -50.255808515420291, -21.546811328711101 ], [ -50.255804118801485, -21.546817335357225 ], [ -50.255574742696716, -21.546669408129343 ], [ -50.255611218367278, -21.546618659290651 ], [ -50.25537702213478, -21.546471331568824 ], [ -50.255398580507972, -21.546441541770353 ], [ -50.255412212493937, -21.546423041196864 ], [ -50.255163956036434, -21.546262936804858 ], [ -50.25517019551728, -21.546254428407462 ], [ -50.25518293509019, -21.546238048939088 ], [ -50.254933065056875, -21.546067950970631 ], [ -50.254925537060949, -21.546077629813077 ], [ -50.254971310387255, -21.546009642858461 ], [ -50.254981661882375, -21.545996106272902 ], [ -50.25473033826399, -21.545827893635728 ], [ -50.254717338257493, -21.545844893625915 ], [ -50.254712263784576, -21.545851960326285 ], [ -50.25464426373351, -21.545952960272313 ], [ -50.254644083520539, -21.545953228592744 ], [ -50.254577899790888, -21.546052010152017 ], [ -50.254508741811762, -21.546150807143544 ], [ -50.254507263442321, -21.546152960447884 ], [ -50.254490504238973, -21.546177852778143 ], [ -50.254276101177908, -21.546041898550143 ], [ -50.254205101135071, -21.546139898495277 ], [ -50.2542048516056, -21.546140243987406 ], [ -50.25413285156128, -21.546240243931642 ], [ -50.254132694398315, -21.546240462643105 ], [ -50.254061772760252, -21.546339353261342 ], [ -50.253989851334666, -21.546439244012912 ], [ -50.253918127739887, -21.546538860000233 ], [ -50.253845406839858, -21.546638477556503 ], [ -50.253845005058139, -21.546639030684361 ], [ -50.253772480032907, -21.546739373410968 ], [ -50.253698962692987, -21.546838721054819 ], [ -50.253698700900358, -21.546839075957884 ], [ -50.253623700857261, -21.546941075900246 ], [ -50.253548700741092, -21.54704307594201 ], [ -50.25354800459705, -21.547044030849889 ], [ -50.253475350513391, -21.547144552136402 ], [ -50.253401444627023, -21.547245064027802 ], [ -50.253325206980634, -21.547345063948281 ], [ -50.253323700321836, -21.547347076165853 ], [ -50.253248700278739, -21.547449076108219 ], [ -50.253173700162584, -21.547551076149968 ], [ -50.253173303184283, -21.547551618677563 ], [ -50.253099037868658, -21.5476536095941 ], [ -50.253022790670741, -21.547754612263923 ], [ -50.253021842778402, -21.547755882297857 ], [ -50.252945842735237, -21.547858882239545 ], [ -50.252945302833595, -21.547859618803592 ], [ -50.252870640837585, -21.547962154493405 ], [ -50.25283004575266, -21.548016984179867 ], [ -50.252897091246922, -21.547921851938678 ], [ -50.252972157242986, -21.547820117643301 ], [ -50.252973467533792, -21.547818312868895 ], [ -50.253048467486451, -21.547713312810618 ], [ -50.253049523735449, -21.547711813994177 ], [ -50.253122000465702, -21.547607566514802 ], [ -50.253196467247278, -21.547503312896264 ], [ -50.253197153070573, -21.547502344338415 ], [ -50.253270153021958, -21.54739834428133 ], [ -50.253343152903568, -21.54729434432365 ], [ -50.253343685520072, -21.54729358028268 ], [ -50.25341568547011, -21.54718958022611 ], [ -50.253416050195575, -21.547189050875517 ], [ -50.253487419774295, -21.547084970110166 ], [ -50.253559774580872, -21.546982880328382 ], [ -50.253560312882037, -21.546982115557565 ], [ -50.253632312833481, -21.546879115501163 ], [ -50.253633216895388, -21.546877806843359 ], [ -50.253704117978458, -21.54677395160487 ], [ -50.253773667902685, -21.546672607302966 ], [ -50.253845123116506, -21.546570386524746 ], [ -50.253916739129316, -21.546468930384293 ], [ -50.253988544476933, -21.546368203318295 ], [ -50.253988703774816, -21.54636797940729 ], [ -50.254059703729155, -21.54626797935201 ], [ -50.254060258263777, -21.546267192765111 ], [ -50.254129708685582, -21.546167977756518 ], [ -50.254201148261856, -21.546068756005724 ], [ -50.254273148147988, -21.545968756046541 ], [ -50.254273465429179, -21.54596831361987 ], [ -50.254343465384991, -21.545870313565484 ], [ -50.254120422646579, -21.545730872323883 ], [ -50.254145137295673, -21.545695366708042 ], [ -50.254195795460184, -21.545623849213214 ], [ -50.253938204682584, -21.545464150690613 ], [ -50.253887204649544, -21.545536150650864 ], [ -50.253886525185699, -21.545537118285477 ], [ -50.25381618087625, -21.545638176184141 ], [ -50.2537800699683, -21.545688330185055 ], [ -50.253554710963542, -21.545539720445966 ], [ -50.253499710934506, -21.545612720404115 ], [ -50.253499390346306, -21.545613147546849 ], [ -50.253458428340771, -21.545667934193471 ], [ -50.253250896384102, -21.545530474910368 ], [ -50.253222896369557, -21.545567474889108 ], [ -50.253221870535342, -21.545568847241615 ], [ -50.253143259131427, -21.545675320795155 ], [ -50.253064652695308, -21.545779797588136 ], [ -50.253064390163907, -21.545780147620377 ], [ -50.252984390120496, -21.545887147559323 ], [ -50.252983732877851, -21.545888033639368 ], [ -50.252906059611192, -21.54599358949741 ], [ -50.25282638987791, -21.546100147646627 ], [ -50.252824975140264, -21.546102072792234 ], [ -50.252747926980966, -21.546208754735556 ], [ -50.252667909598195, -21.546314456593485 ], [ -50.252666489532182, -21.54631636483607 ], [ -50.252588000103195, -21.546423666717764 ], [ -50.252507519374078, -21.546530974236997 ], [ -50.252506116257948, -21.546532877240622 ], [ -50.25242780955876, -21.546640920536323 ], [ -50.252347519126893, -21.546747974325918 ], [ -50.252347003957198, -21.546748665493205 ], [ -50.25226700391238, -21.546856665431914 ], [ -50.252266115887963, -21.546857877373515 ], [ -50.252187436310827, -21.546966435145322 ], [ -50.252106760219149, -21.547075995144798 ], [ -50.25210648866679, -21.547076365147067 ], [ -50.252027624012136, -21.547184179994403 ], [ -50.251946759970856, -21.547293995234043 ], [ -50.251945749329657, -21.547295384932795 ], [ -50.251867434335992, -21.547404430999041 ], [ -50.251787135470423, -21.547512487374945 ], [ -50.251785890111407, -21.547514188996242 ], [ -50.251705890062325, -21.547625188934305 ], [ -50.251705748953974, -21.547625385067565 ], [ -50.251626748904961, -21.547735385006305 ], [ -50.251626037000314, -21.547736385219974 ], [ -50.251547638961831, -21.547847531672858 ], [ -50.251468253774242, -21.547956686178683 ], [ -50.251466889549405, -21.547958594390085 ], [ -50.251389208970913, -21.548069139695045 ], [ -50.251309890508821, -21.548180185410313 ], [ -50.251230253394901, -21.548289686314799 ], [ -50.251228541460804, -21.548292091564999 ], [ -50.251151450651264, -21.548402785926061 ], [ -50.251071389720082, -21.54851249892641 ], [ -50.251069541207059, -21.548515091655705 ], [ -50.250992384197325, -21.548625881073264 ], [ -50.250913252887941, -21.548734686496648 ], [ -50.250912531333626, -21.54873568759621 ], [ -50.25083253128313, -21.54884768753406 ], [ -50.250832242869926, -21.548848092787349 ], [ -50.250754386585434, -21.548957889980269 ], [ -50.250674889496416, -21.549069185773174 ], [ -50.250595252382148, -21.549178686678115 ], [ -50.25059488821509, -21.549179189676227 ], [ -50.25051506960785, -21.549289937864252 ], [ -50.250435252130423, -21.549399686768496 ], [ -50.250434746932562, -21.549400385792264 ], [ -50.25035574688355, -21.549510385730997 ], [ -50.250277247683698, -21.549619688286306 ], [ -50.250196757196505, -21.549728996230353 ], [ -50.250412430732418, -21.549867990566 ], [ -50.250408622523395, -21.549873179240144 ], [ -50.25040797083691, -21.549874074328461 ], [ -50.250330481090245, -21.549981367699178 ], [ -50.25025100022183, -21.550088666749836 ], [ -50.250250345713667, -21.550089557428496 ], [ -50.250172345667544, -21.550196557368345 ], [ -50.250427654476695, -21.550359442537236 ], [ -50.250504206514762, -21.550254428724703 ], [ -50.250740671203708, -21.550416391494945 ], [ -50.25075774263636, -21.550394577975151 ], [ -50.250981757889107, -21.550540659302655 ], [ -50.251057689049368, -21.550438751578906 ], [ -50.251134416802671, -21.550336115638917 ], [ -50.25121121217726, -21.550234386589175 ], [ -50.251212941274723, -21.550232047597646 ], [ -50.251287763750476, -21.550128674321421 ], [ -50.251365539408319, -21.550027270505268 ], [ -50.251367554199305, -21.550024579577656 ], [ -50.251443482920486, -21.549920676997754 ], [ -50.251519951429508, -21.54981640163939 ], [ -50.251597484311986, -21.549713024347565 ], [ -50.251598795878863, -21.549711247507915 ], [ -50.251675675023698, -21.549605413757437 ], [ -50.251751152734336, -21.549502128350827 ], [ -50.25182974637147, -21.549396673478768 ], [ -50.251830940321753, -21.549395047939942 ], [ -50.251906483016626, -21.549290679622093 ], [ -50.251983018611448, -21.549187306753378 ], [ -50.251984172506461, -21.549185725983509 ], [ -50.252061056442301, -21.549078887142187 ], [ -50.252136676359207, -21.548974412135482 ], [ -50.252213410394901, -21.548869774694065 ], [ -50.252290410275315, -21.54876477473702 ], [ -50.252291172025963, -21.548763726155901 ], [ -50.252368055961647, -21.548656887314795 ], [ -50.252420631078309, -21.548584250576141 ], [ -50.252646139001094, -21.548729374013799 ], [ -50.252676188747181, -21.548736916200205 ], [ -50.252708262330344, -21.548693296096634 ], [ -50.252827615745502, -21.548770266359465 ], [ -50.252908142064499, -21.548784765473609 ], [ -50.252930534933945, -21.548784804006171 ], [ -50.252951373698494, -21.548777135633863 ], [ -50.253038967574149, -21.548725409822367 ], [ -50.253098794542701, -21.548646935401276 ], [ -50.253100301050239, -21.548644923381225 ], [ -50.253174894696684, -21.548543475906932 ], [ -50.25324948288273, -21.54844402488148 ], [ -50.253250300820213, -21.548442923463927 ], [ -50.253325098961312, -21.548341197876329 ], [ -50.253399895753702, -21.548240471415788 ], [ -50.253401390266148, -21.548238421472718 ], [ -50.253441521460687, -21.548182347704856 ], [ -50.253658961647794, -21.548320017269099 ], [ -50.253726801874151, -21.548226238023535 ], [ -50.253795922524297, -21.548131443880362 ], [ -50.253866186486889, -21.548038418249515 ], [ -50.253867214282295, -21.548037040585861 ], [ -50.253937214242342, -21.547942040532124 ], [ -50.253937640947306, -21.547941458394817 ], [ -50.254007212560111, -21.547846045787743 ], [ -50.254076778018643, -21.547752629209786 ], [ -50.25407736964079, -21.54775182901588 ], [ -50.254145713277474, -21.547658723086368 ], [ -50.254217042648563, -21.547564607840442 ], [ -50.254218213742476, -21.54756304077997 ], [ -50.254237175943125, -21.547537306351177 ], [ -50.254196489919885, -21.547594745355156 ], [ -50.254127780447391, -21.547690341030201 ], [ -50.25412761596251, -21.547690570351044 ], [ -50.254059615919864, -21.547785570298249 ], [ -50.253992694682317, -21.547879063094282 ], [ -50.253922813605378, -21.547971581600457 ], [ -50.253921038630068, -21.547973982645647 ], [ -50.253853038588829, -21.548067982593057 ], [ -50.253999138311713, -21.548160483973039 ], [ -50.25409439398728, -21.548130367970387 ], [ -50.254111776672595, -21.548128026162825 ], [ -50.254181083069426, -21.548130611627599 ], [ -50.254246186503323, -21.548044418253397 ], [ -50.254247931039906, -21.548042045969851 ], [ -50.254502599680066, -21.548196705343432 ], [ -50.254570430537058, -21.548098948987914 ], [ -50.254640260345298, -21.547999191997128 ], [ -50.254710260234198, -21.547899192033871 ], [ -50.254711738468608, -21.547897038920819 ] ] ] } }
]
}
