{
"type": "FeatureCollection",
"name": "306300_SITIO_SANTANA_17-04-2026_30-06-2026_14h16m",
"crs": { "type": "name", "properties": { "name": "urn:ogc:def:crs:OGC:1.3:CRS84" } },
"features": [
{ "type": "Feature", "properties": { "CHAVE": "3063001", "FAZENDA": "306300", "NOME_FAZ": "SITIO SANTANA", "ZONA": 999.0, "TALHAO": 1.0, "AREA_TOTAL": 15.350095060867069, "TIPO_GEO": "TALHAO", "DATA_INICI": null, "DATA_FINAL": null, "HORA_INICI": null, "HORA_FINAL": null, "CLASSE": null, "PILOTO": null, "AERONAVE": null, "AREA_HA": null }, "geometry": { "type": "Polygon", "coordinates": [ [ [ -50.244140402501699, -21.495782785710986 ], [ -50.2440231375572, -21.495881778101797 ], [ -50.243926871937902, -21.495977864612698 ], [ -50.2438851339735, -21.496071440084894 ], [ -50.243860524619699, -21.496129241989198 ], [ -50.243864762940902, -21.496164422809787 ], [ -50.243885277740901, -21.496193839816105 ], [ -50.243887432263598, -21.496196929273101 ], [ -50.243893348307097, -21.496202269458802 ], [ -50.2439234217156, -21.496229415562894 ], [ -50.244028488212201, -21.496272027562497 ], [ -50.244187270702298, -21.4963382431635 ], [ -50.244422670694298, -21.4964041157126 ], [ -50.244601432627803, -21.496453185189601 ], [ -50.244819117304502, -21.496525871523502 ], [ -50.245007328203798, -21.496599803268396 ], [ -50.245141018414508, -21.496674867350293 ], [ -50.245321147610497, -21.49674462556759 ], [ -50.245663886309302, -21.496853037341396 ], [ -50.245905103077298, -21.496934101868401 ], [ -50.246089001608603, -21.496987329629309 ], [ -50.246256704093, -21.497038415784598 ], [ -50.246503071144801, -21.497120881587602 ], [ -50.246791375753503, -21.497213877784809 ], [ -50.247027380288905, -21.497305948323405 ], [ -50.247081093784097, -21.497318600413294 ], [ -50.247106144321101, -21.497318023869905 ], [ -50.247146679247102, -21.497314759328905 ], [ -50.247188060811908, -21.497290125823806 ], [ -50.247588102236001, -21.497000293162305 ], [ -50.248519888649298, -21.496308148420681 ], [ -50.249115980808199, -21.495855795340105 ], [ -50.249199542795402, -21.495794120887002 ], [ -50.249219623872698, -21.495756981126597 ], [ -50.249219701694997, -21.495741813696601 ], [ -50.249203615259503, -21.495718300290296 ], [ -50.249179418402299, -21.495696129322404 ], [ -50.2490752962103, -21.495601207447997 ], [ -50.248714604258801, -21.495259000248101 ], [ -50.248571531453102, -21.495145977353005 ], [ -50.248429050354503, -21.495061224225488 ], [ -50.248216738594103, -21.49494651065741 ], [ -50.248091909496203, -21.494867352235286 ], [ -50.2480074624008, -21.494814574377592 ], [ -50.247983329649898, -21.49477999353029 ], [ -50.247979292316998, -21.494705515354593 ], [ -50.247990632788103, -21.494649031952605 ], [ -50.248027788325501, -21.494586459740997 ], [ -50.248089299737302, -21.494515034356489 ], [ -50.248147974248901, -21.494422223400996 ], [ -50.2481741470366, -21.494346502282092 ], [ -50.248169550052602, -21.494237549360101 ], [ -50.248149086590303, -21.494062338361193 ], [ -50.2481307197978, -21.493909199018496 ], [ -50.248128573691801, -21.493753374889593 ], [ -50.2481751461603, -21.493578465541393 ], [ -50.248217103778799, -21.493441454862602 ], [ -50.248239639096802, -21.493356754572705 ], [ -50.248255275331097, -21.49332442102849 ], [ -50.248242911544097, -21.493293340391897 ], [ -50.248223167036301, -21.493264984323702 ], [ -50.248159329445905, -21.493215746508085 ], [ -50.248032217467497, -21.493151056126592 ], [ -50.247896988226501, -21.49308908689019 ], [ -50.247764726983803, -21.493022994241802 ], [ -50.247631035086698, -21.492948621713882 ], [ -50.247558318998109, -21.492906927585597 ], [ -50.247450236478599, -21.492866453027698 ], [ -50.24733704354, -21.492816992601092 ], [ -50.247262078637, -21.492782872106694 ], [ -50.247121718333702, -21.492716053028506 ], [ -50.247099629384401, -21.492713885161095 ], [ -50.2470841419374, -21.492717262594901 ], [ -50.247064896738102, -21.492735101428799 ], [ -50.247001239507199, -21.492794106785198 ], [ -50.2469398134714, -21.492848985504892 ], [ -50.246868138097902, -21.492891408000894 ], [ -50.246740345680898, -21.492959086927396 ], [ -50.246562403853801, -21.493037570728696 ], [ -50.246405017174197, -21.493129935935201 ], [ -50.246158115003198, -21.493295667681299 ], [ -50.245936290573205, -21.493455307229095 ], [ -50.245783761192499, -21.49360560706879 ], [ -50.245657003865901, -21.493758091452502 ], [ -50.245511780041298, -21.493920144559908 ], [ -50.245394442304402, -21.494103006807791 ], [ -50.245348086781398, -21.494235170722803 ], [ -50.245299930734198, -21.494430755352802 ], [ -50.245259528757799, -21.494551225575702 ], [ -50.245211428814798, -21.494593064374392 ], [ -50.244867130768199, -21.495073430000904 ], [ -50.2445980132267, -21.495403146545204 ], [ -50.2444565232977, -21.495554873857394 ], [ -50.244336723987402, -21.495643270305695 ], [ -50.244140402501699, -21.495782785710986 ] ] ] } },
{ "type": "Feature", "properties": { "CHAVE": "3063002", "FAZENDA": "306300", "NOME_FAZ": "SITIO SANTANA", "ZONA": 999.0, "TALHAO": 2.0, "AREA_TOTAL": 10.63260640582107, "TIPO_GEO": "TALHAO", "DATA_INICI": null, "DATA_FINAL": null, "HORA_INICI": null, "HORA_FINAL": null, "CLASSE": null, "PILOTO": null, "AERONAVE": null, "AREA_HA": null }, "geometry": { "type": "Polygon", "coordinates": [ [ [ -50.252052560250803, -21.493660549644911 ], [ -50.251913384900902, -21.493520043936005 ], [ -50.251716874092502, -21.4933447535544 ], [ -50.2513912758602, -21.493054417347501 ], [ -50.251134613817399, -21.492825060560612 ], [ -50.250783351251705, -21.492511163667899 ], [ -50.250440193944698, -21.49219730287389 ], [ -50.2501476332639, -21.491930556678188 ], [ -50.249968759127306, -21.491769846118792 ], [ -50.249861642368899, -21.491696324593498 ], [ -50.249802662664109, -21.491657530963696 ], [ -50.2497960912672, -21.491661898507903 ], [ -50.249564705336397, -21.491818059081005 ], [ -50.249396904182298, -21.491924190855094 ], [ -50.24920925991011, -21.492029517036695 ], [ -50.249055593262497, -21.492131497897397 ], [ -50.248988385260503, -21.492190372355704 ], [ -50.248913536863, -21.492296754800893 ], [ -50.248817532449799, -21.492489338769399 ], [ -50.248732071246103, -21.4926316923335 ], [ -50.248640635497097, -21.492790560007595 ], [ -50.248535944923802, -21.4929486738856 ], [ -50.248438648930602, -21.493105408677998 ], [ -50.248361372826302, -21.493237407206802 ], [ -50.248279582495499, -21.493392773455092 ], [ -50.248199573331398, -21.493631524958801 ], [ -50.248173056367499, -21.493778813181308 ], [ -50.2481723236601, -21.493921431596796 ], [ -50.248178227801901, -21.494062027929399 ], [ -50.248205435574, -21.494214503298299 ], [ -50.2482116558174, -21.494295993600996 ], [ -50.248206913515197, -21.494356133967013 ], [ -50.248189670421809, -21.494403781615908 ], [ -50.248160601067902, -21.494463014356985 ], [ -50.248115230710198, -21.494540775308394 ], [ -50.248041815065399, -21.494646533361497 ], [ -50.248023182502997, -21.494708158829997 ], [ -50.2480331717722, -21.494755399551 ], [ -50.248051996879603, -21.494783479521896 ], [ -50.248126679388001, -21.494838843142198 ], [ -50.2483675372848, -21.494978473001492 ], [ -50.248542410023099, -21.495075113635203 ], [ -50.248694439228501, -21.495182723296796 ], [ -50.248990752571899, -21.495447469640993 ], [ -50.249221714353205, -21.495668478675601 ], [ -50.249261929588002, -21.495714085849894 ], [ -50.249278084742301, -21.495723932387499 ], [ -50.249301433933297, -21.495723701141397 ], [ -50.249320769362498, -21.495710858087609 ], [ -50.250287768014601, -21.495043684138196 ], [ -50.250964930711604, -21.494583410602807 ], [ -50.251411417589601, -21.494284810609198 ], [ -50.252119874842698, -21.493815225090795 ], [ -50.252114422918297, -21.493772175661093 ], [ -50.252091221085898, -21.493715389427198 ], [ -50.252052560250803, -21.493660549644911 ] ] ] } },
{ "type": "Feature", "properties": { "CHAVE": "3063002", "FAZENDA": "306300", "NOME_FAZ": "SITIO SANTANA", "ZONA": 999.0, "TALHAO": 2.0, "AREA_TOTAL": 2.0772974328532818, "TIPO_GEO": "TALHAO", "DATA_INICI": null, "DATA_FINAL": null, "HORA_INICI": null, "HORA_FINAL": null, "CLASSE": null, "PILOTO": null, "AERONAVE": null, "AREA_HA": null }, "geometry": { "type": "Polygon", "coordinates": [ [ [ -50.249440929720102, -21.491533058207999 ], [ -50.249273770874403, -21.4915205867011 ], [ -50.249162505295402, -21.491526291763208 ], [ -50.249003237352397, -21.491555222135403 ], [ -50.248815941357698, -21.491590920800398 ], [ -50.248657374541303, -21.491626748439199 ], [ -50.248459570600097, -21.491700318912201 ], [ -50.248317861516803, -21.491752768719184 ], [ -50.248175394437197, -21.491809351661004 ], [ -50.248014298487803, -21.491907217322495 ], [ -50.247924080108398, -21.491974376850198 ], [ -50.247824883662197, -21.492068384252899 ], [ -50.247735854900498, -21.492190704600389 ], [ -50.247589519024302, -21.492426525206703 ], [ -50.247505600324303, -21.492557831207197 ], [ -50.247424606811208, -21.492693287002798 ], [ -50.247350050101403, -21.492789860045384 ], [ -50.247382218524798, -21.492806509704398 ], [ -50.247517528808999, -21.492852622487593 ], [ -50.247593921039702, -21.492895712076493 ], [ -50.247703335171302, -21.492963770321794 ], [ -50.247929700356998, -21.493066827187892 ], [ -50.248075186089103, -21.493139873669694 ], [ -50.248216177660801, -21.493227378143196 ], [ -50.24826534944291, -21.493263450505594 ], [ -50.248283748134803, -21.493266980507595 ], [ -50.248296292533901, -21.493262900278005 ], [ -50.248389125183699, -21.493117155645301 ], [ -50.248493871568201, -21.492946644531695 ], [ -50.248629748292402, -21.492739043323692 ], [ -50.248721216675001, -21.492571919559296 ], [ -50.248835662590409, -21.492377321246902 ], [ -50.2488899087517, -21.49228586895569 ], [ -50.248929347530201, -21.492208828425301 ], [ -50.248956826500098, -21.492165516921098 ], [ -50.249010835478202, -21.492120256320504 ], [ -50.249095829712097, -21.492066172170993 ], [ -50.249306443343499, -21.491936813470801 ], [ -50.249513302657803, -21.491821226529098 ], [ -50.2497714368955, -21.491636906122793 ], [ -50.249689598464201, -21.491596225060892 ], [ -50.249599142784596, -21.491566172721093 ], [ -50.249440929720102, -21.491533058207999 ] ] ] } },
{ "type": "Feature", "properties": { "CHAVE": null, "FAZENDA": "Faz. ABC", "NOME_FAZ": null, "ZONA": null, "TALHAO": null, "AREA_TOTAL": null, "TIPO_GEO": "VOO_PROCESSADO", "DATA_INICI": "17-04-2026", "DATA_FINAL": "17-04-2026", "HORA_INICI": "11:32:17", "HORA_FINAL": "11:32:17", "CLASSE": "NÃO APLICADO DENTRO DO TALHÃO", "PILOTO": "valmir alves", "AERONAVE": "PS-CBA", "AREA_HA": 0.0015392393457860001 }, "geometry": { "type": "MultiPolygon", "coordinates": [ [ [ [ -50.248571531453102, -21.495145977353005 ], [ -50.248698542838007, -21.495246312244483 ], [ -50.248698542838007, -21.495246312244472 ], [ -50.248571531453102, -21.495145977353005 ] ] ], [ [ [ -50.243864762940902, -21.496164422809787 ], [ -50.243885277740901, -21.496193839816105 ], [ -50.243887432263598, -21.496196929273101 ], [ -50.243893348307097, -21.496202269458802 ], [ -50.2439234217156, -21.496229415562894 ], [ -50.244028488212201, -21.496272027562497 ], [ -50.244187270702298, -21.4963382431635 ], [ -50.244422670694298, -21.4964041157126 ], [ -50.244601432627803, -21.496453185189601 ], [ -50.244819117304502, -21.496525871523502 ], [ -50.245007328203798, -21.496599803268396 ], [ -50.245141018414508, -21.496674867350293 ], [ -50.245321147610497, -21.49674462556759 ], [ -50.245663886309302, -21.496853037341396 ], [ -50.245905103077298, -21.496934101868401 ], [ -50.246089001608603, -21.496987329629309 ], [ -50.246256704093, -21.497038415784598 ], [ -50.246503071144801, -21.497120881587602 ], [ -50.246791375753503, -21.497213877784809 ], [ -50.247027380288905, -21.497305948323405 ], [ -50.247081093784097, -21.497318600413294 ], [ -50.247106144321101, -21.497318023869905 ], [ -50.247146679247102, -21.497314759328905 ], [ -50.247188060811908, -21.497290125823806 ], [ -50.247588102236001, -21.497000293162305 ], [ -50.248519888649298, -21.496308148420681 ], [ -50.249115980808199, -21.495855795340105 ], [ -50.249199542795402, -21.495794120887002 ], [ -50.249219623872698, -21.495756981126597 ], [ -50.249219701694997, -21.495741813696601 ], [ -50.249203615259503, -21.495718300290296 ], [ -50.249179418402299, -21.495696129322404 ], [ -50.2490752962103, -21.495601207447997 ], [ -50.24892901514545, -21.495462422999399 ], [ -50.248867895768335, -21.495505484395206 ], [ -50.248866260125297, -21.495506621040711 ], [ -50.248778082014219, -21.495567057745905 ], [ -50.248690895893859, -21.495628484353734 ], [ -50.248690609441248, -21.495628685685855 ], [ -50.248603752855608, -21.495689585154111 ], [ -50.248516035520218, -21.495751386027674 ], [ -50.248427718090774, -21.495813902884123 ], [ -50.248342257756939, -21.495875513846833 ], [ -50.24834022596086, -21.495876953789026 ], [ -50.248252728480651, -21.495937907113468 ], [ -50.248168203440642, -21.495999826644237 ], [ -50.248166573658722, -21.496001004243087 ], [ -50.248080392807701, -21.496062420506259 ], [ -50.247995203570014, -21.49612482660104 ], [ -50.247993573786907, -21.49612600420075 ], [ -50.247907048643732, -21.496187665821427 ], [ -50.247820987194579, -21.496249986206344 ], [ -50.247734450896672, -21.496313645118395 ], [ -50.247732988219823, -21.496314707896545 ], [ -50.247648598401149, -21.496375270026086 ], [ -50.247563203893954, -21.49643782649289 ], [ -50.247562949814174, -21.496438012221141 ], [ -50.24747794987826, -21.496500012199782 ], [ -50.247393423360798, -21.496561666861588 ], [ -50.247308893961517, -21.496624318089609 ], [ -50.247117106185939, -21.496397681858152 ], [ -50.247202106158142, -21.496334681905381 ], [ -50.247203050297792, -21.496333987702307 ], [ -50.247288050361867, -21.496271987680959 ], [ -50.247372923186759, -21.496210080469417 ], [ -50.247458796223853, -21.496147173503036 ], [ -50.247460011956974, -21.496146292007115 ], [ -50.247544277184581, -21.496085819338763 ], [ -50.247630549221348, -21.496022354877955 ], [ -50.247631479453865, -21.496021675931345 ], [ -50.247718479423312, -21.495958675978919 ], [ -50.247719426390915, -21.495957995702494 ], [ -50.247805607274273, -21.495896579465295 ], [ -50.247890796547793, -21.495834173394879 ], [ -50.247892426519094, -21.495832995660148 ], [ -50.247978607402963, -21.495771579422581 ], [ -50.248063796677172, -21.495709173351692 ], [ -50.248066774218678, -21.495707046115381 ], [ -50.248154751939389, -21.495645758288489 ], [ -50.248239742358784, -21.495584486149628 ], [ -50.248240825397623, -21.495583712453303 ], [ -50.248329825364308, -21.495520712501193 ], [ -50.248330104125912, -21.495520515638741 ], [ -50.248418104092551, -21.495458515685947 ], [ -50.24841839073725, -21.495458314218961 ], [ -50.248505247352931, -21.495397414775933 ], [ -50.248593104218124, -21.495335515644516 ], [ -50.248594740054877, -21.495334378865241 ], [ -50.248682918192827, -21.495273942186255 ], [ -50.248709664637815, -21.49525509810708 ], [ -50.248708203674653, -21.495253943993376 ], [ -50.248698542838007, -21.495246312244483 ], [ -50.248636614066704, -21.495288061992657 ], [ -50.248548949266848, -21.495347833468269 ], [ -50.24846094923069, -21.495407833514403 ], [ -50.248460277839087, -21.495408288704851 ], [ -50.24837161424778, -21.495468061933543 ], [ -50.248283949448286, -21.495527833408921 ], [ -50.248195949412128, -21.495587833455051 ], [ -50.248195278019786, -21.495588288645976 ], [ -50.248106614429183, -21.495648061874196 ], [ -50.248018949533083, -21.495707833415452 ], [ -50.248018278140222, -21.495708288606746 ], [ -50.247929614549257, -21.4957680618352 ], [ -50.247841949750686, -21.495827833309974 ], [ -50.247753949714522, -21.495887833356079 ], [ -50.247753278320907, -21.495888288547892 ], [ -50.247665597441312, -21.495947399274598 ], [ -50.247578896271186, -21.496008484212542 ], [ -50.247577628788648, -21.496009367739383 ], [ -50.247491466216204, -21.496068790225337 ], [ -50.247406434636154, -21.496129103345815 ], [ -50.247319916687452, -21.496190759839234 ], [ -50.247235080186243, -21.496251921062537 ], [ -50.24715089362828, -21.49631431818435 ], [ -50.247148573970904, -21.496316004122978 ], [ -50.247062742428049, -21.49637717145399 ], [ -50.246978893758133, -21.496439318140816 ], [ -50.246977949805199, -21.496440012207195 ], [ -50.246894131082982, -21.496501150594991 ], [ -50.246812294288532, -21.496563267706744 ], [ -50.246810893981362, -21.496564318028234 ], [ -50.246725893953545, -21.496627318075472 ], [ -50.246725648465592, -21.496627499646937 ], [ -50.246641648437745, -21.496689499693481 ], [ -50.24647605651468, -21.496493002482168 ], [ -50.246421643453161, -21.496530965097925 ], [ -50.246337949860816, -21.496592012213078 ], [ -50.246336988486597, -21.496592707778678 ], [ -50.246251988455953, -21.49665370782488 ], [ -50.246096225192289, -21.496463607000408 ], [ -50.246045520923396, -21.49650032389961 ], [ -50.246045258467881, -21.496500513532379 ], [ -50.245959258437267, -21.496562513579278 ], [ -50.245804561428599, -21.496374573631083 ], [ -50.245775064910504, -21.496395065956531 ], [ -50.245773827669822, -21.496395916619761 ], [ -50.245676827629758, -21.496461916670516 ], [ -50.245675920339686, -21.496462529313156 ], [ -50.245578920298215, -21.496527529363355 ], [ -50.245578310679051, -21.496527935783366 ], [ -50.245480310636225, -21.4965929358337 ], [ -50.245479998767081, -21.496593142143947 ], [ -50.245384890608406, -21.496655893940787 ], [ -50.245349741659574, -21.496680593211092 ], [ -50.245164258485651, -21.496449406740123 ], [ -50.245201258471518, -21.496423406759934 ], [ -50.245205001417908, -21.496420857761567 ], [ -50.245301845303771, -21.49635696078612 ], [ -50.24539938412822, -21.496292266689775 ], [ -50.245495624973053, -21.49622777542433 ], [ -50.245591551595602, -21.496162505786963 ], [ -50.245685799633378, -21.496097028226856 ], [ -50.245781532131808, -21.496030214945716 ], [ -50.245878400181901, -21.495962307472279 ], [ -50.245879279539331, -21.495961695560492 ], [ -50.245975529347071, -21.495895213759404 ], [ -50.24607047522445, -21.495827960455316 ], [ -50.246164924152609, -21.495760354933363 ], [ -50.246261263106305, -21.495690832005085 ], [ -50.246357845121395, -21.495620137981689 ], [ -50.24635807092838, -21.495619973015827 ], [ -50.246454070895346, -21.495549973068567 ], [ -50.246455535293777, -21.495548918391062 ], [ -50.246550642603424, -21.49548126476537 ], [ -50.246643795089774, -21.495410665016152 ], [ -50.246646683690855, -21.495408528603622 ], [ -50.246742847688445, -21.495339131932724 ], [ -50.246838715000706, -21.495267972720438 ], [ -50.246934410621428, -21.495196201035728 ], [ -50.246936683911336, -21.495194528530593 ], [ -50.247033263691158, -21.495124831810493 ], [ -50.247126678729352, -21.495056455882636 ], [ -50.247058603960177, -21.495103691454524 ], [ -50.246963766541768, -21.495170867985173 ], [ -50.246867316036933, -21.495240471469824 ], [ -50.246865598982893, -21.495241692785928 ], [ -50.246769772298194, -21.495308870281772 ], [ -50.246674928722847, -21.495378027083028 ], [ -50.246673464538802, -21.495379081606966 ], [ -50.246576464502951, -21.495448081659344 ], [ -50.246575599193896, -21.495448692716533 ], [ -50.24647934207114, -21.495516171962631 ], [ -50.246384078209537, -21.495584642889931 ], [ -50.24638082684438, -21.495586916872604 ], [ -50.246285156245762, -21.495652012355425 ], [ -50.246189464781523, -21.495720081567036 ], [ -50.246188064320165, -21.495721066096163 ], [ -50.246093199950849, -21.495786971893097 ], [ -50.245997335464843, -21.495853877340636 ], [ -50.245901335427547, -21.495920877391786 ], [ -50.245901064523288, -21.495921066029389 ], [ -50.245806827640116, -21.495986535888804 ], [ -50.245713583730129, -21.496052996999129 ], [ -50.245711158042731, -21.496054691060625 ], [ -50.245616300620249, -21.496119593531045 ], [ -50.245521203361989, -21.496184972920247 ], [ -50.245426956848554, -21.496251441538927 ], [ -50.245426421507311, -21.496251817396146 ], [ -50.245333421573491, -21.49631681737435 ], [ -50.245240421537481, -21.496381817423977 ], [ -50.245056156898443, -21.496150907209696 ], [ -50.244990236761495, -21.496195316580611 ], [ -50.244988678186502, -21.496196352922318 ], [ -50.244892678143614, -21.496259352971233 ], [ -50.244715321998235, -21.496022646984226 ], [ -50.244810539241925, -21.495960160689105 ], [ -50.244904448383053, -21.495896895605288 ], [ -50.24499798824111, -21.495833208916025 ], [ -50.245092842164077, -21.495768308886738 ], [ -50.245094386025038, -21.495767266164062 ], [ -50.245189610725689, -21.495703783052395 ], [ -50.245283527527384, -21.495639524210979 ], [ -50.245377074755552, -21.495574837321552 ], [ -50.245471935813477, -21.495508933874138 ], [ -50.245473464715602, -21.495507885245821 ], [ -50.24556900999147, -21.495443193155015 ], [ -50.245664557671482, -21.495377504148621 ], [ -50.245666080781483, -21.495376470318082 ], [ -50.24576308084653, -21.495311470296905 ], [ -50.245860080805073, -21.495246470347087 ], [ -50.245860386545758, -21.49524626599516 ], [ -50.245955326994476, -21.4951829723849 ], [ -50.246051280308208, -21.495116695377458 ], [ -50.246053081042788, -21.495115470233067 ], [ -50.246149772544022, -21.495050676981556 ], [ -50.246245465134876, -21.494985885145816 ], [ -50.246246690893912, -21.494985063703481 ], [ -50.246343477337987, -21.494920868635408 ], [ -50.246439280573483, -21.494854695290108 ], [ -50.246442294574763, -21.494852665373283 ], [ -50.246539461052386, -21.494788869223253 ], [ -50.246633665603134, -21.494723122320778 ], [ -50.246638216262106, -21.494720064935684 ], [ -50.246734911371831, -21.494657554987072 ], [ -50.246828533615805, -21.494592214485849 ], [ -50.246925401665685, -21.494524307012583 ], [ -50.246926281015249, -21.494523695106235 ], [ -50.247022217274811, -21.49445742987978 ], [ -50.247115195195036, -21.494390877289415 ], [ -50.247210235124612, -21.494320587370449 ], [ -50.247212167310082, -21.494319181487512 ], [ -50.247306306104036, -21.49425179795686 ], [ -50.247353519411938, -21.494217009217934 ], [ -50.247284307892457, -21.49426159742281 ], [ -50.247182032437181, -21.494329119104705 ], [ -50.247181731805583, -21.494329317078815 ], [ -50.247079882312647, -21.494396218238538 ], [ -50.246977759480252, -21.494463639160497 ], [ -50.2468764803913, -21.494532151509034 ], [ -50.246873258448829, -21.494534273041211 ], [ -50.246771883943055, -21.494599231483704 ], [ -50.246671480526871, -21.494667151464611 ], [ -50.246670612881914, -21.494667734137391 ], [ -50.246568612837834, -21.494735734189948 ], [ -50.246568317918609, -21.494735930315777 ], [ -50.246467465568024, -21.4948028323928 ], [ -50.246365761395914, -21.494870635197344 ], [ -50.246265909528709, -21.494937535971328 ], [ -50.246265613151628, -21.494937734049671 ], [ -50.246164061232136, -21.495005435352716 ], [ -50.246065507029812, -21.495072133674473 ], [ -50.24606519893981, -21.495072341640206 ], [ -50.245964353189578, -21.495140237812606 ], [ -50.245865507165462, -21.495207133630153 ], [ -50.24586519907524, -21.495207341596036 ], [ -50.245764353323501, -21.495275237769476 ], [ -50.245665507301126, -21.49534213358584 ], [ -50.245664613554652, -21.495342733919362 ], [ -50.245565761937527, -21.495408635020009 ], [ -50.245466956643888, -21.495474834590116 ], [ -50.245369990550103, -21.495542117210086 ], [ -50.245367919389487, -21.495543529573247 ], [ -50.245271517187412, -21.495608129009646 ], [ -50.245174416068245, -21.495674514492343 ], [ -50.24507772011598, -21.495741304504325 ], [ -50.245076826980949, -21.495741916796376 ], [ -50.244980307945461, -21.49580758956585 ], [ -50.24488672035524, -21.49587230438711 ], [ -50.244789892594149, -21.495939185442626 ], [ -50.244695064484212, -21.496005066048621 ], [ -50.244694157973399, -21.496005691051398 ], [ -50.244600379751709, -21.496069855121636 ], [ -50.244507583794793, -21.496135996945853 ], [ -50.244394192070679, -21.495996659628254 ], [ -50.244338692381575, -21.496035627509823 ], [ -50.244153307763611, -21.495804372441444 ], [ -50.244247307727655, -21.495738372491743 ], [ -50.244247579052683, -21.495738182421867 ], [ -50.244340125186099, -21.495673499665045 ], [ -50.244432227454816, -21.495608136790011 ], [ -50.244524783523175, -21.495541456638108 ], [ -50.2445272140451, -21.495539741049562 ], [ -50.244619544138843, -21.495475895796453 ], [ -50.24471090800624, -21.495409092134935 ], [ -50.24471241686733, -21.495408002842431 ], [ -50.244806291458609, -21.495341092255767 ], [ -50.244901166244631, -21.495273181909333 ], [ -50.244901417005728, -21.495273002796626 ], [ -50.244995291596176, -21.495206092210534 ], [ -50.245090044191663, -21.495138269326848 ], [ -50.245185922151826, -21.495069357070296 ], [ -50.245186166558419, -21.495069181765199 ], [ -50.24528116652391, -21.495001181816743 ], [ -50.245281786884007, -21.495000740086869 ], [ -50.245377041552004, -21.494933268056901 ], [ -50.245471303104644, -21.494864804430211 ], [ -50.245473401444748, -21.494863307074151 ], [ -50.245568913942606, -21.494796349885423 ], [ -50.245662453686194, -21.494727425891689 ], [ -50.245664787165367, -21.49472573999401 ], [ -50.245760661591454, -21.494657828968506 ], [ -50.245857109256647, -21.494589221893374 ], [ -50.245953684536069, -21.494519528420465 ], [ -50.2459539228227, -21.494519356806816 ], [ -50.246049922788238, -21.494450356859023 ], [ -50.246050536456032, -21.494449918063395 ], [ -50.246147109470115, -21.494381221822671 ], [ -50.246243684750212, -21.494311528349261 ], [ -50.246246010616424, -21.494309882417166 ], [ -50.246342839452737, -21.494242695086982 ], [ -50.246438684892226, -21.494173528301967 ], [ -50.246440144625538, -21.494172487766775 ], [ -50.246538144588335, -21.49410348781932 ], [ -50.246539010826609, -21.494102882348223 ], [ -50.246637010787985, -21.494034882400232 ], [ -50.246637613718406, -21.494034466157199 ], [ -50.246735695793852, -21.493967096675856 ], [ -50.246830893754115, -21.493899664879688 ], [ -50.246929893716938, -21.493829664932928 ], [ -50.246930144975515, -21.493829487651212 ], [ -50.247028144938305, -21.49376048770376 ], [ -50.247029011174789, -21.493759882233928 ], [ -50.247126879135458, -21.493691973878303 ], [ -50.247225747307176, -21.493623065784309 ], [ -50.247227211200936, -21.493622057969755 ], [ -50.247325739092084, -21.493555059028495 ], [ -50.247422292595012, -21.493486092266867 ], [ -50.247424614274657, -21.493484465975282 ], [ -50.247523312339183, -21.493416673390112 ], [ -50.24762057734366, -21.493349183412111 ], [ -50.247718145427989, -21.493280487541949 ], [ -50.247719011661964, -21.493279882073857 ], [ -50.247816879625965, -21.493211973715923 ], [ -50.24791501718957, -21.493143574833912 ], [ -50.247954441145836, -21.493115414876026 ], [ -50.247896988226501, -21.49308908689019 ], [ -50.247764726983803, -21.493022994241802 ], [ -50.247631035086698, -21.492948621713882 ], [ -50.247558318998109, -21.492906927585597 ], [ -50.247450236478599, -21.492866453027698 ], [ -50.24733704354, -21.492816992601092 ], [ -50.247262078637, -21.492782872106694 ], [ -50.247121718333702, -21.492716053028506 ], [ -50.247099629384401, -21.492713885161095 ], [ -50.2470841419374, -21.492717262594901 ], [ -50.247064896738102, -21.492735101428799 ], [ -50.247001239507199, -21.492794106785198 ], [ -50.2469398134714, -21.492848985504892 ], [ -50.246868138097902, -21.492891408000894 ], [ -50.246740345680898, -21.492959086927396 ], [ -50.246562403853801, -21.493037570728696 ], [ -50.246405017174197, -21.493129935935201 ], [ -50.246158115003198, -21.493295667681299 ], [ -50.245936290573205, -21.493455307229095 ], [ -50.245783761192499, -21.49360560706879 ], [ -50.245657003865901, -21.493758091452502 ], [ -50.245511780041298, -21.493920144559908 ], [ -50.245394442304402, -21.494103006807791 ], [ -50.245348086781398, -21.494235170722803 ], [ -50.245299930734198, -21.494430755352802 ], [ -50.245259528757799, -21.494551225575702 ], [ -50.245211428814798, -21.494593064374392 ], [ -50.244867130768199, -21.495073430000904 ], [ -50.2445980132267, -21.495403146545204 ], [ -50.2444565232977, -21.495554873857394 ], [ -50.244336723987402, -21.495643270305695 ], [ -50.244140402501699, -21.495782785710986 ], [ -50.2440231375572, -21.495881778101797 ], [ -50.243926871937902, -21.495977864612698 ], [ -50.2438851339735, -21.496071440084894 ], [ -50.243860524619699, -21.496129241989198 ], [ -50.243864762940902, -21.496164422809787 ] ] ], [ [ [ -50.248173014370956, -21.494319657021968 ], [ -50.248169550052602, -21.494237549360101 ], [ -50.248173014370956, -21.494319657021958 ], [ -50.248173014370956, -21.494319657021968 ] ] ], [ [ [ -50.250783351251705, -21.492511163667899 ], [ -50.250440193944698, -21.49219730287389 ], [ -50.2501476332639, -21.491930556678188 ], [ -50.249968759127306, -21.491769846118792 ], [ -50.249861642368899, -21.491696324593498 ], [ -50.249802662664109, -21.491657530963696 ], [ -50.2497960912672, -21.491661898507903 ], [ -50.249564705336397, -21.491818059081005 ], [ -50.249396904182298, -21.491924190855094 ], [ -50.24920925991011, -21.492029517036695 ], [ -50.249055593262497, -21.492131497897397 ], [ -50.248988385260503, -21.492190372355704 ], [ -50.248913536863, -21.492296754800893 ], [ -50.248817532449799, -21.492489338769399 ], [ -50.248732071246103, -21.4926316923335 ], [ -50.248640635497097, -21.492790560007595 ], [ -50.248535944923802, -21.4929486738856 ], [ -50.248464419530301, -21.493063894639636 ], [ -50.248487969628115, -21.49309301559736 ], [ -50.248530994311565, -21.493062594141477 ], [ -50.248632994273095, -21.492990594196268 ], [ -50.248633490644053, -21.492990245279007 ], [ -50.248733490605524, -21.492920245332407 ], [ -50.248734666240466, -21.492919430484626 ], [ -50.248836076431544, -21.492849835281049 ], [ -50.248935490748053, -21.492780245285399 ], [ -50.249120509396967, -21.49301175466606 ], [ -50.249020509358431, -21.493081754719448 ], [ -50.249019333944887, -21.493082569414359 ], [ -50.248917923783551, -21.493152164648748 ], [ -50.248818758061141, -21.493221580680409 ], [ -50.248717055761254, -21.493293370566569 ], [ -50.248671663373543, -21.493325466206599 ], [ -50.248824646503373, -21.493507317851485 ], [ -50.24883074740282, -21.493503065711032 ], [ -50.248831011409337, -21.493502882115056 ], [ -50.248929011370727, -21.493434882167044 ], [ -50.249112988773888, -21.493667117784955 ], [ -50.249015120844952, -21.493735026169084 ], [ -50.248916252703424, -21.493803934293393 ], [ -50.248915988912934, -21.49380411773928 ], [ -50.248910399100751, -21.493807996385918 ], [ -50.249053901874206, -21.493983256161407 ], [ -50.249072717355951, -21.493970712511274 ], [ -50.249160052107271, -21.493911166110841 ], [ -50.249163403027694, -21.493908944601024 ], [ -50.249252893614255, -21.49385127290828 ], [ -50.249341211927579, -21.493793375366739 ], [ -50.249428052285552, -21.493734166052295 ], [ -50.249431403202081, -21.493731944545061 ], [ -50.249521403259195, -21.493673944526684 ], [ -50.249609553611592, -21.493617136540813 ], [ -50.249696741779324, -21.493557378379045 ], [ -50.249879258364722, -21.493790621573723 ], [ -50.249790258328595, -21.493851621620539 ], [ -50.2497865969233, -21.493854055384602 ], [ -50.249696596980399, -21.493912055366216 ], [ -50.249608288177249, -21.493968965502766 ], [ -50.24958085874438, -21.493987667395213 ], [ -50.249760894526496, -21.494211484741228 ], [ -50.249724567752423, -21.494237078614564 ], [ -50.249880561178706, -21.494435413766027 ], [ -50.249790561142625, -21.494497413813537 ], [ -50.249789948409841, -21.494497833748369 ], [ -50.249701948373684, -21.494557833794477 ], [ -50.249700612817691, -21.49455873424446 ], [ -50.249611283219167, -21.494618287330848 ], [ -50.249524255511162, -21.49467762442551 ], [ -50.249434893746688, -21.494739184774666 ], [ -50.249346224759392, -21.49480095420444 ], [ -50.249344948716328, -21.494801833648179 ], [ -50.249257440993667, -21.494861498026161 ], [ -50.24916993042936, -21.494922158780387 ], [ -50.249168277352148, -21.494923288863248 ], [ -50.249080596464601, -21.494982399595347 ], [ -50.248993895383514, -21.495043484470546 ], [ -50.248905895350163, -21.495105484517751 ], [ -50.248902950168244, -21.495107508894844 ], [ -50.248815759798291, -21.495165966095339 ], [ -50.248736666890203, -21.495220452340423 ], [ -50.248746442444322, -21.49522918648039 ], [ -50.248770104440304, -21.495212515534927 ], [ -50.248858104406949, -21.495150515582139 ], [ -50.248859438096083, -21.495149586420219 ], [ -50.248949438059988, -21.495087586467715 ], [ -50.248949740304504, -21.495087378783637 ], [ -50.249037918443847, -21.495026942103703 ], [ -50.24912510459572, -21.494965515519727 ], [ -50.249127051115032, -21.494964166356869 ], [ -50.249214744159111, -21.494904375666568 ], [ -50.249304438308002, -21.494842586386412 ], [ -50.24930605009277, -21.494841490971837 ], [ -50.249393571133126, -21.494782812113023 ], [ -50.249484073091757, -21.494721151459682 ], [ -50.249572051323838, -21.494661166322892 ], [ -50.249573387077184, -21.494660265740485 ], [ -50.249662407350819, -21.494600918912173 ], [ -50.249751438614574, -21.494539586285686 ], [ -50.249753387199128, -21.494538265700939 ], [ -50.249843387259055, -21.494478265681472 ], [ -50.249933387220189, -21.494418265727862 ], [ -50.250112612922479, -21.494653734226617 ], [ -50.25002261298242, -21.494713734207139 ], [ -50.24993359273131, -21.494773081062014 ], [ -50.249844561493624, -21.494834413714276 ], [ -50.249842613104356, -21.494835734167587 ], [ -50.249753283506692, -21.494895287253414 ], [ -50.249665905338631, -21.494954863287177 ], [ -50.249574905301181, -21.495016863334843 ], [ -50.249573950087743, -21.495017508936748 ], [ -50.249486759717087, -21.495075966137701 ], [ -50.249397561800187, -21.495137413613563 ], [ -50.249396949064909, -21.495137833550096 ], [ -50.249309927941454, -21.495197166156029 ], [ -50.249222895516255, -21.495258484478505 ], [ -50.249221259875661, -21.495259621122308 ], [ -50.249132411096213, -21.495320517498872 ], [ -50.249043231565366, -21.495381952309526 ], [ -50.248972890716452, -21.495431510653525 ], [ -50.248990752571899, -21.495447469640993 ], [ -50.249221714353205, -21.495668478675601 ], [ -50.249261929588002, -21.495714085849894 ], [ -50.249278084742301, -21.495723932387499 ], [ -50.249301433933297, -21.495723701141397 ], [ -50.249320769362498, -21.495710858087609 ], [ -50.250287768014601, -21.495043684138196 ], [ -50.250964930711604, -21.494583410602807 ], [ -50.251411417589601, -21.494284810609198 ], [ -50.252119874842698, -21.493815225090795 ], [ -50.252114422918297, -21.493772175661093 ], [ -50.252091221085898, -21.493715389427198 ], [ -50.252052560250803, -21.493660549644911 ], [ -50.251913384900902, -21.493520043936005 ], [ -50.251716874092502, -21.4933447535544 ], [ -50.2513912758602, -21.493054417347501 ], [ -50.251134613817399, -21.492825060560612 ], [ -50.250783351251705, -21.492511163667899 ] ] ], [ [ [ -50.248326411984557, -21.493215613592952 ], [ -50.248389125183699, -21.493117155645301 ], [ -50.248326411984564, -21.493215613592941 ], [ -50.248326411984557, -21.493215613592952 ] ] ], [ [ [ -50.248459570600097, -21.491700318912201 ], [ -50.248317861516803, -21.491752768719184 ], [ -50.248175394437197, -21.491809351661004 ], [ -50.248014298487803, -21.491907217322495 ], [ -50.247924080108398, -21.491974376850198 ], [ -50.247824883662197, -21.492068384252899 ], [ -50.247735854900498, -21.492190704600389 ], [ -50.247589519024302, -21.492426525206703 ], [ -50.247505600324303, -21.492557831207197 ], [ -50.247424606811208, -21.492693287002798 ], [ -50.247350050101403, -21.492789860045384 ], [ -50.247382218524798, -21.492806509704398 ], [ -50.247517528808999, -21.492852622487593 ], [ -50.247593921039702, -21.492895712076493 ], [ -50.247703335171302, -21.492963770321794 ], [ -50.247929700356998, -21.493066827187892 ], [ -50.247984173539805, -21.493094177459973 ], [ -50.248012293017439, -21.493074092126566 ], [ -50.248014011872087, -21.493072882004903 ], [ -50.248111451362099, -21.493005270955614 ], [ -50.248209841793553, -21.492935701990152 ], [ -50.248305788959918, -21.492867739440207 ], [ -50.248440223653617, -21.493033975141742 ], [ -50.248493871568201, -21.492946644531695 ], [ -50.248629748292402, -21.492739043323692 ], [ -50.248721216675001, -21.492571919559296 ], [ -50.248835662590409, -21.492377321246902 ], [ -50.2488899087517, -21.49228586895569 ], [ -50.248929347530201, -21.492208828425301 ], [ -50.248956826500098, -21.492165516921098 ], [ -50.249010835478202, -21.492120256320504 ], [ -50.249095829712097, -21.492066172170993 ], [ -50.249306443343499, -21.491936813470801 ], [ -50.249513302657803, -21.491821226529098 ], [ -50.2497714368955, -21.491636906122793 ], [ -50.249689598464201, -21.491596225060892 ], [ -50.249599142784596, -21.491566172721093 ], [ -50.249440929720102, -21.491533058207999 ], [ -50.249273770874403, -21.4915205867011 ], [ -50.249162505295402, -21.491526291763208 ], [ -50.249003237352397, -21.491555222135403 ], [ -50.248815941357698, -21.491590920800398 ], [ -50.248657374541303, -21.491626748439199 ], [ -50.248459570600097, -21.491700318912201 ] ] ] ] } },
{ "type": "Feature", "properties": { "CHAVE": null, "FAZENDA": "Faz. ABC", "NOME_FAZ": null, "ZONA": null, "TALHAO": null, "AREA_TOTAL": null, "TIPO_GEO": "VOO_PROCESSADO", "DATA_INICI": "17-04-2026", "DATA_FINAL": "17-04-2026", "HORA_INICI": "11:32:17", "HORA_FINAL": "11:32:17", "CLASSE": "SOBREPOSIÇÃO", "PILOTO": "valmir alves", "AERONAVE": "PS-CBA", "AREA_HA": 0.000114899170933 }, "geometry": { "type": "MultiPolygon", "coordinates": [ [ [ [ -50.249430051612997, -21.494384166244334 ], [ -50.249342051649165, -21.494444166198225 ], [ -50.249341438720712, -21.494444586266848 ], [ -50.249251438756801, -21.494506586219341 ], [ -50.249250775350703, -21.494507045794673 ], [ -50.249162410996163, -21.494568602962808 ], [ -50.249075051463628, -21.494628166258803 ], [ -50.249074069680461, -21.494628841218343 ], [ -50.248986892252333, -21.494689271004553 ], [ -50.248898722828599, -21.494748711044281 ], [ -50.248896104825107, -21.494750515459607 ], [ -50.248808104858462, -21.494812515412402 ], [ -50.248721564590277, -21.494873486942495 ], [ -50.248635050012261, -21.49493149101373 ], [ -50.248633438226754, -21.494932586428817 ], [ -50.248544077969335, -21.494994145695141 ], [ -50.248455722522351, -21.495053711143854 ], [ -50.24845505093743, -21.495054166465021 ], [ -50.248367050973599, -21.495114166418901 ], [ -50.248279385956522, -21.495173938000278 ], [ -50.248190722341675, -21.495233711202697 ], [ -50.248190050755994, -21.495234166524391 ], [ -50.248102050792163, -21.495294166478267 ], [ -50.248014385774539, -21.495353938059999 ], [ -50.247925722160993, -21.495413711261552 ], [ -50.247925050574544, -21.49541416658376 ], [ -50.24783738565381, -21.495473938099444 ], [ -50.247748722040548, -21.495533711300801 ], [ -50.247748050453595, -21.495534166623351 ], [ -50.24766005048977, -21.495594166577241 ], [ -50.247572385472928, -21.495653938158437 ], [ -50.247483721859865, -21.495713711359652 ], [ -50.247481103840798, -21.495715515785708 ], [ -50.247393735199999, -21.495777070941283 ], [ -50.247307371390498, -21.495836632167048 ], [ -50.247305704855719, -21.495837797789864 ], [ -50.24721970488774, -21.495898797743504 ], [ -50.24721942636674, -21.495898995763959 ], [ -50.247132426398721, -21.495960995716899 ], [ -50.24713174198169, -21.495961486291851 ], [ -50.24704574201229, -21.496023486244965 ], [ -50.247044106491387, -21.496024681810635 ], [ -50.246960257782909, -21.496086828474851 ], [ -50.246874426206922, -21.496147995780262 ], [ -50.246872106361529, -21.49614968185417 ], [ -50.246787576924419, -21.49621233305783 ], [ -50.246703050370847, -21.496273987694913 ], [ -50.246700705834783, -21.496275732286314 ], [ -50.246618402753171, -21.496338203272845 ], [ -50.246534228838243, -21.496400590971323 ], [ -50.246450351709555, -21.496462500254577 ], [ -50.24647605651468, -21.496493002482168 ], [ -50.246506315513969, -21.496471891544253 ], [ -50.246507574026339, -21.496471004128754 ], [ -50.246594093514446, -21.496409346538666 ], [ -50.246680610156794, -21.496348685421374 ], [ -50.246680896610577, -21.496348484088415 ], [ -50.246768265221391, -21.496286928907619 ], [ -50.246854629001959, -21.496227367657479 ], [ -50.246854931745517, -21.49622715833539 ], [ -50.246942931780282, -21.49616615828873 ], [ -50.246943226138818, -21.496165953737723 ], [ -50.247031590460736, -21.496104396547008 ], [ -50.247118949962093, -21.496044833228989 ], [ -50.247120896299336, -21.49604348419134 ], [ -50.247208264910746, -21.495981929010114 ], [ -50.247294628693069, -21.495922367758777 ], [ -50.247295896174826, -21.495921484232472 ], [ -50.247383415195387, -21.495859823081052 ], [ -50.247470931407889, -21.495799158411035 ], [ -50.247471225765779, -21.495798953860493 ], [ -50.247560225800505, -21.495736953813125 ], [ -50.247561294848246, -21.495736202330885 ], [ -50.247646761999135, -21.495675580258816 ], [ -50.247735225675434, -21.495613953854221 ], [ -50.247737257467946, -21.495612513914576 ], [ -50.247822247854813, -21.495551241751258 ], [ -50.247910225549333, -21.495489953895635 ], [ -50.247910609185986, -21.495489685776981 ], [ -50.247997609219382, -21.495428685730452 ], [ -50.248001131429071, -21.495426141184964 ], [ -50.248084732554645, -21.495363926368725 ], [ -50.248171259903231, -21.495304621084536 ], [ -50.248174257148953, -21.495302514020679 ], [ -50.248258772124473, -21.49524158459619 ], [ -50.248346259778884, -21.495181621125138 ], [ -50.248349257022433, -21.49517951406283 ], [ -50.248433619576922, -21.495118694523377 ], [ -50.248519948968323, -21.49505983355273 ], [ -50.248522572578374, -21.495058004608982 ], [ -50.248608271059922, -21.494996932104719 ], [ -50.248694948845262, -21.494937833592871 ], [ -50.248696224889294, -21.494936954148471 ], [ -50.24878343819929, -21.49487619878721 ], [ -50.248871613907546, -21.49481839469178 ], [ -50.248873948626667, -21.494816833698678 ], [ -50.248961948662838, -21.494756833652556 ], [ -50.248962930252766, -21.494756158825396 ], [ -50.249049614292751, -21.494696071003432 ], [ -50.249137277965225, -21.494637956863169 ], [ -50.249137612789852, -21.494637734274285 ], [ -50.249227612828733, -21.494577734227885 ], [ -50.249229930070292, -21.494576158885547 ], [ -50.249316614111883, -21.494516071062474 ], [ -50.249404277785757, -21.494457956921259 ], [ -50.249407894678832, -21.494455484726977 ], [ -50.249494927108508, -21.494394166401349 ], [ -50.249581613100403, -21.494335062294482 ], [ -50.2496702766936, -21.494275289064504 ], [ -50.249672894493152, -21.49427348478844 ], [ -50.249724567752423, -21.494237078614564 ], [ -50.249697438965576, -21.494202586186425 ], [ -50.249607744816387, -21.494264375466798 ], [ -50.24952071698381, -21.494323712604338 ], [ -50.249431387363849, -21.494383265663615 ], [ -50.249430051612997, -21.494384166244334 ] ] ], [ [ [ -50.249310105433153, -21.494162515271249 ], [ -50.249223894759822, -21.494223254587059 ], [ -50.249136722395534, -21.494281042987851 ], [ -50.249134070039538, -21.49428284111319 ], [ -50.249047220890318, -21.494343043342724 ], [ -50.248958554606702, -21.494402154177745 ], [ -50.248869722216057, -21.494461043045966 ], [ -50.248867069857049, -21.494462841173341 ], [ -50.248779559265245, -21.494523501902314 ], [ -50.248693211128966, -21.494582375610907 ], [ -50.248604386274501, -21.494640605217906 ], [ -50.248600775220787, -21.494643045850665 ], [ -50.248512410867036, -21.494704603018278 ], [ -50.248425051334699, -21.49476416631412 ], [ -50.248422427535473, -21.494765995388363 ], [ -50.248336729022661, -21.494827067868595 ], [ -50.248250051211627, -21.494886166354267 ], [ -50.248246743093297, -21.494888485933632 ], [ -50.248162228082968, -21.49494941533613 ], [ -50.248074740401286, -21.495009378780843 ], [ -50.248071742966765, -21.495011485975763 ], [ -50.247987227957587, -21.495072415377422 ], [ -50.247899740276942, -21.49513237882141 ], [ -50.247894868690786, -21.49513585881046 ], [ -50.247810610238851, -21.495198562748985 ], [ -50.247725582555958, -21.495258179836522 ], [ -50.247636774630223, -21.495320046008764 ], [ -50.247634742647769, -21.495321486081895 ], [ -50.247549752226725, -21.495382758221933 ], [ -50.247461774504096, -21.495444046050174 ], [ -50.247460705265361, -21.495444797666067 ], [ -50.247375238082569, -21.49550541971438 ], [ -50.247286921428248, -21.495566943652616 ], [ -50.247199068771465, -21.495627841494361 ], [ -50.247198103937144, -21.495628515765763 ], [ -50.24711073529599, -21.49569007092159 ], [ -50.247024371486077, -21.49574963214765 ], [ -50.24702310381263, -21.495750515806925 ], [ -50.246936071363066, -21.495811834100774 ], [ -50.246849050217875, -21.495871166678011 ], [ -50.246847773971261, -21.495872046261386 ], [ -50.24675892105558, -21.495933943775114 ], [ -50.246671219634138, -21.495994736783398 ], [ -50.246584371177192, -21.496054632248935 ], [ -50.246583103501401, -21.496055515909845 ], [ -50.246495246635938, -21.496117415041461 ], [ -50.246408390021742, -21.496178314483458 ], [ -50.246407426087529, -21.4961789958686 ], [ -50.246321052956944, -21.496240549110357 ], [ -50.246235684664363, -21.496300108361584 ], [ -50.246233050256777, -21.496301987782449 ], [ -50.246148529511338, -21.496363638183553 ], [ -50.246064011690194, -21.496424292124978 ], [ -50.246096225192289, -21.496463607000408 ], [ -50.246132520953971, -21.496437323852035 ], [ -50.246134820615566, -21.496435625708081 ], [ -50.246218077999977, -21.496372937768811 ], [ -50.246302295524899, -21.496313202058403 ], [ -50.246304450867285, -21.496311645086571 ], [ -50.246389710572636, -21.496248925278216 ], [ -50.246475931795665, -21.496189158270962 ], [ -50.24647945073778, -21.496186645129939 ], [ -50.246565042934513, -21.496123680729951 ], [ -50.2466506098583, -21.496063685506993 ], [ -50.246652520471841, -21.496062324049806 ], [ -50.246738712474915, -21.495999909126301 ], [ -50.246825896280555, -21.495938484148372 ], [ -50.246828203348322, -21.495936826633585 ], [ -50.246913392586855, -21.495874420538204 ], [ -50.246999573439261, -21.495813004274062 ], [ -50.247086573375697, -21.495751004295105 ], [ -50.247088203154846, -21.495749826698255 ], [ -50.247173392394267, -21.495687420602192 ], [ -50.247259092706024, -21.495626346792722 ], [ -50.247345609350525, -21.495565685673931 ], [ -50.247348450092368, -21.495563645346085 ], [ -50.247435069599383, -21.495499925222656 ], [ -50.24751813204918, -21.495439606038282 ], [ -50.247604572993211, -21.495378004421553 ], [ -50.247691572929646, -21.4953160044426 ], [ -50.247693202704745, -21.495314826848684 ], [ -50.247778391945943, -21.495252420751331 ], [ -50.247864572801461, -21.495191004484965 ], [ -50.247951572737904, -21.495129004505991 ], [ -50.247951986880658, -21.495128708334931 ], [ -50.248036986911295, -21.49506770828873 ], [ -50.248037256898343, -21.495067514090429 ], [ -50.248122437002529, -21.495006105154001 ], [ -50.248208608718365, -21.494945685881621 ], [ -50.248211449450018, -21.494943645561097 ], [ -50.248297855363447, -21.494880082564162 ], [ -50.24838325673646, -21.494818514107468 ], [ -50.248383519189488, -21.49481832447648 ], [ -50.248470519220056, -21.494755324428901 ], [ -50.248470947954665, -21.494755012836787 ], [ -50.248555733815763, -21.494693169007011 ], [ -50.248642047015977, -21.494630666319694 ], [ -50.248728433021952, -21.494569103854378 ], [ -50.248814293677071, -21.494508202668335 ], [ -50.248814842715561, -21.494507811423311 ], [ -50.248901742381335, -21.49444559913864 ], [ -50.248987627127924, -21.494386368256631 ], [ -50.24898889459778, -21.494385484738643 ], [ -50.249075595780916, -21.494324399791527 ], [ -50.249162945170859, -21.494265512541233 ], [ -50.249252612447599, -21.49420573433617 ], [ -50.249253948000344, -21.494204833888354 ], [ -50.249340288353615, -21.494145965445519 ], [ -50.249428597154811, -21.494089055310251 ], [ -50.249429613074795, -21.494088394977741 ], [ -50.249519613115069, -21.494029394931914 ], [ -50.249521947822068, -21.494027833946905 ], [ -50.24958085874438, -21.493987667395213 ], [ -50.249575105618824, -21.493980515209806 ], [ -50.249488404405412, -21.494041600132995 ], [ -50.249400723487149, -21.494100710843032 ], [ -50.24940005190637, -21.494101166161403 ], [ -50.249312051942532, -21.494161166115273 ], [ -50.249310105433153, -21.494162515271249 ] ] ], [ [ [ -50.24889110551419, -21.494092515259595 ], [ -50.248803736866698, -21.494154070419889 ], [ -50.248717373051207, -21.494213631649785 ], [ -50.248715157398536, -21.494215188574447 ], [ -50.248627431483079, -21.49427799233019 ], [ -50.248541706500568, -21.49433879723593 ], [ -50.248541427982182, -21.494338995254516 ], [ -50.248454428014156, -21.49440099520746 ], [ -50.24845348105535, -21.494401675477551 ], [ -50.248366481085895, -21.494464675429981 ], [ -50.248366052162929, -21.494464987158736 ], [ -50.248281266266119, -21.494526830964137 ], [ -50.248194612074663, -21.494589580525645 ], [ -50.248108743440461, -21.494651485795213 ], [ -50.248107550667996, -21.494652354435246 ], [ -50.248021958425163, -21.494715318818375 ], [ -50.247936391460144, -21.494775314023205 ], [ -50.247934743217385, -21.494776485906012 ], [ -50.247848878124962, -21.494838388622348 ], [ -50.24776422007011, -21.494899143202357 ], [ -50.247677427439903, -21.494960995397278 ], [ -50.247590427376352, -21.495022995418314 ], [ -50.247588797413059, -21.495024173147272 ], [ -50.247503608135681, -21.495086579220501 ], [ -50.247417427248166, -21.495147995460673 ], [ -50.247330427184608, -21.495209995481712 ], [ -50.247329312907219, -21.495210797085161 ], [ -50.247245312936485, -21.495271797039127 ], [ -50.247244550025655, -21.495272354650275 ], [ -50.247158957787818, -21.495335319029721 ], [ -50.247073390827978, -21.495395314230919 ], [ -50.247072426898335, -21.495395995612828 ], [ -50.246985426930316, -21.495457995565769 ], [ -50.246983796962965, -21.495459173297665 ], [ -50.246898607687655, -21.495521579369399 ], [ -50.246812426802123, -21.495582995608157 ], [ -50.246725426738564, -21.495644995629213 ], [ -50.246723796769487, -21.495646173362353 ], [ -50.246638941993915, -21.495708334393839 ], [ -50.246552103898132, -21.49576951575547 ], [ -50.2465504796441, -21.495770675947057 ], [ -50.246464429326103, -21.495832988221689 ], [ -50.24637839032021, -21.495893314397843 ], [ -50.246375549380232, -21.495895354866413 ], [ -50.246290289637486, -21.495958074652037 ], [ -50.246204068383697, -21.496017841634441 ], [ -50.24620054925073, -21.496020354909781 ], [ -50.246114619618133, -21.496083567487375 ], [ -50.246029704652756, -21.496143797845843 ], [ -50.246026179506103, -21.49614637428639 ], [ -50.245942320759106, -21.49620951496318 ], [ -50.245856610340965, -21.496271581102381 ], [ -50.245770741709066, -21.496333486370304 ], [ -50.245804561428599, -21.496374573631083 ], [ -50.24587006494783, -21.496329065906071 ], [ -50.245870335852807, -21.496328877267981 ], [ -50.245966335890095, -21.49626187721681 ], [ -50.245966599925936, -21.496261692530918 ], [ -50.246063161444226, -21.496193999894817 ], [ -50.246159720643746, -21.496127304340497 ], [ -50.246161214213473, -21.496126259606353 ], [ -50.246257214249361, -21.496058259554687 ], [ -50.246257834403423, -21.496057817971167 ], [ -50.246352834437936, -21.495989817919629 ], [ -50.246353316818116, -21.495989471225599 ], [ -50.246450316852531, -21.495919471172691 ], [ -50.246451154992556, -21.495918862020339 ], [ -50.246548042204651, -21.495847944547275 ], [ -50.246643200422199, -21.49577855831895 ], [ -50.246739464887824, -21.495710081506985 ], [ -50.246743205029702, -21.495707334983734 ], [ -50.246836774361739, -21.495636419249099 ], [ -50.246932316489925, -21.495567471292969 ], [ -50.246933979537978, -21.495566254101512 ], [ -50.247030979569558, -21.495494254047561 ], [ -50.247031589496281, -21.495493798965036 ], [ -50.247126461245344, -21.495422645123217 ], [ -50.247222316269443, -21.495353471366005 ], [ -50.247223154406797, -21.495352862215597 ], [ -50.247320041616398, -21.495281944744338 ], [ -50.247415928666399, -21.495212027075016 ], [ -50.247416979168932, -21.495211254225161 ], [ -50.247513872447797, -21.495139333410449 ], [ -50.247608447654379, -21.495069387135253 ], [ -50.247706107425032, -21.495000334744713 ], [ -50.247709588979099, -21.494997799139064 ], [ -50.24780528455458, -21.494926027426619 ], [ -50.247901978904238, -21.494854254270475 ], [ -50.247997851926392, -21.494783090760688 ], [ -50.24809470860999, -21.494713907387329 ], [ -50.248096153744449, -21.494712862436383 ], [ -50.248192434404984, -21.494642388934601 ], [ -50.248289708465272, -21.494572907435202 ], [ -50.248387708393466, -21.494502907458976 ], [ -50.248389978431, -21.494501254472571 ], [ -50.248485851561817, -21.49443009088213 ], [ -50.248582408013583, -21.494361121960356 ], [ -50.248681106699799, -21.494291334983433 ], [ -50.248682547351372, -21.494290303849422 ], [ -50.24878043127562, -21.49421938791653 ], [ -50.248877315029368, -21.494149471777462 ], [ -50.248877547205993, -21.494149303897753 ], [ -50.24897524747216, -21.494078521023422 ], [ -50.249073946605037, -21.494007736768587 ], [ -50.249053901874206, -21.493983256161407 ], [ -50.248983387733944, -21.494030265571919 ], [ -50.248982723469062, -21.49403071089818 ], [ -50.248893723506583, -21.494090710851925 ], [ -50.24889110551419, -21.494092515259595 ] ] ], [ [ [ -50.245180157941142, -21.496066691116056 ], [ -50.245274389482155, -21.496002216881021 ], [ -50.245369614159124, -21.495938733740942 ], [ -50.245371157810958, -21.495937691158769 ], [ -50.245466157849698, -21.495872691108865 ], [ -50.245466786217271, -21.495872258890355 ], [ -50.245560786254643, -21.495807258840589 ], [ -50.245561064293881, -21.49580706612824 ], [ -50.245655303317591, -21.495741594782654 ], [ -50.245750535467941, -21.495677114657667 ], [ -50.245751442434006, -21.495676495854582 ], [ -50.245846684281361, -21.495611017061176 ], [ -50.245942919402907, -21.495546529585898 ], [ -50.246039766600191, -21.495481631957183 ], [ -50.246135613638394, -21.495417733909839 ], [ -50.246137719797538, -21.495416304626151 ], [ -50.24623382418531, -21.495349923221074 ], [ -50.246329919141587, -21.495285529670937 ], [ -50.246330534968479, -21.495285114857779 ], [ -50.246425924270625, -21.495220528328716 ], [ -50.246523309291298, -21.495155936201009 ], [ -50.246525719532258, -21.495154304713491 ], [ -50.246621225606397, -21.495088336577115 ], [ -50.246718705611279, -21.495024334531671 ], [ -50.246722334504469, -21.495021877682014 ], [ -50.246816088836482, -21.494956444947952 ], [ -50.246912783924465, -21.494893934970779 ], [ -50.246917334371354, -21.494890877726057 ], [ -50.247013334408649, -21.4948238776749 ], [ -50.247013598442152, -21.494823692990622 ], [ -50.247110159963384, -21.49475600035246 ], [ -50.247206719167814, -21.494689304794736 ], [ -50.247208832978707, -21.494687818415308 ], [ -50.247303833013213, -21.494619818363773 ], [ -50.247305764991133, -21.494618412630722 ], [ -50.247400804880442, -21.494548122683632 ], [ -50.247494832870437, -21.494480818410992 ], [ -50.24749654588318, -21.494479574320522 ], [ -50.24759069397134, -21.49441020201661 ], [ -50.247684832728702, -21.494342818457877 ], [ -50.247686545740088, -21.49434157436837 ], [ -50.247781545771744, -21.49427157431581 ], [ -50.24778279857194, -21.49427064131444 ], [ -50.247874868771618, -21.49420134113458 ], [ -50.247969381863378, -21.494132425310028 ], [ -50.248063832443087, -21.494064818552271 ], [ -50.248066169114551, -21.494063112484572 ], [ -50.248158827754686, -21.493994111340996 ], [ -50.248254463041711, -21.493926082088841 ], [ -50.248256545307676, -21.49392457451291 ], [ -50.248350693398251, -21.493855202207211 ], [ -50.248444832158576, -21.493787818646368 ], [ -50.248445695608503, -21.493787196065629 ], [ -50.24854069564158, -21.493718196013585 ], [ -50.248635695570378, -21.49364919603725 ], [ -50.248730695499148, -21.493580196060961 ], [ -50.248731544949969, -21.493579574632566 ], [ -50.248826544981618, -21.493509574579996 ], [ -50.248824646503373, -21.493507317851485 ], [ -50.248731879230732, -21.493571973805256 ], [ -50.248634011270283, -21.493639882160718 ], [ -50.248633145034191, -21.493640487630291 ], [ -50.248536454476344, -21.493708565650945 ], [ -50.248439784526546, -21.493773669879356 ], [ -50.248437747126339, -21.493775065802055 ], [ -50.248338878955046, -21.49384397389575 ], [ -50.248241010994249, -21.493911882251453 ], [ -50.248143311743476, -21.493979673543361 ], [ -50.248044613679248, -21.494047466128343 ], [ -50.248041923173645, -21.494049356689366 ], [ -50.247947257354888, -21.494117397720348 ], [ -50.247849613540659, -21.494184466173632 ], [ -50.247848402002987, -21.494185306888607 ], [ -50.24775140204023, -21.49425330683674 ], [ -50.247749452497551, -21.494254696254824 ], [ -50.247652721432914, -21.494324776896612 ], [ -50.247556010506962, -21.494391882411364 ], [ -50.247555401792006, -21.494392306958058 ], [ -50.24745870552362, -21.494460094007337 ], [ -50.247361010368913, -21.494527882456715 ], [ -50.247359536242058, -21.494528918133277 ], [ -50.247263269933441, -21.494597396202881 ], [ -50.247166010229826, -21.494664882502352 ], [ -50.247165401513868, -21.494665307049722 ], [ -50.247068401551118, -21.494733306997876 ], [ -50.247065846046766, -21.494735137687712 ], [ -50.246970412518884, -21.494804991066943 ], [ -50.246874010019624, -21.494871882571235 ], [ -50.246872786883195, -21.494872740085757 ], [ -50.246776786919071, -21.494940740034082 ], [ -50.246775684075004, -21.494941528532607 ], [ -50.246679538079967, -21.49501091221309 ], [ -50.246583401199466, -21.495078307113584 ], [ -50.246581071390921, -21.495079972918557 ], [ -50.246485800145905, -21.49514944150674 ], [ -50.246389967151579, -21.495217611341921 ], [ -50.246293400988456, -21.495285307182964 ], [ -50.246291921902198, -21.495286357112061 ], [ -50.246197531653465, -21.495354200077376 ], [ -50.246102173339374, -21.495419083029876 ], [ -50.246099535328391, -21.495420918435784 ], [ -50.246003232612011, -21.495489422403658 ], [ -50.245908935861841, -21.495554933805312 ], [ -50.245908664748207, -21.49555512258857 ], [ -50.245812664785504, -21.495622122537416 ], [ -50.245716800059874, -21.495689028102166 ], [ -50.245621935658733, -21.495754933872089 ], [ -50.245620416381179, -21.495756003002004 ], [ -50.245527620390185, -21.495822144800254 ], [ -50.245433842139967, -21.495886308842351 ], [ -50.245433557147372, -21.495886504305556 ], [ -50.245337557186083, -21.495952504254952 ], [ -50.245336043260906, -21.495953558463047 ], [ -50.245241310531767, -21.496020369941331 ], [ -50.245148578673657, -21.496085182505787 ], [ -50.245055578607491, -21.49615018252759 ], [ -50.245056156898443, -21.496150907209696 ], [ -50.245085236801629, -21.496131316531248 ], [ -50.245085865575945, -21.496130890686707 ], [ -50.245179865614709, -21.496066890637508 ], [ -50.245180157941142, -21.496066691116056 ] ] ], [ [ [ -50.248129802817296, -21.493338657748499 ], [ -50.248128665703909, -21.493339430700388 ], [ -50.248026665745193, -21.493409430646704 ], [ -50.247924665674461, -21.493479430669876 ], [ -50.247822800180259, -21.49354933833671 ], [ -50.247723229064519, -21.493617362144573 ], [ -50.247620542481677, -21.493684503349019 ], [ -50.247618802358303, -21.493685657936492 ], [ -50.247518668092098, -21.493753075043269 ], [ -50.247415542346864, -21.493820503392541 ], [ -50.247414099998686, -21.493821457998919 ], [ -50.247311100042729, -21.493890457945625 ], [ -50.247310802152761, -21.4938906580036 ], [ -50.247211102838392, -21.493957782271895 ], [ -50.24710842266019, -21.494023931980291 ], [ -50.247106967659541, -21.494024880903098 ], [ -50.247004117895337, -21.494092781695706 ], [ -50.246902268381753, -21.494159682824563 ], [ -50.246901967525218, -21.494159880946679 ], [ -50.246798967570655, -21.494227880893963 ], [ -50.246797519709411, -21.494228848497738 ], [ -50.246697116265992, -21.494296768451271 ], [ -50.246595741739903, -21.494361726864113 ], [ -50.246592519573838, -21.494363848542147 ], [ -50.246490952362421, -21.494432555749523 ], [ -50.246389534643356, -21.494500167538973 ], [ -50.246288682267902, -21.494567069587148 ], [ -50.246288387125894, -21.494567265860987 ], [ -50.246186387169978, -21.494635265808395 ], [ -50.246186090571442, -21.494635464034594 ], [ -50.246086238679119, -21.494702364779489 ], [ -50.245984387035108, -21.494770265852246 ], [ -50.245983493072224, -21.494770866330718 ], [ -50.245884647021185, -21.494837762119584 ], [ -50.245783801246077, -21.494905658261249 ], [ -50.245783492936553, -21.494905866375014 ], [ -50.245684646885451, -21.494972762163925 ], [ -50.245583801110648, -21.495040658305406 ], [ -50.245583492800904, -21.495040866419338 ], [ -50.245484938572901, -21.495107564712058 ], [ -50.245386386630791, -21.495173265984107 ], [ -50.245386090032866, -21.495173464209895 ], [ -50.245286090075631, -21.495240464158158 ], [ -50.245284009555888, -21.49524188279393 ], [ -50.24518703891416, -21.495309168521032 ], [ -50.245091080794893, -21.495373470330751 ], [ -50.245089889218953, -21.495374276866436 ], [ -50.244991889258991, -21.495441276814983 ], [ -50.244991279989755, -21.495441695499288 ], [ -50.244894725423059, -21.495508387804662 ], [ -50.24479817320281, -21.495574083106128 ], [ -50.244797213900497, -21.495574741125143 ], [ -50.244703246864766, -21.495639718306805 ], [ -50.244606279827849, -21.495706695513888 ], [ -50.244605935623127, -21.495706933953773 ], [ -50.244511387698587, -21.495772619856172 ], [ -50.244416842209297, -21.495837308851598 ], [ -50.244414416316516, -21.49583900305527 ], [ -50.244320416351066, -21.49590600300445 ], [ -50.244394192070679, -21.495996659628254 ], [ -50.244432556867245, -21.495969722633244 ], [ -50.244525421128287, -21.495904817480078 ], [ -50.24452632629125, -21.49590417998601 ], [ -50.244619326325846, -21.495838179935873 ], [ -50.244620216589944, -21.495837543362196 ], [ -50.244712010394444, -21.495771412316071 ], [ -50.244804786136726, -21.49570725885291 ], [ -50.244808092108912, -21.495704907864926 ], [ -50.244900341299903, -21.495637456816276 ], [ -50.244993583313054, -21.495570997057037 ], [ -50.244993833866879, -21.49557081809224 ], [ -50.245088708618105, -21.495502907717295 ], [ -50.24518258317466, -21.495435997102852 ], [ -50.245182833728279, -21.495435818138215 ], [ -50.245277833762792, -21.495367818086685 ], [ -50.24527807795991, -21.495367642931683 ], [ -50.245373955885881, -21.495298730645061 ], [ -50.245468524037499, -21.49523103973101 ], [ -50.245564213297442, -21.495163259812145 ], [ -50.245565697008892, -21.495162195570941 ], [ -50.245659654704696, -21.495093952585886 ], [ -50.245755598737603, -21.495026692825377 ], [ -50.245758546429371, -21.495024574109056 ], [ -50.245852388316294, -21.494955427427378 ], [ -50.24594721301608, -21.494888259905014 ], [ -50.24594746390283, -21.494888081816597 ], [ -50.246044463938667, -21.494819081764224 ], [ -50.246045315575863, -21.494818471581986 ], [ -50.246142196555958, -21.494748557444694 ], [ -50.246237771109854, -21.494679863206862 ], [ -50.24633446372556, -21.494611081834659 ], [ -50.246335315361726, -21.494610471653182 ], [ -50.246431160763251, -21.494541304841576 ], [ -50.246527989566815, -21.494474117482866 ], [ -50.246530315219708, -21.494472471700451 ], [ -50.246626588689367, -21.494402995973321 ], [ -50.246723423569627, -21.494334816286507 ], [ -50.246820688430589, -21.494267326357889 ], [ -50.24691938646572, -21.494199533743288 ], [ -50.246921212204924, -21.494198260212976 ], [ -50.247017159338363, -21.49413029763388 ], [ -50.247115980894996, -21.494060423779107 ], [ -50.247213423220806, -21.493991816401245 ], [ -50.24731098900844, -21.493924117666104 ], [ -50.247311252799065, -21.493923934220128 ], [ -50.247409524057652, -21.493855442105655 ], [ -50.247508788984064, -21.493787941931231 ], [ -50.247511707515109, -21.49378590773637 ], [ -50.247608554867227, -21.493716731029842 ], [ -50.247706385909474, -21.493649533925211 ], [ -50.247706988621736, -21.493649117832504 ], [ -50.247804988660342, -21.493581117780501 ], [ -50.247805854680081, -21.493580512461683 ], [ -50.247903422731795, -21.493511816562592 ], [ -50.248000988521262, -21.493444117826161 ], [ -50.248001252311127, -21.493443934380711 ], [ -50.248100252349708, -21.493374934327999 ], [ -50.24810170709268, -21.493373907876673 ], [ -50.248198852202293, -21.49330451848596 ], [ -50.248295988311135, -21.493237117895102 ], [ -50.248297105477889, -21.493236335373325 ], [ -50.248396105515049, -21.493166335320101 ], [ -50.248492211185649, -21.4930982605105 ], [ -50.248487969628115, -21.49309301559736 ], [ -50.248432775508405, -21.493132041694562 ], [ -50.248331665955362, -21.493201430577784 ], [ -50.248230232451547, -21.493271041781036 ], [ -50.248129802817296, -21.493338657748499 ] ] ], [ [ [ -50.247350294831243, -21.494896905875091 ], [ -50.247447989953422, -21.494829117397643 ], [ -50.247449463867859, -21.494828081869546 ], [ -50.247545730141404, -21.494759603772426 ], [ -50.247642989814331, -21.494692117443289 ], [ -50.24764359831584, -21.494691693045155 ], [ -50.247740294552472, -21.494623905967192 ], [ -50.247837989676277, -21.494556117488646 ], [ -50.247840547614601, -21.494554303748036 ], [ -50.247937578765345, -21.494484005641642 ], [ -50.248032994565854, -21.494417116188945 ], [ -50.248131386643465, -21.494349533726858 ], [ -50.248134076938101, -21.494347643312626 ], [ -50.248228742719959, -21.494279602255681 ], [ -50.248326386504885, -21.494212533772146 ], [ -50.248326989219372, -21.494212117677883 ], [ -50.248424989257991, -21.494144117625879 ], [ -50.248522989188977, -21.494076117648543 ], [ -50.248523252979908, -21.494075934202368 ], [ -50.24862124041379, -21.494007639905366 ], [ -50.248718215658037, -21.493942330023614 ], [ -50.248720855073898, -21.493940512373328 ], [ -50.248818423124867, -21.493871816474744 ], [ -50.248910399100751, -21.493807996385918 ], [ -50.248886053541057, -21.493778263181312 ], [ -50.248787053576812, -21.49384926312753 ], [ -50.24878645290616, -21.493849696105077 ], [ -50.248688568944154, -21.49392061200815 ], [ -50.248591685151411, -21.493990528119117 ], [ -50.248591452760778, -21.493990696153425 ], [ -50.24849416988603, -21.494061176575475 ], [ -50.248395893482851, -21.494130664914135 ], [ -50.248395291898227, -21.49413109244302 ], [ -50.248297291934009, -21.494201092389947 ], [ -50.248295021684925, -21.494202745529051 ], [ -50.248199148511425, -21.49427390909236 ], [ -50.24810229178825, -21.494343092438118 ], [ -50.248004291716448, -21.494413092461876 ], [ -50.248002846369502, -21.494414137565631 ], [ -50.247906565668906, -21.494484611039521 ], [ -50.247809291571727, -21.494554092509738 ], [ -50.247807021318124, -21.494555745652153 ], [ -50.24771002134969, -21.494627745598198 ], [ -50.24761302127483, -21.494699745623258 ], [ -50.247612411138618, -21.494700200861697 ], [ -50.247518132596809, -21.494770909738605 ], [ -50.247420892757631, -21.494839665152863 ], [ -50.247418234566119, -21.494841587530676 ], [ -50.247322234597725, -21.494912587477408 ], [ -50.247322020947003, -21.494912745776464 ], [ -50.247225544443637, -21.494984357171635 ], [ -50.247130071513425, -21.495053972821061 ], [ -50.24712984570715, -21.495054137786429 ], [ -50.247126678729352, -21.495056455882636 ], [ -50.247155990163627, -21.495036117328748 ], [ -50.247159154067184, -21.495033862314301 ], [ -50.247254886537156, -21.494963790065928 ], [ -50.247350294831243, -21.494896905875091 ] ] ], [ [ [ -50.247593181886081, -21.494057023119105 ], [ -50.247696457841549, -21.493989496510295 ], [ -50.247698197742139, -21.493988342069827 ], [ -50.247798331982025, -21.493920924934901 ], [ -50.247901457706739, -21.493853496553793 ], [ -50.247904065133355, -21.49385175375285 ], [ -50.248005065174674, -21.493782753699847 ], [ -50.248005334540373, -21.493782569259647 ], [ -50.248107334581654, -21.493712569205943 ], [ -50.248209334510911, -21.493642569229124 ], [ -50.248310767762021, -21.493572958149581 ], [ -50.248411197368561, -21.49350534215295 ], [ -50.248412334259477, -21.493504569351735 ], [ -50.248514334300765, -21.493434569298024 ], [ -50.248616334230007, -21.493364569321216 ], [ -50.248618105616998, -21.493363335341968 ], [ -50.248671663373543, -21.493325466206599 ], [ -50.248635455165591, -21.493282425368157 ], [ -50.248540878762931, -21.493352113214943 ], [ -50.248446304680542, -21.493420803836081 ], [ -50.248351304609329, -21.493489803859763 ], [ -50.248256735089228, -21.493558491167789 ], [ -50.248162168021921, -21.493626181252136 ], [ -50.248160454807881, -21.493627425487816 ], [ -50.248066489107487, -21.493696663344039 ], [ -50.247970537139864, -21.493764917809209 ], [ -50.247967831002804, -21.493766887515282 ], [ -50.247874990623089, -21.493836023939533 ], [ -50.247781167737422, -21.49390318134623 ], [ -50.247780072614113, -21.493903972523167 ], [ -50.247684072647154, -21.493973972470432 ], [ -50.247682201547192, -21.493975358684533 ], [ -50.24758982539246, -21.494044889093718 ], [ -50.24749630624666, -21.494113797909328 ], [ -50.24740216745181, -21.494181181440617 ], [ -50.247400454232377, -21.494182425680201 ], [ -50.247353519411938, -21.494217009217934 ], [ -50.247387577528805, -21.494195067924 ], [ -50.247390197947681, -21.494193342002735 ], [ -50.247491049171906, -21.494125442145041 ], [ -50.247593181886081, -21.494057023119105 ] ] ] ] } },
{ "type": "Feature", "properties": { "CHAVE": null, "FAZENDA": "Faz. ABC", "NOME_FAZ": null, "ZONA": null, "TALHAO": null, "AREA_TOTAL": null, "TIPO_GEO": "VOO_PROCESSADO", "DATA_INICI": "17-04-2026", "DATA_FINAL": "17-04-2026", "HORA_INICI": "11:32:17", "HORA_FINAL": "11:32:17", "CLASSE": "APLICADO", "PILOTO": "valmir alves", "AERONAVE": "PS-CBA", "AREA_HA": 0.001284360191155 }, "geometry": { "type": "MultiPolygon", "coordinates": [ [ [ [ -50.249662407350819, -21.494600918912173 ], [ -50.249573387077184, -21.494660265740485 ], [ -50.249572051323838, -21.494661166322892 ], [ -50.249484073091757, -21.494721151459682 ], [ -50.249393571133126, -21.494782812113023 ], [ -50.24930605009277, -21.494841490971837 ], [ -50.249304438308002, -21.494842586386412 ], [ -50.249214744159111, -21.494904375666568 ], [ -50.249127051115032, -21.494964166356869 ], [ -50.24912510459572, -21.494965515519727 ], [ -50.249037918443847, -21.495026942103703 ], [ -50.248949740304504, -21.495087378783637 ], [ -50.248949438059988, -21.495087586467715 ], [ -50.248859438096083, -21.495149586420219 ], [ -50.248858104406949, -21.495150515582139 ], [ -50.248770104440304, -21.495212515534927 ], [ -50.248682918192827, -21.495273942186255 ], [ -50.248594740054877, -21.495334378865241 ], [ -50.248593104218124, -21.495335515644516 ], [ -50.248505247352931, -21.495397414775933 ], [ -50.24841839073725, -21.495458314218961 ], [ -50.248418104092551, -21.495458515685947 ], [ -50.248330104125912, -21.495520515638741 ], [ -50.248329825364308, -21.495520712501193 ], [ -50.248240825397623, -21.495583712453303 ], [ -50.248239742358784, -21.495584486149628 ], [ -50.248154751939389, -21.495645758288489 ], [ -50.248066774218678, -21.495707046115381 ], [ -50.248063796677172, -21.495709173351692 ], [ -50.247978607402963, -21.495771579422581 ], [ -50.247892426519094, -21.495832995660148 ], [ -50.247890796547793, -21.495834173394879 ], [ -50.247805607274273, -21.495896579465295 ], [ -50.247719426390915, -21.495957995702494 ], [ -50.247718479423312, -21.495958675978919 ], [ -50.247631479453865, -21.496021675931345 ], [ -50.247630549221348, -21.496022354877955 ], [ -50.247544277184581, -21.496085819338763 ], [ -50.247460011956974, -21.496146292007115 ], [ -50.247458796223853, -21.496147173503036 ], [ -50.247372923186759, -21.496210080469417 ], [ -50.247288050361867, -21.496271987680959 ], [ -50.247203050297792, -21.496333987702307 ], [ -50.247202106158142, -21.496334681905381 ], [ -50.247117106185939, -21.496397681858152 ], [ -50.247308893961517, -21.496624318089609 ], [ -50.247393423360798, -21.496561666861588 ], [ -50.24747794987826, -21.496500012199782 ], [ -50.247562949814174, -21.496438012221141 ], [ -50.247563203893954, -21.49643782649289 ], [ -50.247648598401149, -21.496375270026086 ], [ -50.247732988219823, -21.496314707896545 ], [ -50.247734450896672, -21.496313645118395 ], [ -50.247820987194579, -21.496249986206344 ], [ -50.247907048643732, -21.496187665821427 ], [ -50.247993573786907, -21.49612600420075 ], [ -50.247995203570014, -21.49612482660104 ], [ -50.248080392807701, -21.496062420506259 ], [ -50.248166573658722, -21.496001004243087 ], [ -50.248168203440642, -21.495999826644237 ], [ -50.248252728480651, -21.495937907113468 ], [ -50.24834022596086, -21.495876953789026 ], [ -50.248342257756939, -21.495875513846833 ], [ -50.248427718090774, -21.495813902884123 ], [ -50.248516035520218, -21.495751386027674 ], [ -50.248603752855608, -21.495689585154111 ], [ -50.248690609441248, -21.495628685685855 ], [ -50.248690895893859, -21.495628484353734 ], [ -50.248778082014219, -21.495567057745905 ], [ -50.248866260125297, -21.495506621040711 ], [ -50.248867895768335, -21.495505484395206 ], [ -50.248955895801672, -21.495443484347998 ], [ -50.249043231565366, -21.495381952309526 ], [ -50.249132411096213, -21.495320517498872 ], [ -50.249221259875661, -21.495259621122308 ], [ -50.249222895516255, -21.495258484478505 ], [ -50.249309927941454, -21.495197166156029 ], [ -50.249396949064909, -21.495137833550096 ], [ -50.249397561800187, -21.495137413613563 ], [ -50.249486759717087, -21.495075966137701 ], [ -50.249573950087743, -21.495017508936748 ], [ -50.249574905301181, -21.495016863334843 ], [ -50.249665905338631, -21.494954863287177 ], [ -50.249753283506692, -21.494895287253414 ], [ -50.249842613104356, -21.494835734167587 ], [ -50.249844561493624, -21.494834413714276 ], [ -50.24993359273131, -21.494773081062014 ], [ -50.25002261298242, -21.494713734207139 ], [ -50.250112612922479, -21.494653734226617 ], [ -50.249933387220189, -21.494418265727862 ], [ -50.249843387259055, -21.494478265681472 ], [ -50.249753387199128, -21.494538265700939 ], [ -50.249751438614574, -21.494539586285686 ], [ -50.249662407350819, -21.494600918912173 ] ] ], [ [ [ -50.246725648465592, -21.496627499646937 ], [ -50.246725893953545, -21.496627318075472 ], [ -50.246810893981362, -21.496564318028234 ], [ -50.246812294288532, -21.496563267706744 ], [ -50.246894131082982, -21.496501150594991 ], [ -50.246977949805199, -21.496440012207195 ], [ -50.246978893758133, -21.496439318140816 ], [ -50.247062742428049, -21.49637717145399 ], [ -50.247148573970904, -21.496316004122978 ], [ -50.24715089362828, -21.49631431818435 ], [ -50.247235080186243, -21.496251921062537 ], [ -50.247319916687452, -21.496190759839234 ], [ -50.247406434636154, -21.496129103345815 ], [ -50.247491466216204, -21.496068790225337 ], [ -50.247577628788648, -21.496009367739383 ], [ -50.247578896271186, -21.496008484212542 ], [ -50.247665597441312, -21.495947399274598 ], [ -50.247753278320907, -21.495888288547892 ], [ -50.247753949714522, -21.495887833356079 ], [ -50.247841949750686, -21.495827833309974 ], [ -50.247929614549257, -21.4957680618352 ], [ -50.248018278140222, -21.495708288606746 ], [ -50.248018949533083, -21.495707833415452 ], [ -50.248106614429183, -21.495648061874196 ], [ -50.248195278019786, -21.495588288645976 ], [ -50.248195949412128, -21.495587833455051 ], [ -50.248283949448286, -21.495527833408921 ], [ -50.24837161424778, -21.495468061933543 ], [ -50.248460277839087, -21.495408288704851 ], [ -50.24846094923069, -21.495407833514403 ], [ -50.248548949266848, -21.495347833468269 ], [ -50.248636614066704, -21.495288061992657 ], [ -50.248725277658401, -21.495228288763698 ], [ -50.248726561881448, -21.495227413571161 ], [ -50.248815759798291, -21.495165966095339 ], [ -50.248902950168244, -21.495107508894844 ], [ -50.248905895350163, -21.495105484517751 ], [ -50.248993895383514, -21.495043484470546 ], [ -50.249080596464601, -21.494982399595347 ], [ -50.249168277352148, -21.494923288863248 ], [ -50.24916993042936, -21.494922158780387 ], [ -50.249257440993667, -21.494861498026161 ], [ -50.249344948716328, -21.494801833648179 ], [ -50.249346224759392, -21.49480095420444 ], [ -50.249434893746688, -21.494739184774666 ], [ -50.249524255511162, -21.49467762442551 ], [ -50.249611283219167, -21.494618287330848 ], [ -50.249700612817691, -21.49455873424446 ], [ -50.249701948373684, -21.494557833794477 ], [ -50.249789948409841, -21.494497833748369 ], [ -50.249790561142625, -21.494497413813537 ], [ -50.249880561178706, -21.494435413766027 ], [ -50.24972456772911, -21.494237078643238 ], [ -50.249760894526496, -21.494211484741228 ], [ -50.249580858742519, -21.493987667406664 ], [ -50.249608288177249, -21.493968965502766 ], [ -50.249696596980399, -21.493912055366216 ], [ -50.2497865969233, -21.493854055384602 ], [ -50.249790258328595, -21.493851621620539 ], [ -50.249879258364722, -21.493790621573723 ], [ -50.249696741779324, -21.493557378379045 ], [ -50.249609553611592, -21.493617136540813 ], [ -50.249521403259195, -21.493673944526684 ], [ -50.249431403202081, -21.493731944545061 ], [ -50.249428052285552, -21.493734166052295 ], [ -50.249341211927579, -21.493793375366739 ], [ -50.249252893614255, -21.49385127290828 ], [ -50.249163403027694, -21.493908944601024 ], [ -50.249160052107271, -21.493911166110841 ], [ -50.249072717355951, -21.493970712511274 ], [ -50.249053901855468, -21.493983256182077 ], [ -50.248910399075555, -21.493807996406705 ], [ -50.248915988912934, -21.49380411773928 ], [ -50.248916252703424, -21.493803934293393 ], [ -50.249015120844952, -21.493735026169084 ], [ -50.249112988773888, -21.493667117784955 ], [ -50.248929011370727, -21.493434882167044 ], [ -50.248831011409337, -21.493502882115056 ], [ -50.24883074740282, -21.493503065711032 ], [ -50.248824646502946, -21.493507317855428 ], [ -50.248671663345199, -21.493325466242567 ], [ -50.248717055761254, -21.493293370566569 ], [ -50.248818758061141, -21.493221580680409 ], [ -50.248917923783551, -21.493152164648748 ], [ -50.249019333944887, -21.493082569414359 ], [ -50.249020509358431, -21.493081754719448 ], [ -50.249120509396967, -21.49301175466606 ], [ -50.248935490748053, -21.492780245285399 ], [ -50.248836076431544, -21.492849835281049 ], [ -50.248734666240466, -21.492919430484626 ], [ -50.248733490605524, -21.492920245332407 ], [ -50.248633490644053, -21.492990245279007 ], [ -50.248632994273095, -21.492990594196268 ], [ -50.248530994311565, -21.493062594141477 ], [ -50.248487969630872, -21.49309301561096 ], [ -50.248305788959918, -21.492867739440207 ], [ -50.248209841793553, -21.492935701990152 ], [ -50.248111451362099, -21.493005270955614 ], [ -50.248014011872087, -21.493072882004903 ], [ -50.248012293017439, -21.493074092126566 ], [ -50.24791501718957, -21.493143574833912 ], [ -50.247816879625965, -21.493211973715923 ], [ -50.247719011661964, -21.493279882073857 ], [ -50.247718145427989, -21.493280487541949 ], [ -50.24762057734366, -21.493349183412111 ], [ -50.247523312339183, -21.493416673390112 ], [ -50.247424614274657, -21.493484465975282 ], [ -50.247422292595012, -21.493486092266867 ], [ -50.247325739092084, -21.493555059028495 ], [ -50.247227211200936, -21.493622057969755 ], [ -50.247225747307176, -21.493623065784309 ], [ -50.247126879135458, -21.493691973878303 ], [ -50.247029011174789, -21.493759882233928 ], [ -50.247028144938305, -21.49376048770376 ], [ -50.246930144975515, -21.493829487651212 ], [ -50.246929893716938, -21.493829664932928 ], [ -50.246830893754115, -21.493899664879688 ], [ -50.246735695793852, -21.493967096675856 ], [ -50.246637613718406, -21.494034466157199 ], [ -50.246637010787985, -21.494034882400232 ], [ -50.246539010826609, -21.494102882348223 ], [ -50.246538144588335, -21.49410348781932 ], [ -50.246440144625538, -21.494172487766775 ], [ -50.246438684892226, -21.494173528301967 ], [ -50.246342839452737, -21.494242695086982 ], [ -50.246246010616424, -21.494309882417166 ], [ -50.246243684750212, -21.494311528349261 ], [ -50.246147109470115, -21.494381221822671 ], [ -50.246050536456032, -21.494449918063395 ], [ -50.246049922788238, -21.494450356859023 ], [ -50.2459539228227, -21.494519356806816 ], [ -50.245953684536069, -21.494519528420465 ], [ -50.245857109256647, -21.494589221893374 ], [ -50.245760661591454, -21.494657828968506 ], [ -50.245664787165367, -21.49472573999401 ], [ -50.245662453686194, -21.494727425891689 ], [ -50.245568913942606, -21.494796349885423 ], [ -50.245473401444748, -21.494863307074151 ], [ -50.245471303104644, -21.494864804430211 ], [ -50.245377041552004, -21.494933268056901 ], [ -50.245281786884007, -21.495000740086869 ], [ -50.24528116652391, -21.495001181816743 ], [ -50.245186166558419, -21.495069181765199 ], [ -50.245185922151826, -21.495069357070296 ], [ -50.245090044191663, -21.495138269326848 ], [ -50.244995291596176, -21.495206092210534 ], [ -50.244901417005728, -21.495273002796626 ], [ -50.244901166244631, -21.495273181909333 ], [ -50.244806291458609, -21.495341092255767 ], [ -50.24471241686733, -21.495408002842431 ], [ -50.24471090800624, -21.495409092134935 ], [ -50.244619544138843, -21.495475895796453 ], [ -50.2445272140451, -21.495539741049562 ], [ -50.244524783523175, -21.495541456638108 ], [ -50.244432227454816, -21.495608136790011 ], [ -50.244340125186099, -21.495673499665045 ], [ -50.244247579052683, -21.495738182421867 ], [ -50.244247307727655, -21.495738372491743 ], [ -50.244153307763611, -21.495804372441444 ], [ -50.244338692381575, -21.496035627509823 ], [ -50.24439419202124, -21.495996659676823 ], [ -50.244507583794793, -21.496135996945853 ], [ -50.244600379751709, -21.496069855121636 ], [ -50.244694157973399, -21.496005691051398 ], [ -50.244695064484212, -21.496005066048621 ], [ -50.244789892594149, -21.495939185442626 ], [ -50.24488672035524, -21.49587230438711 ], [ -50.244980307945461, -21.49580758956585 ], [ -50.245076826980949, -21.495741916796376 ], [ -50.24507772011598, -21.495741304504325 ], [ -50.245174416068245, -21.495674514492343 ], [ -50.245271517187412, -21.495608129009646 ], [ -50.245367919389487, -21.495543529573247 ], [ -50.245369990550103, -21.495542117210086 ], [ -50.245466956643888, -21.495474834590116 ], [ -50.245565761937527, -21.495408635020009 ], [ -50.245664613554652, -21.495342733919362 ], [ -50.245665507301126, -21.49534213358584 ], [ -50.245764353323501, -21.495275237769476 ], [ -50.24586519907524, -21.495207341596036 ], [ -50.245865507165462, -21.495207133630153 ], [ -50.245964353189578, -21.495140237812606 ], [ -50.24606519893981, -21.495072341640206 ], [ -50.246065507029812, -21.495072133674473 ], [ -50.246164061232136, -21.495005435352716 ], [ -50.246265613151628, -21.494937734049671 ], [ -50.246265909528709, -21.494937535971328 ], [ -50.246365761395914, -21.494870635197344 ], [ -50.246467465568024, -21.4948028323928 ], [ -50.246568317918609, -21.494735930315777 ], [ -50.246568612837834, -21.494735734189948 ], [ -50.246670612881914, -21.494667734137391 ], [ -50.246671480526871, -21.494667151464611 ], [ -50.246771883943055, -21.494599231483704 ], [ -50.246873258448829, -21.494534273041211 ], [ -50.2468764803913, -21.494532151509034 ], [ -50.246977759480252, -21.494463639160497 ], [ -50.247079882312647, -21.494396218238538 ], [ -50.247181731805583, -21.494329317078815 ], [ -50.247182032437181, -21.494329119104705 ], [ -50.247284307892457, -21.49426159742281 ], [ -50.247353519424472, -21.494217009223881 ], [ -50.247306306104036, -21.49425179795686 ], [ -50.247212167310082, -21.494319181487512 ], [ -50.247210235124612, -21.494320587370449 ], [ -50.247115195195036, -21.494390877289415 ], [ -50.247022217274811, -21.49445742987978 ], [ -50.246926281015249, -21.494523695106235 ], [ -50.246925401665685, -21.494524307012583 ], [ -50.246828533615805, -21.494592214485849 ], [ -50.246734911371831, -21.494657554987072 ], [ -50.246638216262106, -21.494720064935684 ], [ -50.246633665603134, -21.494723122320778 ], [ -50.246539461052386, -21.494788869223253 ], [ -50.246442294574763, -21.494852665373283 ], [ -50.246439280573483, -21.494854695290108 ], [ -50.246343477337987, -21.494920868635408 ], [ -50.246246690893912, -21.494985063703481 ], [ -50.246245465134876, -21.494985885145816 ], [ -50.246149772544022, -21.495050676981556 ], [ -50.246053081042788, -21.495115470233067 ], [ -50.246051280308208, -21.495116695377458 ], [ -50.245955326994476, -21.4951829723849 ], [ -50.245860386545758, -21.49524626599516 ], [ -50.245860080805073, -21.495246470347087 ], [ -50.24576308084653, -21.495311470296905 ], [ -50.245666080781483, -21.495376470318082 ], [ -50.245664557671482, -21.495377504148621 ], [ -50.24556900999147, -21.495443193155015 ], [ -50.245473464715602, -21.495507885245821 ], [ -50.245471935813477, -21.495508933874138 ], [ -50.245377074755552, -21.495574837321552 ], [ -50.245283527527384, -21.495639524210979 ], [ -50.245189610725689, -21.495703783052395 ], [ -50.245094386025038, -21.495767266164062 ], [ -50.245092842164077, -21.495768308886738 ], [ -50.24499798824111, -21.495833208916025 ], [ -50.244904448383053, -21.495896895605288 ], [ -50.244810539241925, -21.495960160689105 ], [ -50.244715321998235, -21.496022646984226 ], [ -50.244892678143614, -21.496259352971233 ], [ -50.244988678186502, -21.496196352922318 ], [ -50.244990236761495, -21.496195316580611 ], [ -50.245056156903892, -21.496150907217963 ], [ -50.245240421537481, -21.496381817423977 ], [ -50.245333421573491, -21.49631681737435 ], [ -50.245426421507311, -21.496251817396146 ], [ -50.245426956848554, -21.496251441538927 ], [ -50.245521203361989, -21.496184972920247 ], [ -50.245616300620249, -21.496119593531045 ], [ -50.245711158042731, -21.496054691060625 ], [ -50.245713583730129, -21.496052996999129 ], [ -50.245806827640116, -21.495986535888804 ], [ -50.245901064523288, -21.495921066029389 ], [ -50.245901335427547, -21.495920877391786 ], [ -50.245997335464843, -21.495853877340636 ], [ -50.246093199950849, -21.495786971893097 ], [ -50.246188064320165, -21.495721066096163 ], [ -50.246189464781523, -21.495720081567036 ], [ -50.246285156245762, -21.495652012355425 ], [ -50.24638082684438, -21.495586916872604 ], [ -50.246384078209537, -21.495584642889931 ], [ -50.24647934207114, -21.495516171962631 ], [ -50.246575599193896, -21.495448692716533 ], [ -50.246576464502951, -21.495448081659344 ], [ -50.246673464538802, -21.495379081606966 ], [ -50.246674928722847, -21.495378027083028 ], [ -50.246769772298194, -21.495308870281772 ], [ -50.246865598982893, -21.495241692785928 ], [ -50.246867316036933, -21.495240471469824 ], [ -50.246963766541768, -21.495170867985173 ], [ -50.247058603960177, -21.495103691454524 ], [ -50.247126678445724, -21.495056456092247 ], [ -50.247033263691158, -21.495124831810493 ], [ -50.246936683911336, -21.495194528530593 ], [ -50.246934410621428, -21.495196201035728 ], [ -50.246838715000706, -21.495267972720438 ], [ -50.246742847688445, -21.495339131932724 ], [ -50.246646683690855, -21.495408528603622 ], [ -50.246643795089774, -21.495410665016152 ], [ -50.246550642603424, -21.49548126476537 ], [ -50.246455535293777, -21.495548918391062 ], [ -50.246454070895346, -21.495549973068567 ], [ -50.24635807092838, -21.495619973015827 ], [ -50.246357845121395, -21.495620137981689 ], [ -50.246261263106305, -21.495690832005085 ], [ -50.246164924152609, -21.495760354933363 ], [ -50.24607047522445, -21.495827960455316 ], [ -50.245975529347071, -21.495895213759404 ], [ -50.245879279539331, -21.495961695560492 ], [ -50.245878400181901, -21.495962307472279 ], [ -50.245781532131808, -21.496030214945716 ], [ -50.245685799633378, -21.496097028226856 ], [ -50.245591551595602, -21.496162505786963 ], [ -50.245495624973053, -21.49622777542433 ], [ -50.24539938412822, -21.496292266689775 ], [ -50.245301845303771, -21.49635696078612 ], [ -50.245205001417908, -21.496420857761567 ], [ -50.245201258471518, -21.496423406759934 ], [ -50.245164258485651, -21.496449406740123 ], [ -50.245349741659574, -21.496680593211092 ], [ -50.245384890608406, -21.496655893940787 ], [ -50.245479998767081, -21.496593142143947 ], [ -50.245480310636225, -21.4965929358337 ], [ -50.245578310679051, -21.496527935783366 ], [ -50.245578920298215, -21.496527529363355 ], [ -50.245675920339686, -21.496462529313156 ], [ -50.245676827629758, -21.496461916670516 ], [ -50.245773827669822, -21.496395916619761 ], [ -50.245775064910504, -21.496395065956531 ], [ -50.245804561399922, -21.496374573663427 ], [ -50.245959258437267, -21.496562513579278 ], [ -50.246045258467881, -21.496500513532379 ], [ -50.246045520923396, -21.49650032389961 ], [ -50.246096225165282, -21.496463607032346 ], [ -50.246251988455953, -21.49665370782488 ], [ -50.246336988486597, -21.496592707778678 ], [ -50.246337949860816, -21.496592012213078 ], [ -50.246421643453161, -21.496530965097925 ], [ -50.246476056492334, -21.496493002508394 ], [ -50.246641648437745, -21.496689499693481 ], [ -50.246725648465592, -21.496627499646937 ] ] ] ] } }
]
}
