{
"type": "FeatureCollection",
"name": "307405_SITIO_NOSSA_SENHORA_APARECIDA_13-04-2026_30-06-2026_12h30m",
"crs": { "type": "name", "properties": { "name": "urn:ogc:def:crs:OGC:1.3:CRS84" } },
"features": [
{ "type": "Feature", "properties": { "CHAVE": "3074051", "FAZENDA": "307405", "NOME_FAZ": "SITIO NOSSA SENHORA APARECIDA", "ZONA": 999.0, "TALHAO": 1.0, "AREA_TOTAL": 10.743547356742621, "TIPO_GEO": "TALHAO", "DATA_INICI": null, "DATA_FINAL": null, "HORA_INICI": null, "HORA_FINAL": null, "CLASSE": null, "PILOTO": null, "AERONAVE": null, "AREA_HA": null }, "geometry": { "type": "Polygon", "coordinates": [ [ [ -50.496091619069105, -21.57145736894449 ], [ -50.495390614454337, -21.571908076474738 ], [ -50.500096167206713, -21.582334231864177 ], [ -50.50087634344311, -21.582080796491237 ], [ -50.497928900582103, -21.575569457476437 ], [ -50.496667039774678, -21.572757644261458 ], [ -50.496091619069105, -21.57145736894449 ] ] ] } },
{ "type": "Feature", "properties": { "CHAVE": "3074051", "FAZENDA": "307405", "NOME_FAZ": "SITIO NOSSA SENHORA APARECIDA", "ZONA": 999.0, "TALHAO": 1.0, "AREA_TOTAL": 5.2107822704032083, "TIPO_GEO": "TALHAO", "DATA_INICI": null, "DATA_FINAL": null, "HORA_INICI": null, "HORA_FINAL": null, "CLASSE": null, "PILOTO": null, "AERONAVE": null, "AREA_HA": null }, "geometry": { "type": "Polygon", "coordinates": [ [ [ -50.502985095972399, -21.586581223818897 ], [ -50.500924410397467, -21.582093874491715 ], [ -50.500107461696388, -21.582359255295469 ], [ -50.502401211371648, -21.587440966627177 ], [ -50.502640974623425, -21.587009799455444 ], [ -50.502812147366853, -21.586764230709285 ], [ -50.502985095972399, -21.586581223818897 ] ] ] } },
{ "type": "Feature", "properties": { "CHAVE": "3074052", "FAZENDA": "307405", "NOME_FAZ": "SITIO NOSSA SENHORA APARECIDA", "ZONA": 999.0, "TALHAO": 2.0, "AREA_TOTAL": 3.8330404086470602, "TIPO_GEO": "TALHAO", "DATA_INICI": null, "DATA_FINAL": null, "HORA_INICI": null, "HORA_FINAL": null, "CLASSE": null, "PILOTO": null, "AERONAVE": null, "AREA_HA": null }, "geometry": { "type": "Polygon", "coordinates": [ [ [ -50.493575038521925, -21.567849500034161 ], [ -50.49520225702085, -21.571486992421853 ], [ -50.495243825801765, -21.571559547232031 ], [ -50.495411089539921, -21.571615410053138 ], [ -50.495454716489348, -21.571666362824025 ], [ -50.495504904842029, -21.571688665209042 ], [ -50.495641821914518, -21.571607678380182 ], [ -50.495673894502076, -21.5714913542907 ], [ -50.495719676314636, -21.571435974171557 ], [ -50.495790366671336, -21.57140903863861 ], [ -50.495828959812734, -21.571410185410976 ], [ -50.495877268492855, -21.57142035718476 ], [ -50.495901619899406, -21.571443271051528 ], [ -50.496045435551309, -21.571353676745311 ], [ -50.494572573002031, -21.56805403022797 ], [ -50.494305247298485, -21.568151700209846 ], [ -50.494245245328393, -21.568166199593716 ], [ -50.494194029590972, -21.568159349339446 ], [ -50.494146800404963, -21.568133736899334 ], [ -50.494105668664105, -21.568090624521108 ], [ -50.494073517068159, -21.568039877908909 ], [ -50.494009292844318, -21.567871129997069 ], [ -50.493984827414948, -21.567773723997558 ], [ -50.493997448500117, -21.567738364057604 ], [ -50.494058296395174, -21.567666541642208 ], [ -50.494132310523369, -21.567616551072398 ], [ -50.494333698305283, -21.567531792769632 ], [ -50.494220724002822, -21.56726875666277 ], [ -50.493575038521925, -21.567849500034161 ] ] ] } },
{ "type": "Feature", "properties": { "CHAVE": null, "FAZENDA": null, "NOME_FAZ": null, "ZONA": null, "TALHAO": null, "AREA_TOTAL": null, "TIPO_GEO": "VOO_PROCESSADO", "DATA_INICI": "13-04-2026", "DATA_FINAL": "13-04-2026", "HORA_INICI": "13:43:46", "HORA_FINAL": "13:43:46", "CLASSE": "NÃO APLICADO DENTRO DO TALHÃO", "PILOTO": "valmir alves", "AERONAVE": "PS-CBA", "AREA_HA": 0.000934608929743 }, "geometry": { "type": "MultiPolygon", "coordinates": [ [ [ [ -50.500748029083667, -21.582180220798666 ], [ -50.500795714363555, -21.582287512439692 ], [ -50.500843714452884, -21.582395512400964 ], [ -50.500844336146109, -21.582396932423617 ], [ -50.500890836684142, -21.582504773850083 ], [ -50.500938315885179, -21.582609623523659 ], [ -50.500939336389564, -21.582611932494146 ], [ -50.50098602969576, -21.582720220977304 ], [ -50.50103371497638, -21.582827512619978 ], [ -50.501081715065723, -21.582935512581233 ], [ -50.501081959941068, -21.582936066789525 ], [ -50.501128960030123, -21.583043066751557 ], [ -50.501129150715357, -21.583043502884241 ], [ -50.501176150837729, -21.583151502919872 ], [ -50.501223030020753, -21.58325922505319 ], [ -50.501270836769969, -21.583367785969234 ], [ -50.501317765237104, -21.583473624404089 ], [ -50.501317908125699, -21.583473947767917 ], [ -50.501365908216307, -21.583582947729145 ], [ -50.501366397247139, -21.583584071605138 ], [ -50.501412275037445, -21.583690787088965 ], [ -50.501458839393315, -21.583797785791404 ], [ -50.501506519137429, -21.583904071653656 ], [ -50.50150715169211, -21.583905503168619 ], [ -50.501553524428957, -21.584012061556823 ], [ -50.501601864120637, -21.584116632911694 ], [ -50.501603397854005, -21.584120071780703 ], [ -50.501649181687974, -21.584226568714588 ], [ -50.50169574255839, -21.584332568755549 ], [ -50.501743519745062, -21.584439071833195 ], [ -50.501744152298386, -21.584440503345085 ], [ -50.501791152388726, -21.584548503307076 ], [ -50.501791398339691, -21.584549071921231 ], [ -50.50183645390856, -21.584653874852336 ], [ -50.501884433038569, -21.584755707894825 ], [ -50.50188639857862, -21.584760071990331 ], [ -50.501932182413114, -21.584866568925396 ], [ -50.501978766158658, -21.584972621043644 ], [ -50.502025443473578, -21.585076899921653 ], [ -50.50207331880938, -21.585182624391592 ], [ -50.502073767210071, -21.585183625047485 ], [ -50.502120444036422, -21.58528889595399 ], [ -50.502168112367848, -21.585393170204256 ], [ -50.502168362419951, -21.585393720335595 ], [ -50.502215362505204, -21.585497720297706 ], [ -50.502216210625093, -21.585499635148359 ], [ -50.502262210713887, -21.585605635111161 ], [ -50.502013074113385, -21.585700210877402 ], [ -50.502022764813034, -21.585721409237419 ], [ -50.502072434289488, -21.585826708341131 ], [ -50.502112139843874, -21.585910981179545 ], [ -50.502355434276666, -21.585810708333408 ], [ -50.50240443435986, -21.585914708294066 ], [ -50.502405152959966, -21.585916257954874 ], [ -50.502452153043947, -21.586019257917041 ], [ -50.50220523469946, -21.586117818174024 ], [ -50.50221568453339, -21.586140241728561 ], [ -50.502216153210455, -21.586141258033262 ], [ -50.502263153294443, -21.586244257995418 ], [ -50.502264074397843, -21.586246320606325 ], [ -50.502308724117185, -21.586348518622025 ], [ -50.502355363584094, -21.586451720621291 ], [ -50.502355616872968, -21.586452284411138 ], [ -50.502401616957961, -21.586555284374025 ], [ -50.502402271042875, -21.586556772174305 ], [ -50.502446972963867, -21.586660083044642 ], [ -50.502491667319369, -21.58676039681994 ], [ -50.50220633257392, -21.586871603055336 ], [ -50.502161332657373, -21.586770603019033 ], [ -50.502160728765453, -21.586769227736426 ], [ -50.502116051468299, -21.586665973302768 ], [ -50.502070509026538, -21.586563997609854 ], [ -50.502023636393332, -21.58646027921661 ], [ -50.502022925410998, -21.586458679304698 ], [ -50.50197837752134, -21.586356713904976 ], [ -50.501932078938601, -21.586255250834469 ], [ -50.501884315439341, -21.586152758109723 ], [ -50.501882788693969, -21.586149364617921 ], [ -50.501837646182551, -21.58604534033406 ], [ -50.501789578900436, -21.585943319766905 ], [ -50.501739592295039, -21.58583734794372 ], [ -50.501738887154687, -21.585835829558206 ], [ -50.50169145029087, -21.585732061196474 ], [ -50.501642037731195, -21.585629282862925 ], [ -50.501640925899338, -21.585626913789081 ], [ -50.501592135128092, -21.585520370448155 ], [ -50.501543362851848, -21.585415858207895 ], [ -50.501493712930433, -21.585309607153874 ], [ -50.501443056112294, -21.585204320219912 ], [ -50.501442378257906, -21.58520289073034 ], [ -50.501392378343937, -21.585095890690202 ], [ -50.501391926504766, -21.58509491396952 ], [ -50.501343047090998, -21.584988177061707 ], [ -50.501293497937681, -21.584881150664152 ], [ -50.501242835299443, -21.584774858244042 ], [ -50.501241282875995, -21.584771486715784 ], [ -50.501193618976316, -21.584664242704029 ], [ -50.501144066303873, -21.584556217646387 ], [ -50.501094169281991, -21.584448439850618 ], [ -50.501092902889837, -21.584445623162111 ], [ -50.501045520295229, -21.584337037804445 ], [ -50.50099616953019, -21.584230439925012 ], [ -50.500995331312488, -21.584228594370273 ], [ -50.500946331403377, -21.584118594330732 ], [ -50.500945903261659, -21.584117623270476 ], [ -50.500897903386324, -21.584007623306814 ], [ -50.500849903510989, -21.583897623343155 ], [ -50.500802115820747, -21.583788109638494 ], [ -50.500753331902821, -21.583678594477831 ], [ -50.500752903760343, -21.583677623415845 ], [ -50.50070490385221, -21.583567623377039 ], [ -50.500704480777827, -21.583566643608371 ], [ -50.500657690525244, -21.583457134252736 ], [ -50.50060990410153, -21.58334762344975 ], [ -50.500609541153743, -21.58334678418964 ], [ -50.500561541248146, -21.583234784150779 ], [ -50.500561481153476, -21.583234643716754 ], [ -50.500514690901319, -21.583125134362117 ], [ -50.500466904477733, -21.583015623559461 ], [ -50.500466303820481, -21.583014226288885 ], [ -50.50041960038358, -21.582903926424457 ], [ -50.500371904728162, -21.582794623632481 ], [ -50.500371481652444, -21.582793643860697 ], [ -50.50032480795803, -21.582684407301677 ], [ -50.500276143527067, -21.582574167221019 ], [ -50.500275905011392, -21.582573623780647 ], [ -50.500227998723169, -21.582463838288131 ], [ -50.500180425297749, -21.58235580672601 ], [ -50.500172403743143, -21.582338159267593 ], [ -50.500107461696388, -21.582359255295469 ], [ -50.502401211371648, -21.587440966627177 ], [ -50.502640974623425, -21.587009799455444 ], [ -50.502812147366853, -21.586764230709285 ], [ -50.502985095972399, -21.586581223818897 ], [ -50.500924410397467, -21.582093874491715 ], [ -50.500737041924118, -21.582154739997691 ], [ -50.500748029083667, -21.582180220798666 ] ] ], [ [ [ -50.500161039748257, -21.582313158424615 ], [ -50.500130766595966, -21.58224655734514 ], [ -50.500129905384277, -21.582244623889338 ], [ -50.500082024176677, -21.582134895873427 ], [ -50.500033451642636, -21.582024863968897 ], [ -50.499983767007436, -21.581915557534423 ], [ -50.49993386684902, -21.58180577694857 ], [ -50.499883967462793, -21.581696996053545 ], [ -50.499882906007677, -21.581694624070991 ], [ -50.499835329250985, -21.581585593757236 ], [ -50.499785867223125, -21.581476777059947 ], [ -50.499735967837061, -21.581367996165259 ], [ -50.499734906380581, -21.581365624179657 ], [ -50.499687329624521, -21.581256593867344 ], [ -50.49963776784535, -21.581147557716491 ], [ -50.499637334810721, -21.58114659540044 ], [ -50.499588549595266, -21.58103707732776 ], [ -50.499538768095448, -21.580927557790833 ], [ -50.499537906879276, -21.580925624324983 ], [ -50.499490330123912, -21.580816594014262 ], [ -50.499440768345522, -21.580707557865193 ], [ -50.499439907128597, -21.580705624397641 ], [ -50.499392540029419, -21.580597074550479 ], [ -50.49934220637499, -21.580488511535716 ], [ -50.499340907377949, -21.580485624470306 ], [ -50.499292907502593, -21.580375624506644 ], [ -50.499245311270812, -21.580266549562328 ], [ -50.499196728669077, -21.580159469309333 ], [ -50.499195907749659, -21.580157624578657 ], [ -50.499147907874288, -21.580047624614995 ], [ -50.499099907998925, -21.579937624651325 ], [ -50.499052120312108, -21.579828110954558 ], [ -50.4990033363975, -21.579718595801371 ], [ -50.499002666944534, -21.579717068436718 ], [ -50.498955787086274, -21.579608346813792 ], [ -50.498908097169306, -21.579499057173177 ], [ -50.498860288948329, -21.57939148843688 ], [ -50.498859485504333, -21.57938964497141 ], [ -50.498812880564827, -21.579280569328656 ], [ -50.498765289195667, -21.579173488509646 ], [ -50.498764485750961, -21.579171645042532 ], [ -50.498717485843791, -21.579061645004504 ], [ -50.498717423633565, -21.579061499175882 ], [ -50.498671964759581, -21.578954769398035 ], [ -50.498623531476994, -21.578847029818114 ], [ -50.498622486120894, -21.578844645149253 ], [ -50.498575486213717, -21.578734645111211 ], [ -50.498575424003405, -21.578734499282408 ], [ -50.498529637229126, -21.57862699964932 ], [ -50.498482854435068, -21.578519498516073 ], [ -50.498482668300696, -21.578519068829763 ], [ -50.498435668392261, -21.578410068791744 ], [ -50.498435424370946, -21.578409499388254 ], [ -50.498389637596858, -21.578301999755595 ], [ -50.498342854803191, -21.578194498623262 ], [ -50.498342244686327, -21.578193075068235 ], [ -50.49829654583106, -21.578084788396005 ], [ -50.498250070856002, -21.577977994593383 ], [ -50.498202290673866, -21.577870488944612 ], [ -50.498201669036455, -21.577869069043011 ], [ -50.498155188739631, -21.57776127406542 ], [ -50.498106731515414, -21.577654470155089 ], [ -50.498105425228239, -21.577651499635131 ], [ -50.49805973166432, -21.577544218844487 ], [ -50.498013168142805, -21.577438212290755 ], [ -50.497965291286519, -21.577330489124858 ], [ -50.49796466964775, -21.577329069220138 ], [ -50.497917669739316, -21.57722006918214 ], [ -50.497917425716793, -21.577219499775826 ], [ -50.49787206134107, -21.577112991864169 ], [ -50.497823732251668, -21.577006470373846 ], [ -50.497822246031298, -21.577003075453657 ], [ -50.497776966235186, -21.576895781772581 ], [ -50.497728732498224, -21.576789470447096 ], [ -50.497727670261277, -21.576787069397916 ], [ -50.497680977176415, -21.576678780931651 ], [ -50.49763329214759, -21.576571489378164 ], [ -50.497632488694393, -21.576569645891574 ], [ -50.497585883759385, -21.576460570259364 ], [ -50.497538292428111, -21.576353489525665 ], [ -50.497490292517419, -21.576245489486961 ], [ -50.497489912183049, -21.576244625871201 ], [ -50.497442219481421, -21.576135329849535 ], [ -50.497393534678899, -21.576027030765335 ], [ -50.497393292799103, -21.576026489634781 ], [ -50.497345316792561, -21.575918543380567 ], [ -50.497296535708948, -21.57580903458344 ], [ -50.497247733734454, -21.575701470814359 ], [ -50.497247151356589, -21.575700169583044 ], [ -50.497198655047207, -21.575590310351718 ], [ -50.497149179485113, -21.575483442910418 ], [ -50.497147913048714, -21.575480626123461 ], [ -50.49710053047599, -21.575372040816042 ], [ -50.497051179733205, -21.575265442984769 ], [ -50.497050774566347, -21.575264559781925 ], [ -50.497000874410809, -21.575154779202471 ], [ -50.496950975026714, -21.575045998312177 ], [ -50.496950535828269, -21.575045031171115 ], [ -50.49690175367234, -21.574936515525753 ], [ -50.496851975274659, -21.574827998386173 ], [ -50.496851775063043, -21.574827559929517 ], [ -50.496801734887093, -21.574717471222254 ], [ -50.496752955843853, -21.574609957996365 ], [ -50.496703196902295, -21.574502478454658 ], [ -50.496652213312892, -21.574392513617543 ], [ -50.496651102232697, -21.574390055232239 ], [ -50.496603630156542, -21.574282253818492 ], [ -50.496554181009387, -21.574175443433536 ], [ -50.496504181096661, -21.574067443393385 ], [ -50.496503102601224, -21.574065055340103 ], [ -50.496455832431394, -21.573957712423397 ], [ -50.496406605953865, -21.573853352073513 ], [ -50.496405976420093, -21.573851998794613 ], [ -50.49635597650866, -21.573742998754408 ], [ -50.496355492427028, -21.573741931666248 ], [ -50.496307492515051, -21.57363493162757 ], [ -50.496592507377805, -21.573523068248011 ], [ -50.496640267711093, -21.573629533757671 ], [ -50.49667825958349, -21.573712355862344 ], [ -50.496911060505184, -21.573619082125465 ], [ -50.496959731407017, -21.573725363255235 ], [ -50.497009394011272, -21.573830647757493 ], [ -50.497010507735048, -21.573833068349888 ], [ -50.497058066149208, -21.57393908374948 ], [ -50.497107609060954, -21.574045105357762 ], [ -50.497108507978027, -21.574047068421631 ], [ -50.497155963032718, -21.574152853416425 ], [ -50.497205394497918, -21.574257647904535 ], [ -50.497206463339609, -21.574259968552603 ], [ -50.497254939884826, -21.57436780389753 ], [ -50.497304394742955, -21.574472647978599 ], [ -50.497305508464024, -21.574475068565128 ], [ -50.49735350855206, -21.574582068526443 ], [ -50.497353705620462, -21.57458250986846 ], [ -50.497401169387871, -21.57468930310911 ], [ -50.497450609915127, -21.574795105614832 ], [ -50.497451061843684, -21.574796082524543 ], [ -50.497500061930701, -21.574903082485154 ], [ -50.497500705985836, -21.574904509975873 ], [ -50.497548388170259, -21.575011794653328 ], [ -50.497597062175181, -21.575118082558038 ], [ -50.49759730740687, -21.575118621072139 ], [ -50.497645307493627, -21.575224621033488 ], [ -50.497645706350063, -21.575225510082962 ], [ -50.497693608328952, -21.575333289296488 ], [ -50.49774150952625, -21.575440068814181 ], [ -50.497741951443409, -21.575441064304758 ], [ -50.497788514987391, -21.575547070433196 ], [ -50.497837062783525, -21.575653082739514 ], [ -50.497838572569485, -21.575656499694357 ], [ -50.497884266343313, -21.57576378047931 ], [ -50.497930634250075, -21.575869341221136 ], [ -50.497978308345679, -21.575974621286356 ], [ -50.497978952049849, -21.575976064482088 ], [ -50.498025733197146, -21.576082566003805 ], [ -50.498073409901501, -21.576188845090389 ], [ -50.498121308709251, -21.576294621394233 ], [ -50.498121557065076, -21.576295173022285 ], [ -50.498168312794213, -21.576399627081297 ], [ -50.498217063753444, -21.576506083028836 ], [ -50.498217510771113, -21.57650706924661 ], [ -50.498265510859149, -21.576614069207931 ], [ -50.498265757487431, -21.576614622191183 ], [ -50.498312634906561, -21.576720345497172 ], [ -50.498360557669045, -21.57682717320051 ], [ -50.498407434221242, -21.576931897182561 ], [ -50.498455309553485, -21.57703762164472 ], [ -50.498456389839049, -21.577040069462253 ], [ -50.498502173666758, -21.577146566381654 ], [ -50.498548635819724, -21.577252341683664 ], [ -50.498596309917026, -21.577357621752626 ], [ -50.4985969536177, -21.577359064940509 ], [ -50.498643953738977, -21.577466064975969 ], [ -50.498690953860269, -21.577573065011439 ], [ -50.498737882234707, -21.577679901708823 ], [ -50.498783810179859, -21.577783738570378 ], [ -50.498783954099466, -21.57778406508141 ], [ -50.498830954220757, -21.577891065116898 ], [ -50.49887773536954, -21.577997566641983 ], [ -50.498925512550862, -21.578104069707738 ], [ -50.49892620224837, -21.578105632713683 ], [ -50.498972079103353, -21.578211348703906 ], [ -50.499018857437527, -21.578317843820841 ], [ -50.499065759507069, -21.578423622720855 ], [ -50.499066391406608, -21.578425069915749 ], [ -50.49911217523546, -21.578531566837782 ], [ -50.49915895506755, -21.578638065364547 ], [ -50.499205637513022, -21.578744342182773 ], [ -50.499253311612151, -21.578849622255749 ], [ -50.499253955309044, -21.578851065435156 ], [ -50.499300955398091, -21.57895806539722 ], [ -50.499301146086466, -21.578958501537095 ], [ -50.499348146176786, -21.57906650149911 ], [ -50.499348392133271, -21.579067070125994 ], [ -50.499393961005737, -21.579173067042333 ], [ -50.499441190426666, -21.579278349061756 ], [ -50.499489858733583, -21.579383631297688 ], [ -50.499491756717994, -21.57938792529723 ], [ -50.499536844745386, -21.579494764068851 ], [ -50.499584858978253, -21.579598631371013 ], [ -50.499585514282899, -21.579600070284229 ], [ -50.49963319091335, -21.579706349206766 ], [ -50.499681859220694, -21.579811631443629 ], [ -50.499682903974723, -21.579813946552655 ], [ -50.499730276117717, -21.579921520553885 ], [ -50.49977961587345, -21.580027107408768 ], [ -50.499780312985607, -21.580028622727713 ], [ -50.499828172700191, -21.580134312701372 ], [ -50.499877945588061, -21.580242817364557 ], [ -50.499926859831959, -21.580348631626681 ], [ -50.499927068158335, -21.580349084408308 ], [ -50.499975739068546, -21.580455365556276 ], [ -50.500025281326479, -21.580560394925005 ], [ -50.500076160005811, -21.580667140170661 ], [ -50.500077904946835, -21.580670946837088 ], [ -50.500125612949674, -21.580779283517685 ], [ -50.500173173552831, -21.580884312954534 ], [ -50.500223031727671, -21.580993003542766 ], [ -50.500223314082461, -21.580993623053036 ], [ -50.500271293312942, -21.581099576956849 ], [ -50.50032027251401, -21.581207530880249 ], [ -50.500320957982908, -21.581209066216818 ], [ -50.500367836280596, -21.581315788909979 ], [ -50.500415713349852, -21.581423512076508 ], [ -50.500415905800864, -21.581423947087103 ], [ -50.500463834688219, -21.581532785358121 ], [ -50.500510763155049, -21.581638623792312 ], [ -50.500510906044674, -21.581638947158496 ], [ -50.500558906135282, -21.581747947119734 ], [ -50.500559149248019, -21.581748502457081 ], [ -50.500605933565879, -21.581856006603012 ], [ -50.500653713962656, -21.581963512256749 ], [ -50.50065395883896, -21.581964066467172 ], [ -50.500700958928007, -21.582071066429219 ], [ -50.50070133577811, -21.582071932316975 ], [ -50.500726190027002, -21.582129572889738 ], [ -50.50087634344311, -21.582080796491237 ], [ -50.497928900582103, -21.575569457476437 ], [ -50.496667039774678, -21.572757644261458 ], [ -50.496091619069105, -21.57145736894449 ], [ -50.495390614454337, -21.571908076474738 ], [ -50.500096167206713, -21.582334231864177 ], [ -50.500161039748257, -21.582313158424615 ] ] ], [ [ [ -50.495504904842029, -21.571688665209042 ], [ -50.495641821914518, -21.571607678380182 ], [ -50.495673894502076, -21.5714913542907 ], [ -50.495719676314636, -21.571435974171557 ], [ -50.495790366671336, -21.57140903863861 ], [ -50.495828959812734, -21.571410185410976 ], [ -50.495877268492855, -21.57142035718476 ], [ -50.495901619899406, -21.571443271051528 ], [ -50.496045435551309, -21.571353676745311 ], [ -50.494572573002031, -21.56805403022797 ], [ -50.494305247298485, -21.568151700209846 ], [ -50.494245245328393, -21.568166199593716 ], [ -50.494200428864843, -21.568160205260991 ], [ -50.49423531570244, -21.568237653871389 ], [ -50.494285217594395, -21.568347437796188 ], [ -50.494285604549411, -21.568348296775238 ], [ -50.494335604676486, -21.568460296812688 ], [ -50.494385604768844, -21.568572296772412 ], [ -50.494386079177772, -21.568573371582122 ], [ -50.494433844409116, -21.568682833323155 ], [ -50.494483651227014, -21.568794400461616 ], [ -50.494532651317854, -21.568904400422124 ], [ -50.494532891601551, -21.568904942933955 ], [ -50.494539023385492, -21.5689188671622 ], [ -50.494499667116948, -21.568822662715831 ], [ -50.49445466724088, -21.568712662750801 ], [ -50.494409871603587, -21.568603162037718 ], [ -50.494364079908557, -21.568493659897651 ], [ -50.49465191998982, -21.568388339975666 ], [ -50.494697920083567, -21.568498339938422 ], [ -50.494698332564504, -21.568499337158325 ], [ -50.494743332688437, -21.568609337193294 ], [ -50.494788332812362, -21.56871933722827 ], [ -50.494833332936295, -21.568829337263221 ], [ -50.494878333030989, -21.568939337226734 ], [ -50.49487873989456, -21.56894034297029 ], [ -50.494922538586167, -21.569049839426174 ], [ -50.494967333278844, -21.569159337296671 ], [ -50.494967983674854, -21.569160956092137 ], [ -50.495010663775524, -21.56926914491066 ], [ -50.495055163247798, -21.569377921133107 ], [ -50.495099990321449, -21.569485505852775 ], [ -50.495100822678097, -21.569487549038801 ], [ -50.495143822772178, -21.569595549003868 ], [ -50.494878150793205, -21.5696880993275 ], [ -50.494917444791774, -21.569781208801203 ], [ -50.494964135806917, -21.569888498549108 ], [ -50.495011135897187, -21.569996498511152 ], [ -50.494724863998051, -21.570105501363411 ], [ -50.494677864120348, -21.569997501399008 ], [ -50.494630864210627, -21.569889501361072 ], [ -50.49463025407276, -21.56988807775701 ], [ -50.494584765399054, -21.569780289125369 ], [ -50.494537518364041, -21.569673983060195 ], [ -50.494488740704931, -21.569566472884354 ], [ -50.494487078738686, -21.56956265962372 ], [ -50.494441606059617, -21.569453920351073 ], [ -50.494393158529782, -21.56934417161877 ], [ -50.494392920001388, -21.569343628149412 ], [ -50.494345343265458, -21.569234597883376 ], [ -50.494295781506871, -21.569125561777941 ], [ -50.494295108202245, -21.569124056979732 ], [ -50.494247227845371, -21.569015328425802 ], [ -50.494198371747437, -21.568905651228441 ], [ -50.494148394964945, -21.568793702988525 ], [ -50.494147920625473, -21.568792628331291 ], [ -50.494100155609999, -21.568683166589981 ], [ -50.494050395251499, -21.568571703140481 ], [ -50.494000587340288, -21.568460133173506 ], [ -50.49395078238728, -21.568350562039662 ], [ -50.493950586742812, -21.568350129671952 ], [ -50.493901113815355, -21.568240299534015 ], [ -50.493849662769229, -21.568131460556746 ], [ -50.493848395754178, -21.568128703288579 ], [ -50.493798395846532, -21.568016703248308 ], [ -50.494030231114472, -21.567926144898841 ], [ -50.494009292844318, -21.567871129997069 ], [ -50.493984827414948, -21.567773723997558 ], [ -50.493997448500117, -21.567738364057604 ], [ -50.494058296395174, -21.567666541642208 ], [ -50.494132310523369, -21.567616551072398 ], [ -50.494333698305283, -21.567531792769632 ], [ -50.494220724002822, -21.56726875666277 ], [ -50.493575038521925, -21.567849500034161 ], [ -50.49520225702085, -21.571486992421853 ], [ -50.495243825801765, -21.571559547232031 ], [ -50.495411089539921, -21.571615410053138 ], [ -50.495454716489348, -21.571666362824025 ], [ -50.495504904842029, -21.571688665209042 ] ] ] ] } },
{ "type": "Feature", "properties": { "CHAVE": null, "FAZENDA": "Faz. ABC", "NOME_FAZ": null, "ZONA": null, "TALHAO": null, "AREA_TOTAL": null, "TIPO_GEO": "VOO_PROCESSADO", "DATA_INICI": "13-04-2026", "DATA_FINAL": "13-04-2026", "HORA_INICI": "13:43:46", "HORA_FINAL": "13:43:46", "CLASSE": "APLICADO FORA DO TALHÃO", "PILOTO": "valmir alves", "AERONAVE": "PS-CBA", "AREA_HA": 2.65358713e-07 }, "geometry": { "type": "Polygon", "coordinates": [ [ [ -50.494132985929724, -21.568015911802018 ], [ -50.494083604046743, -21.567905296627149 ], [ -50.494074858880751, -21.567908712620774 ], [ -50.494115877854618, -21.568016489098778 ], [ -50.494119828632151, -21.568024369516625 ], [ -50.494142431792973, -21.568060045298246 ], [ -50.494147945704135, -21.568067092499803 ], [ -50.494166250233242, -21.568086278451794 ], [ -50.494132985929724, -21.568015911802018 ] ] ] } },
{ "type": "Feature", "properties": { "CHAVE": null, "FAZENDA": "Faz. ABC", "NOME_FAZ": null, "ZONA": null, "TALHAO": null, "AREA_TOTAL": null, "TIPO_GEO": "VOO_PROCESSADO", "DATA_INICI": "13-04-2026", "DATA_FINAL": "13-04-2026", "HORA_INICI": "13:43:46", "HORA_FINAL": "13:43:46", "CLASSE": "SOBREPOSIÇÃO", "PILOTO": "valmir alves", "AERONAVE": "PS-CBA", "AREA_HA": 5.3487688448000002e-05 }, "geometry": { "type": "MultiPolygon", "coordinates": [ [ [ [ -50.502123211112597, -21.585934635293683 ], [ -50.502121434372711, -21.585930708301809 ], [ -50.502112139843874, -21.585910981179545 ], [ -50.502072565612266, -21.585927291543872 ], [ -50.502121201389997, -21.586030518715624 ], [ -50.502167846847478, -21.586132741959087 ], [ -50.50220523469946, -21.586117818174024 ], [ -50.502168470930044, -21.586038929419001 ], [ -50.502123211112597, -21.585934635293683 ] ] ], [ [ [ -50.501924529408313, -21.585511896898097 ], [ -50.501876073904754, -21.585406086126611 ], [ -50.501875652268311, -21.585405174085444 ], [ -50.501826652183823, -21.585300174124811 ], [ -50.501776621788423, -21.585193109259809 ], [ -50.501775943858703, -21.585191679617303 ], [ -50.501725286836859, -21.585086392687764 ], [ -50.501675849387986, -21.584980596768784 ], [ -50.501627073299332, -21.584874085946158 ], [ -50.501626831187572, -21.584873560133232 ], [ -50.501576831100252, -21.584765560173434 ], [ -50.50157616467358, -21.584764141592782 ], [ -50.501525963690128, -21.584658818177886 ], [ -50.501478716928169, -21.584552513198158 ], [ -50.501478035769026, -21.584551004753671 ], [ -50.501428035680426, -21.58444200479391 ], [ -50.501427830695626, -21.58444155998583 ], [ -50.501378479722021, -21.584334962109775 ], [ -50.501331096913212, -21.584226376751293 ], [ -50.501329830447425, -21.584223559911425 ], [ -50.501280256313436, -21.584116480009605 ], [ -50.501231884447748, -21.584007890347102 ], [ -50.501184096541408, -21.583898376642924 ], [ -50.501136096416744, -21.583788376606595 ], [ -50.501088096292079, -21.583678376570234 ], [ -50.501087668081404, -21.583677405357928 ], [ -50.501038883948439, -21.583567890200307 ], [ -50.500991309495163, -21.583458865658688 ], [ -50.5009445190259, -21.583349356303593 ], [ -50.500944095885295, -21.583348376386059 ], [ -50.500896278672975, -21.583238795523219 ], [ -50.500848488734412, -21.58312728592427 ], [ -50.500801518650263, -21.583017356195217 ], [ -50.500801095509082, -21.583016376276355 ], [ -50.500753399637951, -21.582907073486641 ], [ -50.500706695982707, -21.582796773622835 ], [ -50.500706095258657, -21.582795376203322 ], [ -50.500658308619855, -21.582685865404681 ], [ -50.50061151815131, -21.582576356051266 ], [ -50.500610856459133, -21.582574832614419 ], [ -50.50056197621533, -21.582464104146784 ], [ -50.50051409479169, -21.582354376132752 ], [ -50.500513906816614, -21.582353947323224 ], [ -50.500465906726006, -21.582244947362003 ], [ -50.500465233385654, -21.582243442490618 ], [ -50.500415671391529, -21.582134406340206 ], [ -50.50036809441881, -21.582025376024067 ], [ -50.500367855835272, -21.582024832431518 ], [ -50.500318855743124, -21.581913832471088 ], [ -50.500318233009388, -21.581912442378755 ], [ -50.500268232919524, -21.581802442419018 ], [ -50.50021823279446, -21.581692442381843 ], [ -50.500218032516841, -21.581692003782539 ], [ -50.500168574435975, -21.581584185398011 ], [ -50.500121093795407, -21.581475375842402 ], [ -50.500120232510298, -21.581473442230418 ], [ -50.500070232420434, -21.581363442270682 ], [ -50.500070032142567, -21.581363003670841 ], [ -50.500020574062418, -21.58125518528783 ], [ -50.499973093422518, -21.581146375733745 ], [ -50.499972232136287, -21.58114444211925 ], [ -50.499922450422247, -21.581034922585651 ], [ -50.499873664991746, -21.580925404514382 ], [ -50.499873231886184, -21.5809244420449 ], [ -50.499823669894312, -21.580815405899404 ], [ -50.499776092923845, -21.580706375588417 ], [ -50.499775231636107, -21.58070444197055 ], [ -50.499725669644576, -21.580595405825839 ], [ -50.4996780926745, -21.580486375515747 ], [ -50.499676793604074, -21.580483488300015 ], [ -50.499626459738181, -21.580374925290574 ], [ -50.499579092425158, -21.580266375443102 ], [ -50.499531092300522, -21.580156375406769 ], [ -50.499530271311166, -21.580154530527146 ], [ -50.49948168849982, -21.580047450277867 ], [ -50.499434092053463, -21.579938375334759 ], [ -50.499386091928812, -21.579828375298415 ], [ -50.499338091804177, -21.579718375262079 ], [ -50.499337663586722, -21.579717404034408 ], [ -50.49928900288559, -21.579608165968175 ], [ -50.499242332859794, -21.579499931475521 ], [ -50.499242091523257, -21.579499375114608 ], [ -50.499194091431384, -21.579389375153394 ], [ -50.499193711034536, -21.57938851139965 ], [ -50.499146119454572, -21.579281430583102 ], [ -50.499099514299459, -21.579172354940571 ], [ -50.499098710787202, -21.579170511326861 ], [ -50.499051119207557, -21.579063430511049 ], [ -50.499004545200322, -21.578954427767705 ], [ -50.498958576172022, -21.578846500735185 ], [ -50.498957468505253, -21.578843970018024 ], [ -50.498909002460351, -21.578736158032793 ], [ -50.498862544830544, -21.578627427661324 ], [ -50.498816575802174, -21.578519500628673 ], [ -50.498816145550435, -21.578518501320485 ], [ -50.498769238895946, -21.578410716061732 ], [ -50.498722454160699, -21.578302215542049 ], [ -50.498676575434637, -21.578194500522816 ], [ -50.498676145182316, -21.578193501213303 ], [ -50.498629454188588, -21.578086211514705 ], [ -50.498583755118723, -21.577977924842582 ], [ -50.498583144936539, -21.577976501141706 ], [ -50.498536144846227, -21.577868501179683 ], [ -50.498535709309003, -21.577867510891917 ], [ -50.498488024067896, -21.577760219338092 ], [ -50.498441330767889, -21.57765193086923 ], [ -50.49844026846484, -21.577649529681409 ], [ -50.498391939165394, -21.577543008192201 ], [ -50.498346574577354, -21.577436500275933 ], [ -50.498345953666188, -21.577435064894367 ], [ -50.498298953577148, -21.577328064932313 ], [ -50.498298708696346, -21.57732751071168 ], [ -50.498251023455801, -21.57722021915912 ], [ -50.498204452814413, -21.577112215153409 ], [ -50.498158574088812, -21.577004500135242 ], [ -50.49815726772858, -21.577001529462645 ], [ -50.498109033782903, -21.576895218140653 ], [ -50.498063753773771, -21.576787924457154 ], [ -50.498062267482041, -21.576784529389403 ], [ -50.49801381005063, -21.576677725487301 ], [ -50.497967329543087, -21.576569930514324 ], [ -50.497966707835289, -21.576568510458372 ], [ -50.497919116260064, -21.576461429652483 ], [ -50.497872511109435, -21.576352354020401 ], [ -50.497871707587983, -21.576350510385605 ], [ -50.497823707498661, -21.576242510424326 ], [ -50.497775899035396, -21.57613494162101 ], [ -50.497728087620104, -21.57602537404221 ], [ -50.497727465303349, -21.576023969070814 ], [ -50.497678586740932, -21.57591523944588 ], [ -50.497630707005143, -21.575807510279169 ], [ -50.497581659059243, -21.575697402767243 ], [ -50.497581266245803, -21.575696529022174 ], [ -50.497532560741419, -21.575589178347727 ], [ -50.497483848445391, -21.575478830331527 ], [ -50.497482820492536, -21.575476556926102 ], [ -50.497433469541306, -21.575369959098278 ], [ -50.497386086754432, -21.575261373789957 ], [ -50.497384820244456, -21.575258556851747 ], [ -50.497335024310615, -21.57515099786276 ], [ -50.497285225235622, -21.575041440134356 ], [ -50.497285024952944, -21.575041001523967 ], [ -50.497235246343394, -21.574932484387773 ], [ -50.497186463974849, -21.574823968743999 ], [ -50.497186024705016, -21.574823001449968 ], [ -50.497136125108888, -21.574714220563386 ], [ -50.497086244888159, -21.574604484314992 ], [ -50.497037264916564, -21.574496528693157 ], [ -50.497036819376078, -21.574495556591511 ], [ -50.4969868192888, -21.574387556631667 ], [ -50.496936354251908, -21.574278710653608 ], [ -50.496888897571026, -21.574170944681434 ], [ -50.496887819003923, -21.574168556479968 ], [ -50.49683781891666, -21.574060556520145 ], [ -50.496788369490226, -21.573953745986177 ], [ -50.496740897202507, -21.573845944573598 ], [ -50.496739394019755, -21.573842647763776 ], [ -50.496689712395813, -21.573737322939806 ], [ -50.49667825958349, -21.573712355862344 ], [ -50.496626939386054, -21.573732917750842 ], [ -50.496675939299038, -21.573839917790249 ], [ -50.496676605962357, -21.573841352079786 ], [ -50.496726037223056, -21.57394614657057 ], [ -50.496773492069785, -21.57405193156437 ], [ -50.496774390914702, -21.574053894479128 ], [ -50.496823933620391, -21.574159916092185 ], [ -50.496871491826802, -21.574265931492608 ], [ -50.496872605475708, -21.574268351932741 ], [ -50.496922060129535, -21.57437319601701 ], [ -50.496970536463493, -21.574481031362513 ], [ -50.496971605230669, -21.574483351858671 ], [ -50.497021036492754, -21.574588146352415 ], [ -50.497068392416416, -21.574693710829884 ], [ -50.497116294183805, -21.574801490045509 ], [ -50.497117390060531, -21.574803894222057 ], [ -50.49716716208826, -21.574910406584941 ], [ -50.497215611844581, -21.575016205259463 ], [ -50.497263293818428, -21.575123489938107 ], [ -50.497263937803076, -21.575124917278853 ], [ -50.497312814517898, -21.575231648293322 ], [ -50.497360491386132, -21.575336934939536 ], [ -50.4974082934542, -21.57544448983101 ], [ -50.497408490454632, -21.575444931022716 ], [ -50.497456267424795, -21.575551434086272 ], [ -50.497503048362049, -21.575657935608064 ], [ -50.497503937194729, -21.575659917097372 ], [ -50.497552158856806, -21.57576521768863 ], [ -50.497597427236137, -21.57587150021671 ], [ -50.49759804808609, -21.57587293546338 ], [ -50.497645047997054, -21.575979935501316 ], [ -50.497645691633181, -21.575981378550907 ], [ -50.497693365522764, -21.576086658619655 ], [ -50.497740047755599, -21.576192935430722 ], [ -50.497740489604297, -21.576193930771481 ], [ -50.49778848951626, -21.57630093081017 ], [ -50.497788691269605, -21.576301378443013 ], [ -50.497836566394874, -21.576407102907851 ], [ -50.497883442741433, -21.576511826891078 ], [ -50.49788393622481, -21.576512916808024 ], [ -50.497932710676508, -21.576619424512977 ], [ -50.497980365107345, -21.576725654414798 ], [ -50.49802724231855, -21.576831377721906 ], [ -50.498027488879877, -21.576831930557503 ], [ -50.498075465485051, -21.57693887864141 ], [ -50.498122442137465, -21.577043826712877 ], [ -50.498122690425383, -21.577044378192525 ], [ -50.498170138211805, -21.577149158949421 ], [ -50.498215609967083, -21.577254930449097 ], [ -50.498216046518245, -21.577255935004946 ], [ -50.498263046429216, -21.577362935042899 ], [ -50.498263690061833, -21.577364378084617 ], [ -50.498311363953171, -21.577469658157248 ], [ -50.498358046187732, -21.577575934972288 ], [ -50.498405046066438, -21.577682934936821 ], [ -50.498452045945157, -21.57778993490135 ], [ -50.498452189800297, -21.577790261267584 ], [ -50.498498117541097, -21.577894098130781 ], [ -50.49854504570596, -21.578000934831394 ], [ -50.498592045584672, -21.578107934795931 ], [ -50.498592487430017, -21.578108930129151 ], [ -50.498640137607822, -21.578215150551006 ], [ -50.498685797558281, -21.578320367197932 ], [ -50.498686045310947, -21.578320934651877 ], [ -50.498733045221904, -21.578427934689827 ], [ -50.498733240474436, -21.578428377116381 ], [ -50.498779920255032, -21.578533655154288 ], [ -50.498825608399507, -21.578639929995596 ], [ -50.498826044948203, -21.578640934545771 ], [ -50.498873044859153, -21.57874793458371 ], [ -50.498920044737858, -21.57885493454825 ], [ -50.498920688366695, -21.578856377581467 ], [ -50.498968362259845, -21.578961657658141 ], [ -50.499014948772633, -21.579067716553055 ], [ -50.49906173009574, -21.579175214305884 ], [ -50.499107607672848, -21.579281929785349 ], [ -50.499108486095942, -21.579283929734906 ], [ -50.499156486007891, -21.579390929773599 ], [ -50.499157141242627, -21.57939236853953 ], [ -50.499205155271767, -21.579496235844978 ], [ -50.49925024308704, -21.579603074613573 ], [ -50.49925214099796, -21.579607368466188 ], [ -50.499300809099765, -21.579712650706288 ], [ -50.49934848552185, -21.579818929630026 ], [ -50.499349140755513, -21.579820368393598 ], [ -50.499397607537283, -21.579925215124437 ], [ -50.499445095828939, -21.580033053361035 ], [ -50.499446384102171, -21.580035892428082 ], [ -50.499496030839197, -21.58014213666852 ], [ -50.499543686819678, -21.580247377186829 ], [ -50.499543969105268, -21.580247996547946 ], [ -50.499593969016686, -21.580356996588161 ], [ -50.499594140144268, -21.580357368210532 ], [ -50.499643035482904, -21.580463142024875 ], [ -50.499691931645806, -21.580569915507393 ], [ -50.499692598292455, -21.580571349761062 ], [ -50.499742598207725, -21.580677349801174 ], [ -50.499742839967219, -21.580677859666192 ], [ -50.499792938259183, -21.580782968064138 ], [ -50.499840094856808, -21.580890053076597 ], [ -50.499840686053972, -21.580891376895327 ], [ -50.499888685967193, -21.580997376933983 ], [ -50.499888968251966, -21.580997996293313 ], [ -50.499938826215256, -21.58110668688623 ], [ -50.499986685722817, -21.581212376861494 ], [ -50.500035379921215, -21.581319703171765 ], [ -50.500082041822473, -21.581425933695989 ], [ -50.500082286632988, -21.581426487759991 ], [ -50.500130189939696, -21.581534270439526 ], [ -50.500178094002784, -21.581643052826585 ], [ -50.500178236826443, -21.581643376044891 ], [ -50.500225165085382, -21.581749214481601 ], [ -50.500272971586789, -21.581857775322153 ], [ -50.500319850556835, -21.581965497455442 ], [ -50.500320286020205, -21.581966487579741 ], [ -50.50036816287875, -21.582074210750807 ], [ -50.500414851045186, -21.582180501071086 ], [ -50.500461664026183, -21.582289067595259 ], [ -50.500462285652524, -21.582290487471585 ], [ -50.500510285563195, -21.582398487510307 ], [ -50.500557970566177, -21.582505779005739 ], [ -50.50060466365818, -21.582614067488645 ], [ -50.500605684093649, -21.582616376313542 ], [ -50.50065316308909, -21.582721225990504 ], [ -50.500699663414721, -21.582829067418082 ], [ -50.500700285039713, -21.582830487291297 ], [ -50.500748284950376, -21.58293848733004 ], [ -50.500796161776201, -21.583046210427472 ], [ -50.500842944142114, -21.583152715202232 ], [ -50.500889849089468, -21.58326049702826 ], [ -50.5009368489671, -21.583368496992637 ], [ -50.500937092012386, -21.583369052178405 ], [ -50.500985091921777, -21.583478052217163 ], [ -50.500985234744384, -21.583478375433121 ], [ -50.501032163003416, -21.583584213870058 ], [ -50.501079844641851, -21.583692491167213 ], [ -50.501125602558915, -21.583798928306205 ], [ -50.501125848446677, -21.58379949677683 ], [ -50.501172848356362, -21.583907496814831 ], [ -50.501173480843413, -21.583908928183178 ], [ -50.501221160379096, -21.584015214048815 ], [ -50.501267848112704, -21.584122496743902 ], [ -50.501269135855551, -21.584125366925495 ], [ -50.50131734521085, -21.584229656773857 ], [ -50.501362601952053, -21.584334928130637 ], [ -50.501363038490609, -21.584335932657492 ], [ -50.501410038401552, -21.584442932695445 ], [ -50.501410480235776, -21.584443928003623 ], [ -50.501458159772106, -21.584550213870713 ], [ -50.501504723886526, -21.584657212504254 ], [ -50.501550601466356, -21.584763927990107 ], [ -50.501552566933562, -21.584768291943124 ], [ -50.501600545865244, -21.584870124990793 ], [ -50.501645601227416, -21.584974927920999 ], [ -50.501646037764843, -21.584975932445222 ], [ -50.501693037675757, -21.585082932483189 ], [ -50.501693432975934, -21.585083823945521 ], [ -50.501740432889406, -21.58518882398344 ], [ -50.501740681169437, -21.585189375445573 ], [ -50.50178845487541, -21.585294875942544 ], [ -50.501835232595809, -21.585400374865582 ], [ -50.501835887608969, -21.585401829633298 ], [ -50.501883761889687, -21.585506554847697 ], [ -50.50193020598968, -21.585609324995445 ], [ -50.501975789181472, -21.585714364763255 ], [ -50.502013074113385, -21.585700210877402 ], [ -50.501975112651067, -21.585617170356631 ], [ -50.50197396223831, -21.585614716975051 ], [ -50.501924529408313, -21.585511896898097 ] ] ], [ [ [ -50.494822699920434, -21.569562508195972 ], [ -50.494822259275359, -21.569561526952217 ], [ -50.494774119209211, -21.569455422548035 ], [ -50.494728921065921, -21.56934734028685 ], [ -50.494727841456452, -21.569344828216767 ], [ -50.49467896121925, -21.569234099763904 ], [ -50.494631079801842, -21.569124371764012 ], [ -50.494630218474825, -21.569122438057903 ], [ -50.494580559577088, -21.569013188719687 ], [ -50.494539023385492, -21.5689188671622 ], [ -50.494544666993022, -21.568932662680869 ], [ -50.494589461438622, -21.569042160481736 ], [ -50.494633259911637, -21.569151656937404 ], [ -50.494633666715934, -21.569152662539469 ], [ -50.494678336248661, -21.569261854997247 ], [ -50.494721016132708, -21.569370043814398 ], [ -50.494721666469225, -21.569371662469887 ], [ -50.494766666374531, -21.569481662506366 ], [ -50.494767009669424, -21.569482493983983 ], [ -50.494811585140603, -21.569589475370915 ], [ -50.494854177130001, -21.569696450867987 ], [ -50.494878150793205, -21.5696880993275 ], [ -50.494871745732389, -21.569672922153806 ], [ -50.494870700009713, -21.569670508157284 ], [ -50.494822699920434, -21.569562508195972 ] ] ] ] } },
{ "type": "Feature", "properties": { "CHAVE": null, "FAZENDA": "Faz. ABC", "NOME_FAZ": null, "ZONA": null, "TALHAO": null, "AREA_TOTAL": null, "TIPO_GEO": "VOO_PROCESSADO", "DATA_INICI": "13-04-2026", "DATA_FINAL": "13-04-2026", "HORA_INICI": "13:43:46", "HORA_FINAL": "13:43:46", "CLASSE": "APLICADO", "PILOTO": "valmir alves", "AERONAVE": "PS-CBA", "AREA_HA": 0.0010488338155199999 }, "geometry": { "type": "MultiPolygon", "coordinates": [ [ [ [ -50.502405152959966, -21.585916257954874 ], [ -50.50240443435986, -21.585914708294066 ], [ -50.502355434276666, -21.585810708333408 ], [ -50.502112139855029, -21.585910981215509 ], [ -50.502072434289488, -21.585826708341131 ], [ -50.502022764813034, -21.585721409237419 ], [ -50.502013074122928, -21.585700210911209 ], [ -50.502262210713887, -21.585605635111161 ], [ -50.502216210625093, -21.585499635148359 ], [ -50.502215362505204, -21.585497720297706 ], [ -50.502168362419951, -21.585393720335595 ], [ -50.502168112367848, -21.585393170204256 ], [ -50.502120444036422, -21.58528889595399 ], [ -50.502073767210071, -21.585183625047485 ], [ -50.50207331880938, -21.585182624391592 ], [ -50.502025443473578, -21.585076899921653 ], [ -50.501978766158658, -21.584972621043644 ], [ -50.501932182413114, -21.584866568925396 ], [ -50.50188639857862, -21.584760071990331 ], [ -50.501884433038569, -21.584755707894825 ], [ -50.50183645390856, -21.584653874852336 ], [ -50.501791398339691, -21.584549071921231 ], [ -50.501791152388726, -21.584548503307076 ], [ -50.501744152298386, -21.584440503345085 ], [ -50.501743519745062, -21.584439071833195 ], [ -50.50169574255839, -21.584332568755549 ], [ -50.501649181687974, -21.584226568714588 ], [ -50.501603397854005, -21.584120071780703 ], [ -50.501601864120637, -21.584116632911694 ], [ -50.501553524428957, -21.584012061556823 ], [ -50.50150715169211, -21.583905503168619 ], [ -50.501506519137429, -21.583904071653656 ], [ -50.501458839393315, -21.583797785791404 ], [ -50.501412275037445, -21.583690787088965 ], [ -50.501366397247139, -21.583584071605138 ], [ -50.501365908216307, -21.583582947729145 ], [ -50.501317908125699, -21.583473947767917 ], [ -50.501317765237104, -21.583473624404089 ], [ -50.501270836769969, -21.583367785969234 ], [ -50.501223030020753, -21.58325922505319 ], [ -50.501176150837729, -21.583151502919872 ], [ -50.501129150715357, -21.583043502884241 ], [ -50.501128960030123, -21.583043066751557 ], [ -50.501081959941068, -21.582936066789525 ], [ -50.501081715065723, -21.582935512581233 ], [ -50.50103371497638, -21.582827512619978 ], [ -50.50098602969576, -21.582720220977304 ], [ -50.500939336389564, -21.582611932494146 ], [ -50.500938315885179, -21.582609623523659 ], [ -50.500890836684142, -21.582504773850083 ], [ -50.500844336146109, -21.582396932423617 ], [ -50.500843714452884, -21.582395512400964 ], [ -50.500795714363555, -21.582287512439692 ], [ -50.500748029083667, -21.582180220798666 ], [ -50.50070133577811, -21.582071932316975 ], [ -50.500700958928007, -21.582071066429219 ], [ -50.50065395883896, -21.581964066467172 ], [ -50.500653713962656, -21.581963512256749 ], [ -50.500605933565879, -21.581856006603012 ], [ -50.500559149248019, -21.581748502457081 ], [ -50.500558906135282, -21.581747947119734 ], [ -50.500510906044674, -21.581638947158496 ], [ -50.500510763155049, -21.581638623792312 ], [ -50.500463834688219, -21.581532785358121 ], [ -50.500415905800864, -21.581423947087103 ], [ -50.500415713349852, -21.581423512076508 ], [ -50.500367836280596, -21.581315788909979 ], [ -50.500320957982908, -21.581209066216818 ], [ -50.50032027251401, -21.581207530880249 ], [ -50.500271293312942, -21.581099576956849 ], [ -50.500223314082461, -21.580993623053036 ], [ -50.500223031727671, -21.580993003542766 ], [ -50.500173173552831, -21.580884312954534 ], [ -50.500125612949674, -21.580779283517685 ], [ -50.500077904946835, -21.580670946837088 ], [ -50.500076160005811, -21.580667140170661 ], [ -50.500025281326479, -21.580560394925005 ], [ -50.499975739068546, -21.580455365556276 ], [ -50.499927068158335, -21.580349084408308 ], [ -50.499926859831959, -21.580348631626681 ], [ -50.499877945588061, -21.580242817364557 ], [ -50.499828172700191, -21.580134312701372 ], [ -50.499780312985607, -21.580028622727713 ], [ -50.49977961587345, -21.580027107408768 ], [ -50.499730276117717, -21.579921520553885 ], [ -50.499682903974723, -21.579813946552655 ], [ -50.499681859220694, -21.579811631443629 ], [ -50.49963319091335, -21.579706349206766 ], [ -50.499585514282899, -21.579600070284229 ], [ -50.499584858978253, -21.579598631371013 ], [ -50.499536844745386, -21.579494764068851 ], [ -50.499491756717994, -21.57938792529723 ], [ -50.499489858733583, -21.579383631297688 ], [ -50.499441190426666, -21.579278349061756 ], [ -50.499393961005737, -21.579173067042333 ], [ -50.499348392133271, -21.579067070125994 ], [ -50.499348146176786, -21.57906650149911 ], [ -50.499301146086466, -21.578958501537095 ], [ -50.499300955398091, -21.57895806539722 ], [ -50.499253955309044, -21.578851065435156 ], [ -50.499253311612151, -21.578849622255749 ], [ -50.499205637513022, -21.578744342182773 ], [ -50.49915895506755, -21.578638065364547 ], [ -50.49911217523546, -21.578531566837782 ], [ -50.499066391406608, -21.578425069915749 ], [ -50.499065759507069, -21.578423622720855 ], [ -50.499018857437527, -21.578317843820841 ], [ -50.498972079103353, -21.578211348703906 ], [ -50.49892620224837, -21.578105632713683 ], [ -50.498925512550862, -21.578104069707738 ], [ -50.49887773536954, -21.577997566641983 ], [ -50.498830954220757, -21.577891065116898 ], [ -50.498783954099466, -21.57778406508141 ], [ -50.498783810179859, -21.577783738570378 ], [ -50.498737882234707, -21.577679901708823 ], [ -50.498690953860269, -21.577573065011439 ], [ -50.498643953738977, -21.577466064975969 ], [ -50.4985969536177, -21.577359064940509 ], [ -50.498596309917026, -21.577357621752626 ], [ -50.498548635819724, -21.577252341683664 ], [ -50.498502173666758, -21.577146566381654 ], [ -50.498456389839049, -21.577040069462253 ], [ -50.498455309553485, -21.57703762164472 ], [ -50.498407434221242, -21.576931897182561 ], [ -50.498360557669045, -21.57682717320051 ], [ -50.498312634906561, -21.576720345497172 ], [ -50.498265757487431, -21.576614622191183 ], [ -50.498265510859149, -21.576614069207931 ], [ -50.498217510771113, -21.57650706924661 ], [ -50.498217063753444, -21.576506083028836 ], [ -50.498168312794213, -21.576399627081297 ], [ -50.498121557065076, -21.576295173022285 ], [ -50.498121308709251, -21.576294621394233 ], [ -50.498073409901501, -21.576188845090389 ], [ -50.498025733197146, -21.576082566003805 ], [ -50.497978952049849, -21.575976064482088 ], [ -50.497978308345679, -21.575974621286356 ], [ -50.497930634250075, -21.575869341221136 ], [ -50.497884266343313, -21.57576378047931 ], [ -50.497838572569485, -21.575656499694357 ], [ -50.497837062783525, -21.575653082739514 ], [ -50.497788514987391, -21.575547070433196 ], [ -50.497741951443409, -21.575441064304758 ], [ -50.49774150952625, -21.575440068814181 ], [ -50.497693608328952, -21.575333289296488 ], [ -50.497645706350063, -21.575225510082962 ], [ -50.497645307493627, -21.575224621033488 ], [ -50.49759730740687, -21.575118621072139 ], [ -50.497597062175181, -21.575118082558038 ], [ -50.497548388170259, -21.575011794653328 ], [ -50.497500705985836, -21.574904509975873 ], [ -50.497500061930701, -21.574903082485154 ], [ -50.497451061843684, -21.574796082524543 ], [ -50.497450609915127, -21.574795105614832 ], [ -50.497401169387871, -21.57468930310911 ], [ -50.497353705620462, -21.57458250986846 ], [ -50.49735350855206, -21.574582068526443 ], [ -50.497305508464024, -21.574475068565128 ], [ -50.497304394742955, -21.574472647978599 ], [ -50.497254939884826, -21.57436780389753 ], [ -50.497206463339609, -21.574259968552603 ], [ -50.497205394497918, -21.574257647904535 ], [ -50.497155963032718, -21.574152853416425 ], [ -50.497108507978027, -21.574047068421631 ], [ -50.497107609060954, -21.574045105357762 ], [ -50.497058066149208, -21.57393908374948 ], [ -50.497010507735048, -21.573833068349888 ], [ -50.497009394011272, -21.573830647757493 ], [ -50.496959731407017, -21.573725363255235 ], [ -50.496911060505184, -21.573619082125465 ], [ -50.496678259596784, -21.573712355906537 ], [ -50.496640267711093, -21.573629533757671 ], [ -50.496592507377805, -21.573523068248011 ], [ -50.496307492515051, -21.57363493162757 ], [ -50.496355492427028, -21.573741931666248 ], [ -50.49635597650866, -21.573742998754408 ], [ -50.496405976420093, -21.573851998794613 ], [ -50.496406605953865, -21.573853352073513 ], [ -50.496455832431394, -21.573957712423397 ], [ -50.496503102601224, -21.574065055340103 ], [ -50.496504181096661, -21.574067443393385 ], [ -50.496554181009387, -21.574175443433536 ], [ -50.496603630156542, -21.574282253818492 ], [ -50.496651102232697, -21.574390055232239 ], [ -50.496652213312892, -21.574392513617543 ], [ -50.496703196902295, -21.574502478454658 ], [ -50.496752955843853, -21.574609957996365 ], [ -50.496801734887093, -21.574717471222254 ], [ -50.496851775063043, -21.574827559929517 ], [ -50.496851975274659, -21.574827998386173 ], [ -50.49690175367234, -21.574936515525753 ], [ -50.496950535828269, -21.575045031171115 ], [ -50.496950975026714, -21.575045998312177 ], [ -50.497000874410809, -21.575154779202471 ], [ -50.497050774566347, -21.575264559781925 ], [ -50.497051179733205, -21.575265442984769 ], [ -50.49710053047599, -21.575372040816042 ], [ -50.497147913048714, -21.575480626123461 ], [ -50.497149179485113, -21.575483442910418 ], [ -50.497198655047207, -21.575590310351718 ], [ -50.497247151356589, -21.575700169583044 ], [ -50.497247733734454, -21.575701470814359 ], [ -50.497296535708948, -21.57580903458344 ], [ -50.497345316792561, -21.575918543380567 ], [ -50.497393292799103, -21.576026489634781 ], [ -50.497393534678899, -21.576027030765335 ], [ -50.497442219481421, -21.576135329849535 ], [ -50.497489912183049, -21.576244625871201 ], [ -50.497490292517419, -21.576245489486961 ], [ -50.497538292428111, -21.576353489525665 ], [ -50.497585883759385, -21.576460570259364 ], [ -50.497632488694393, -21.576569645891574 ], [ -50.49763329214759, -21.576571489378164 ], [ -50.497680977176415, -21.576678780931651 ], [ -50.497727670261277, -21.576787069397916 ], [ -50.497728732498224, -21.576789470447096 ], [ -50.497776966235186, -21.576895781772581 ], [ -50.497822246031298, -21.577003075453657 ], [ -50.497823732251668, -21.577006470373846 ], [ -50.49787206134107, -21.577112991864169 ], [ -50.497917425716793, -21.577219499775826 ], [ -50.497917669739316, -21.57722006918214 ], [ -50.49796466964775, -21.577329069220138 ], [ -50.497965291286519, -21.577330489124858 ], [ -50.498013168142805, -21.577438212290755 ], [ -50.49805973166432, -21.577544218844487 ], [ -50.498105425228239, -21.577651499635131 ], [ -50.498106731515414, -21.577654470155089 ], [ -50.498155188739631, -21.57776127406542 ], [ -50.498201669036455, -21.577869069043011 ], [ -50.498202290673866, -21.577870488944612 ], [ -50.498250070856002, -21.577977994593383 ], [ -50.49829654583106, -21.578084788396005 ], [ -50.498342244686327, -21.578193075068235 ], [ -50.498342854803191, -21.578194498623262 ], [ -50.498389637596858, -21.578301999755595 ], [ -50.498435424370946, -21.578409499388254 ], [ -50.498435668392261, -21.578410068791744 ], [ -50.498482668300696, -21.578519068829763 ], [ -50.498482854435068, -21.578519498516073 ], [ -50.498529637229126, -21.57862699964932 ], [ -50.498575424003405, -21.578734499282408 ], [ -50.498575486213717, -21.578734645111211 ], [ -50.498622486120894, -21.578844645149253 ], [ -50.498623531476994, -21.578847029818114 ], [ -50.498671964759581, -21.578954769398035 ], [ -50.498717423633565, -21.579061499175882 ], [ -50.498717485843791, -21.579061645004504 ], [ -50.498764485750961, -21.579171645042532 ], [ -50.498765289195667, -21.579173488509646 ], [ -50.498812880564827, -21.579280569328656 ], [ -50.498859485504333, -21.57938964497141 ], [ -50.498860288948329, -21.57939148843688 ], [ -50.498908097169306, -21.579499057173177 ], [ -50.498955787086274, -21.579608346813792 ], [ -50.499002666944534, -21.579717068436718 ], [ -50.4990033363975, -21.579718595801371 ], [ -50.499052120312108, -21.579828110954558 ], [ -50.499099907998925, -21.579937624651325 ], [ -50.499147907874288, -21.580047624614995 ], [ -50.499195907749659, -21.580157624578657 ], [ -50.499196728669077, -21.580159469309333 ], [ -50.499245311270812, -21.580266549562328 ], [ -50.499292907502593, -21.580375624506644 ], [ -50.499340907377949, -21.580485624470306 ], [ -50.49934220637499, -21.580488511535716 ], [ -50.499392540029419, -21.580597074550479 ], [ -50.499439907128597, -21.580705624397641 ], [ -50.499440768345522, -21.580707557865193 ], [ -50.499490330123912, -21.580816594014262 ], [ -50.499537906879276, -21.580925624324983 ], [ -50.499538768095448, -21.580927557790833 ], [ -50.499588549595266, -21.58103707732776 ], [ -50.499637334810721, -21.58114659540044 ], [ -50.49963776784535, -21.581147557716491 ], [ -50.499687329624521, -21.581256593867344 ], [ -50.499734906380581, -21.581365624179657 ], [ -50.499735967837061, -21.581367996165259 ], [ -50.499785867223125, -21.581476777059947 ], [ -50.499835329250985, -21.581585593757236 ], [ -50.499882906007677, -21.581694624070991 ], [ -50.499883967462793, -21.581696996053545 ], [ -50.49993386684902, -21.58180577694857 ], [ -50.499983767007436, -21.581915557534423 ], [ -50.500033451642636, -21.582024863968897 ], [ -50.500082024176677, -21.582134895873427 ], [ -50.500129905384277, -21.582244623889338 ], [ -50.500130766595966, -21.58224655734514 ], [ -50.500180425297749, -21.58235580672601 ], [ -50.500227998723169, -21.582463838288131 ], [ -50.500275905011392, -21.582573623780647 ], [ -50.500276143527067, -21.582574167221019 ], [ -50.50032480795803, -21.582684407301677 ], [ -50.500371481652444, -21.582793643860697 ], [ -50.500371904728162, -21.582794623632481 ], [ -50.50041960038358, -21.582903926424457 ], [ -50.500466303820481, -21.583014226288885 ], [ -50.500466904477733, -21.583015623559461 ], [ -50.500514690901319, -21.583125134362117 ], [ -50.500561481153476, -21.583234643716754 ], [ -50.500561541248146, -21.583234784150779 ], [ -50.500609541153743, -21.58334678418964 ], [ -50.50060990410153, -21.58334762344975 ], [ -50.500657690525244, -21.583457134252736 ], [ -50.500704480777827, -21.583566643608371 ], [ -50.50070490385221, -21.583567623377039 ], [ -50.500752903760343, -21.583677623415845 ], [ -50.500753331902821, -21.583678594477831 ], [ -50.500802115820747, -21.583788109638494 ], [ -50.500849903510989, -21.583897623343155 ], [ -50.500897903386324, -21.584007623306814 ], [ -50.500945903261659, -21.584117623270476 ], [ -50.500946331403377, -21.584118594330732 ], [ -50.500995331312488, -21.584228594370273 ], [ -50.50099616953019, -21.584230439925012 ], [ -50.501045520295229, -21.584337037804445 ], [ -50.501092902889837, -21.584445623162111 ], [ -50.501094169281991, -21.584448439850618 ], [ -50.501144066303873, -21.584556217646387 ], [ -50.501193618976316, -21.584664242704029 ], [ -50.501241282875995, -21.584771486715784 ], [ -50.501242835299443, -21.584774858244042 ], [ -50.501293497937681, -21.584881150664152 ], [ -50.501343047090998, -21.584988177061707 ], [ -50.501391926504766, -21.58509491396952 ], [ -50.501392378343937, -21.585095890690202 ], [ -50.501442378257906, -21.58520289073034 ], [ -50.501443056112294, -21.585204320219912 ], [ -50.501493712930433, -21.585309607153874 ], [ -50.501543362851848, -21.585415858207895 ], [ -50.501592135128092, -21.585520370448155 ], [ -50.501640925899338, -21.585626913789081 ], [ -50.501642037731195, -21.585629282862925 ], [ -50.50169145029087, -21.585732061196474 ], [ -50.501738887154687, -21.585835829558206 ], [ -50.501739592295039, -21.58583734794372 ], [ -50.501789578900436, -21.585943319766905 ], [ -50.501837646182551, -21.58604534033406 ], [ -50.501882788693969, -21.586149364617921 ], [ -50.501884315439341, -21.586152758109723 ], [ -50.501932078938601, -21.586255250834469 ], [ -50.50197837752134, -21.586356713904976 ], [ -50.502022925410998, -21.586458679304698 ], [ -50.502023636393332, -21.58646027921661 ], [ -50.502070509026538, -21.586563997609854 ], [ -50.502116051468299, -21.586665973302768 ], [ -50.502160728765453, -21.586769227736426 ], [ -50.502161332657373, -21.586770603019033 ], [ -50.50220633257392, -21.586871603055336 ], [ -50.502491667319369, -21.58676039681994 ], [ -50.502446972963867, -21.586660083044642 ], [ -50.502402271042875, -21.586556772174305 ], [ -50.502401616957961, -21.586555284374025 ], [ -50.502355616872968, -21.586452284411138 ], [ -50.502355363584094, -21.586451720621291 ], [ -50.502308724117185, -21.586348518622025 ], [ -50.502264074397843, -21.586246320606325 ], [ -50.502263153294443, -21.586244257995418 ], [ -50.502216153210455, -21.586141258033262 ], [ -50.50221568453339, -21.586140241728561 ], [ -50.502205234709344, -21.586117818208283 ], [ -50.502452153043947, -21.586019257917041 ], [ -50.502405152959966, -21.585916257954874 ] ] ], [ [ [ -50.494539023385578, -21.568918867171973 ], [ -50.494532891601551, -21.568904942933955 ], [ -50.494532651317854, -21.568904400422124 ], [ -50.494483651227014, -21.568794400461616 ], [ -50.494433844409116, -21.568682833323155 ], [ -50.494386079177772, -21.568573371582122 ], [ -50.494385604768844, -21.568572296772412 ], [ -50.494335604676486, -21.568460296812688 ], [ -50.494285604549411, -21.568348296775238 ], [ -50.494285217594395, -21.568347437796188 ], [ -50.49423531570244, -21.568237653871389 ], [ -50.494185413058659, -21.568126870244043 ], [ -50.494184337207329, -21.568124539279065 ], [ -50.494166250233242, -21.568086278451794 ], [ -50.494147945704135, -21.568067092499803 ], [ -50.494142431792973, -21.568060045298246 ], [ -50.494119828632151, -21.568024369516625 ], [ -50.494115877854618, -21.568016489098778 ], [ -50.494074858880751, -21.567908712620774 ], [ -50.493798395846532, -21.568016703248308 ], [ -50.493848395754178, -21.568128703288579 ], [ -50.493849662769229, -21.568131460556746 ], [ -50.493901113815355, -21.568240299534015 ], [ -50.493950586742812, -21.568350129671952 ], [ -50.49395078238728, -21.568350562039662 ], [ -50.494000587340288, -21.568460133173506 ], [ -50.494050395251499, -21.568571703140481 ], [ -50.494100155609999, -21.568683166589981 ], [ -50.494147920625473, -21.568792628331291 ], [ -50.494148394964945, -21.568793702988525 ], [ -50.494198371747437, -21.568905651228441 ], [ -50.494247227845371, -21.569015328425802 ], [ -50.494295108202245, -21.569124056979732 ], [ -50.494295781506871, -21.569125561777941 ], [ -50.494345343265458, -21.569234597883376 ], [ -50.494392920001388, -21.569343628149412 ], [ -50.494393158529782, -21.56934417161877 ], [ -50.494441606059617, -21.569453920351073 ], [ -50.494487078738686, -21.56956265962372 ], [ -50.494488740704931, -21.569566472884354 ], [ -50.494537518364041, -21.569673983060195 ], [ -50.494584765399054, -21.569780289125369 ], [ -50.49463025407276, -21.56988807775701 ], [ -50.494630864210627, -21.569889501361072 ], [ -50.494677864120348, -21.569997501399008 ], [ -50.494724863998051, -21.570105501363411 ], [ -50.495011135897187, -21.569996498511152 ], [ -50.494964135806917, -21.569888498549108 ], [ -50.494917444791774, -21.569781208801203 ], [ -50.494878150798506, -21.569688099350284 ], [ -50.495143822772178, -21.569595549003868 ], [ -50.495100822678097, -21.569487549038801 ], [ -50.495099990321449, -21.569485505852775 ], [ -50.495055163247798, -21.569377921133107 ], [ -50.495010663775524, -21.56926914491066 ], [ -50.494967983674854, -21.569160956092137 ], [ -50.494967333278844, -21.569159337296671 ], [ -50.494922538586167, -21.569049839426174 ], [ -50.49487873989456, -21.56894034297029 ], [ -50.494878333030989, -21.568939337226734 ], [ -50.494833332936295, -21.568829337263221 ], [ -50.494788332812362, -21.56871933722827 ], [ -50.494743332688437, -21.568609337193294 ], [ -50.494698332564504, -21.568499337158325 ], [ -50.494697920083567, -21.568498339938422 ], [ -50.49465191998982, -21.568388339975666 ], [ -50.494364079908557, -21.568493659897651 ], [ -50.494409871603587, -21.568603162037718 ], [ -50.49445466724088, -21.568712662750801 ], [ -50.494499667116948, -21.568822662715831 ], [ -50.494539023385578, -21.568918867171973 ] ] ] ] } }
]
}
