{
"type": "FeatureCollection",
"name": "307592_SITIO_RIO_FEIO_17-04-2026_30-06-2026_14h10m",
"crs": { "type": "name", "properties": { "name": "urn:ogc:def:crs:OGC:1.3:CRS84" } },
"features": [
{ "type": "Feature", "properties": { "CHAVE": "3075922", "FAZENDA": "307592", "NOME_FAZ": "SITIO RIO FEIO", "ZONA": 999.0, "TALHAO": 2.0, "AREA_TOTAL": 12.406477219660394, "TIPO_GEO": "TALHAO", "DATA_INICI": null, "DATA_FINAL": null, "HORA_INICI": null, "HORA_FINAL": null, "CLASSE": null, "PILOTO": null, "AERONAVE": null, "AREA_HA": null }, "geometry": { "type": "Polygon", "coordinates": [ [ [ -50.24125274459805, -21.604349615067811 ], [ -50.241530347448091, -21.604483511766656 ], [ -50.24184735822768, -21.604676264085747 ], [ -50.242141890441182, -21.604900218309218 ], [ -50.242358814144545, -21.605028164868674 ], [ -50.242767025081946, -21.6052074174568 ], [ -50.243553278832849, -21.605645783897234 ], [ -50.244005422577388, -21.605898687777593 ], [ -50.245298965766324, -21.606065420011294 ], [ -50.246561324627166, -21.606242736361203 ], [ -50.246815501024884, -21.606271356052893 ], [ -50.246777865166138, -21.606228248966122 ], [ -50.246748483324389, -21.606155940774396 ], [ -50.246726096705849, -21.605989749562507 ], [ -50.246700816565045, -21.605484408867092 ], [ -50.246689275208304, -21.605199134213905 ], [ -50.246687473550715, -21.604828684755265 ], [ -50.246690566708594, -21.604590433688067 ], [ -50.246647104480644, -21.604364145964549 ], [ -50.246640512058228, -21.604200634965942 ], [ -50.246660153371181, -21.603998981191456 ], [ -50.246691940976582, -21.603892025629943 ], [ -50.246450870457878, -21.603861509386551 ], [ -50.24588574792746, -21.603816049854839 ], [ -50.245267423069443, -21.60374947717516 ], [ -50.244973731182498, -21.603721477659906 ], [ -50.244662754589946, -21.603679485881536 ], [ -50.244350460139877, -21.603652560266845 ], [ -50.243848658893164, -21.603589989792159 ], [ -50.243654114570532, -21.603569395128076 ], [ -50.243257593416224, -21.603527011879404 ], [ -50.242918078606536, -21.603489524832593 ], [ -50.242649147366798, -21.603468590532835 ], [ -50.24223400591211, -21.603430757867276 ], [ -50.24197481112359, -21.603398759520655 ], [ -50.241961418971997, -21.6033976316928 ], [ -50.241743322334294, -21.603376347790149 ], [ -50.241413729674164, -21.603338323184694 ], [ -50.241240188422239, -21.603332024601119 ], [ -50.241234273749185, -21.603336925249952 ], [ -50.2412255091049, -21.603353407301199 ], [ -50.241215766128548, -21.603377595117827 ], [ -50.241213665733113, -21.603426357825015 ], [ -50.241213423420497, -21.603427524414855 ], [ -50.241215234326354, -21.603520218396159 ], [ -50.241226826573218, -21.603635736907844 ], [ -50.241267401582569, -21.603938535714775 ], [ -50.241284335495635, -21.604019773714572 ], [ -50.241301989349516, -21.604200726814078 ], [ -50.241301689012523, -21.604213424686083 ], [ -50.241284365368024, -21.604251833570537 ], [ -50.24125274459805, -21.604349615067811 ] ] ] } },
{ "type": "Feature", "properties": { "CHAVE": "3075921", "FAZENDA": "307592", "NOME_FAZ": "SITIO RIO FEIO", "ZONA": 999.0, "TALHAO": 1.0, "AREA_TOTAL": 8.8163353218913088, "TIPO_GEO": "TALHAO", "DATA_INICI": null, "DATA_FINAL": null, "HORA_INICI": null, "HORA_FINAL": null, "CLASSE": null, "PILOTO": null, "AERONAVE": null, "AREA_HA": null }, "geometry": { "type": "Polygon", "coordinates": [ [ [ -50.246991336181971, -21.603925576595156 ], [ -50.246983043406324, -21.603955224554365 ], [ -50.246974575812303, -21.603974317008717 ], [ -50.246955834927178, -21.604002058775876 ], [ -50.246918483639696, -21.604032325054614 ], [ -50.246903588122791, -21.604035735960789 ], [ -50.246875647775816, -21.604044305306882 ], [ -50.246846890095377, -21.604031131432613 ], [ -50.246833023436423, -21.604015416215233 ], [ -50.246796153714577, -21.603952639517018 ], [ -50.246796266236117, -21.60393090051021 ], [ -50.24679076954024, -21.603904535875444 ], [ -50.246691940976582, -21.603892025629943 ], [ -50.246660153371181, -21.603998981191456 ], [ -50.246640512058228, -21.604200634965942 ], [ -50.246647104480644, -21.604364145964549 ], [ -50.246690566708594, -21.604590433688067 ], [ -50.246687473550715, -21.604828684755265 ], [ -50.246689275208304, -21.605199134213905 ], [ -50.246700816565045, -21.605484408867092 ], [ -50.246726096705849, -21.605989749562507 ], [ -50.246748483324389, -21.606155940774396 ], [ -50.246777865166138, -21.606228248966122 ], [ -50.246815501024884, -21.606271356052893 ], [ -50.248019331376668, -21.606406898328007 ], [ -50.249542071228873, -21.606636291151904 ], [ -50.249608289242168, -21.606630934904715 ], [ -50.249645715749665, -21.606590781518829 ], [ -50.249683247922071, -21.606502567112809 ], [ -50.249805024001368, -21.60583315109653 ], [ -50.249881281552675, -21.605524712171423 ], [ -50.250116335089565, -21.604526617140174 ], [ -50.250173806385682, -21.604403401196564 ], [ -50.250201611747563, -21.60434695828285 ], [ -50.250212150741675, -21.604301700386657 ], [ -50.250210188589762, -21.604274507455152 ], [ -50.250195376898027, -21.60426593265715 ], [ -50.249964777941756, -21.604228702744127 ], [ -50.249784030050144, -21.604209412359047 ], [ -50.249623083187991, -21.604196720532197 ], [ -50.249435028546621, -21.604176765746232 ], [ -50.249431393225329, -21.604176296818594 ], [ -50.249132383080159, -21.60414436107159 ], [ -50.248975617882792, -21.604130320001097 ], [ -50.248717282374358, -21.60409784887435 ], [ -50.248218528847929, -21.604044580790593 ], [ -50.248175581452919, -21.604040337245085 ], [ -50.248027974862858, -21.604031993066847 ], [ -50.247279192814069, -21.603951929153151 ], [ -50.246991336181971, -21.603925576595156 ] ] ] } },
{ "type": "Feature", "properties": { "CHAVE": "3075923", "FAZENDA": "307592", "NOME_FAZ": "SITIO RIO FEIO", "ZONA": 999.0, "TALHAO": 3.0, "AREA_TOTAL": 2.1270238591920578, "TIPO_GEO": "TALHAO", "DATA_INICI": null, "DATA_FINAL": null, "HORA_INICI": null, "HORA_FINAL": null, "CLASSE": null, "PILOTO": null, "AERONAVE": null, "AREA_HA": null }, "geometry": { "type": "Polygon", "coordinates": [ [ [ -50.244005422577388, -21.605898687777593 ], [ -50.243553278832849, -21.605645783897234 ], [ -50.242767025081946, -21.6052074174568 ], [ -50.242358814144545, -21.605028164868674 ], [ -50.242141890441182, -21.604900218309218 ], [ -50.24184735822768, -21.604676264085747 ], [ -50.241530347448091, -21.604483511766656 ], [ -50.24125274459805, -21.604349615067811 ], [ -50.241223131797199, -21.6044411871523 ], [ -50.241132022988978, -21.604723846698764 ], [ -50.241051335729956, -21.604980444851783 ], [ -50.241005877800987, -21.605244074411445 ], [ -50.240980188473465, -21.605379998128996 ], [ -50.240969350763677, -21.605485758280221 ], [ -50.240964756202111, -21.605521465233803 ], [ -50.240998509333487, -21.605529864113539 ], [ -50.241722492662667, -21.605615614208119 ], [ -50.242315714695174, -21.605698017453264 ], [ -50.24286492695412, -21.605766476825657 ], [ -50.243321617530036, -21.60582489459216 ], [ -50.24345597843088, -21.605842682476858 ], [ -50.243713328235565, -21.605862483143941 ], [ -50.24386114345787, -21.60587950785062 ], [ -50.243945488900479, -21.605890962328616 ], [ -50.244005422577388, -21.605898687777593 ] ] ] } },
{ "type": "Feature", "properties": { "CHAVE": null, "FAZENDA": null, "NOME_FAZ": null, "ZONA": null, "TALHAO": null, "AREA_TOTAL": null, "TIPO_GEO": "VOO_PROCESSADO", "DATA_INICI": "17-04-2026", "DATA_FINAL": "17-04-2026", "HORA_INICI": "14:08:14", "HORA_FINAL": "14:08:14", "CLASSE": "NÃO APLICADO DENTRO DO TALHÃO", "PILOTO": "valmir alves", "AERONAVE": "PS-CBA", "AREA_HA": 0.00081693807023 }, "geometry": { "type": "MultiPolygon", "coordinates": [ [ [ [ -50.248019331376668, -21.606406898328007 ], [ -50.249542071228873, -21.606636291151904 ], [ -50.249608289242168, -21.606630934904715 ], [ -50.249645715749665, -21.606590781518829 ], [ -50.249683247922071, -21.606502567112809 ], [ -50.249805024001368, -21.60583315109653 ], [ -50.249881281552675, -21.605524712171423 ], [ -50.250116335089565, -21.604526617140174 ], [ -50.250173806385682, -21.604403401196564 ], [ -50.250201611747563, -21.60434695828285 ], [ -50.250212150741675, -21.604301700386657 ], [ -50.250210188589762, -21.604274507455152 ], [ -50.250195376898027, -21.60426593265715 ], [ -50.249964777941756, -21.604228702744127 ], [ -50.249784030050144, -21.604209412359047 ], [ -50.249623083187991, -21.604196720532197 ], [ -50.249435028546621, -21.604176765746232 ], [ -50.249431393225329, -21.604176296818594 ], [ -50.249132383080159, -21.60414436107159 ], [ -50.248975617882792, -21.604130320001097 ], [ -50.248717282374358, -21.60409784887435 ], [ -50.248218528847929, -21.604044580790593 ], [ -50.248175581452919, -21.604040337245085 ], [ -50.248027974862858, -21.604031993066847 ], [ -50.247279192814069, -21.603951929153151 ], [ -50.246991336181971, -21.603925576595156 ], [ -50.246983043406324, -21.603955224554365 ], [ -50.246974575812303, -21.603974317008717 ], [ -50.246955834927178, -21.604002058775876 ], [ -50.246918483639696, -21.604032325054614 ], [ -50.246903588122791, -21.604035735960789 ], [ -50.246875647775816, -21.604044305306882 ], [ -50.246846890095377, -21.604031131432613 ], [ -50.246833023436423, -21.604015416215233 ], [ -50.246796153714577, -21.603952639517018 ], [ -50.246796266236117, -21.60393090051021 ], [ -50.24679076954024, -21.603904535875444 ], [ -50.246691940976582, -21.603892025629943 ], [ -50.246450870457878, -21.603861509386551 ], [ -50.24588574792746, -21.603816049854839 ], [ -50.245267423069443, -21.60374947717516 ], [ -50.244973731182498, -21.603721477659906 ], [ -50.244662754589946, -21.603679485881536 ], [ -50.244350460139877, -21.603652560266845 ], [ -50.243848658893164, -21.603589989792159 ], [ -50.243654114570532, -21.603569395128076 ], [ -50.243257593416224, -21.603527011879404 ], [ -50.242918078606536, -21.603489524832593 ], [ -50.242649147366798, -21.603468590532835 ], [ -50.24223400591211, -21.603430757867276 ], [ -50.24197481112359, -21.603398759520655 ], [ -50.241961418971997, -21.6033976316928 ], [ -50.241743322334294, -21.603376347790149 ], [ -50.241413729674164, -21.603338323184694 ], [ -50.241240188422239, -21.603332024601119 ], [ -50.241234273749185, -21.603336925249952 ], [ -50.2412255091049, -21.603353407301199 ], [ -50.241215766128548, -21.603377595117827 ], [ -50.241213665733113, -21.603426357825015 ], [ -50.241213423420497, -21.603427524414855 ], [ -50.241215234326354, -21.603520218396159 ], [ -50.241226826573218, -21.603635736907844 ], [ -50.241267401582569, -21.603938535714775 ], [ -50.241284335495635, -21.604019773714572 ], [ -50.241301989349516, -21.604200726814078 ], [ -50.241301689012523, -21.604213424686083 ], [ -50.241284365368024, -21.604251833570537 ], [ -50.24125274459805, -21.604349615067811 ], [ -50.241223131797199, -21.6044411871523 ], [ -50.241132022988978, -21.604723846698764 ], [ -50.241051335729956, -21.604980444851783 ], [ -50.241005877800987, -21.605244074411445 ], [ -50.240980188473465, -21.605379998128996 ], [ -50.240969350763677, -21.605485758280221 ], [ -50.240964756202111, -21.605521465233803 ], [ -50.240998509333487, -21.605529864113539 ], [ -50.241722492662667, -21.605615614208119 ], [ -50.242315714695174, -21.605698017453264 ], [ -50.24286492695412, -21.605766476825657 ], [ -50.243321617530036, -21.60582489459216 ], [ -50.24345597843088, -21.605842682476858 ], [ -50.243713328235565, -21.605862483143941 ], [ -50.24386114345787, -21.60587950785062 ], [ -50.243945488900479, -21.605890962328616 ], [ -50.244005422577388, -21.605898687777593 ], [ -50.245298965766324, -21.606065420011294 ], [ -50.246561324627166, -21.606242736361203 ], [ -50.246815501024884, -21.606271356052893 ], [ -50.248019331376668, -21.606406898328007 ] ], [ [ -50.246673478709035, -21.604344725109886 ], [ -50.246674817714073, -21.604344898061285 ], [ -50.246794817599493, -21.604360898042469 ], [ -50.246796151613019, -21.604361081465719 ], [ -50.246914816832827, -21.604377892368792 ], [ -50.247033478724013, -21.60439272510126 ], [ -50.247036151624279, -21.604393081460149 ], [ -50.247154816843633, -21.604409892363154 ], [ -50.247273478853792, -21.604424725110476 ], [ -50.247393313840114, -21.604439704480342 ], [ -50.247513969137657, -21.604454539144946 ], [ -50.24763293472364, -21.604467427146755 ], [ -50.247751934608672, -21.604480427130792 ], [ -50.247752826275708, -21.604480526995655 ], [ -50.247874306919698, -21.604494467394126 ], [ -50.247993787147394, -21.604507411081869 ], [ -50.247995135283226, -21.60450756274415 ], [ -50.248114317826882, -21.6045214673711 ], [ -50.248235499328246, -21.604534380150255 ], [ -50.248235787274467, -21.604534411088704 ], [ -50.248355787278044, -21.604547411085687 ], [ -50.248475787162064, -21.604560411069695 ], [ -50.248476979551086, -21.604560544636534 ], [ -50.248597383637268, -21.604574475684565 ], [ -50.248716787169549, -21.604587411063612 ], [ -50.248719312594105, -21.60458770437177 ], [ -50.248839124768416, -21.604602557117634 ], [ -50.248956934646309, -21.604615427100487 ], [ -50.24895797956728, -21.604615544624572 ], [ -50.249078383653192, -21.604629475672581 ], [ -50.24919778718472, -21.604642411051554 ], [ -50.249199293628422, -21.604642581260727 ], [ -50.249318136566522, -21.604656562779493 ], [ -50.249438979462788, -21.604670544598669 ], [ -50.249439135331627, -21.604670562708215 ], [ -50.249558610175576, -21.604684501436761 ], [ -50.249676084586959, -21.604697443529393 ], [ -50.249677135339645, -21.604697562702299 ], [ -50.249796124255376, -21.604711444739412 ], [ -50.24984311166515, -21.604716339259785 ], [ -50.249808888296435, -21.605003660735004 ], [ -50.249760888249952, -21.604998660728803 ], [ -50.249758864733572, -21.604998437308886 ], [ -50.249639389777954, -21.604984498560832 ], [ -50.249600222034331, -21.604980183469248 ], [ -50.249572996443362, -21.605224772377557 ], [ -50.249459996333627, -21.605213772363665 ], [ -50.249458559332325, -21.605213626123366 ], [ -50.249345559335616, -21.6052016261205 ], [ -50.249233346849707, -21.605189709747403 ], [ -50.249120135239096, -21.605178785816591 ], [ -50.249118858896964, -21.60517865764912 ], [ -50.249098979036901, -21.605176583228374 ], [ -50.249122773446075, -21.605179633793036 ], [ -50.2492365497774, -21.605192495461594 ], [ -50.249239352823743, -21.605192836672941 ], [ -50.249352952972849, -21.605207654080846 ], [ -50.24946654978541, -21.605220495455928 ], [ -50.249467953868631, -21.605220660279539 ], [ -50.249582953758164, -21.605234660262763 ], [ -50.249545219491978, -21.605505727682342 ], [ -50.249578549859599, -21.605509495461845 ], [ -50.249581352918177, -21.605509836674667 ], [ -50.249696352808201, -21.605524836656944 ], [ -50.249662606225733, -21.605751095804685 ], [ -50.249662609451846, -21.605751096106186 ], [ -50.249768846992424, -21.605760031970838 ], [ -50.249741152975503, -21.606047968024715 ], [ -50.249634152871067, -21.606038968012939 ], [ -50.249632628874643, -21.606038832708155 ], [ -50.249526390516266, -21.60602890388687 ], [ -50.249420152875267, -21.606019968007285 ], [ -50.249418485321939, -21.606019819222723 ], [ -50.249314081694195, -21.606009969821436 ], [ -50.249208681063493, -21.606002089396984 ], [ -50.249205769821764, -21.606001845807683 ], [ -50.24909762888624, -21.60599183269413 ], [ -50.248992210195041, -21.605981980477523 ], [ -50.24888579441771, -21.605974097823854 ], [ -50.24888290821783, -21.605973858554194 ], [ -50.248773908111758, -21.605963858541386 ], [ -50.248772263860978, -21.605963699386603 ], [ -50.248665016411458, -21.605952776032467 ], [ -50.24855776972862, -21.605942845780785 ], [ -50.248556263866526, -21.605942699381032 ], [ -50.248449220085114, -21.605931796770932 ], [ -50.248339177522318, -21.605921883023115 ], [ -50.248335762709964, -21.605921539533721 ], [ -50.24822792618707, -21.605909557694815 ], [ -50.24811808970356, -21.605897575529784 ], [ -50.248116619866451, -21.605897408506685 ], [ -50.248008090585508, -21.605884582316307 ], [ -50.247899564598285, -21.605873729714006 ], [ -50.247895155249971, -21.605873228756536 ], [ -50.247785887051741, -21.605859321892002 ], [ -50.247676619771994, -21.605846408482822 ], [ -50.247675339680107, -21.605846252117242 ], [ -50.247564979381096, -21.605832332797245 ], [ -50.247455790201094, -21.605819428618116 ], [ -50.24744326066098, -21.605817974296137 ], [ -50.247545892357067, -21.605831773513106 ], [ -50.247660784730861, -21.605845639830353 ], [ -50.247661994792999, -21.60584579041701 ], [ -50.247778474596409, -21.605860723721921 ], [ -50.247892953927028, -21.605874660332578 ], [ -50.247893994802325, -21.605874790411423 ], [ -50.248009694976496, -21.60588962376417 ], [ -50.248124392313969, -21.605902477772371 ], [ -50.248127353027236, -21.605902836730273 ], [ -50.248241486366773, -21.605917723684573 ], [ -50.248357084465923, -21.605931555932294 ], [ -50.248471549966567, -21.605944495507156 ], [ -50.248474353041033, -21.605944836721903 ], [ -50.248587953176198, -21.605959654128 ], [ -50.248701549974577, -21.605972495501465 ], [ -50.248702954071916, -21.605972660326721 ], [ -50.248817953961449, -21.605986660309952 ], [ -50.248819723582081, -21.605986885470987 ], [ -50.248931218912482, -21.606001685733329 ], [ -50.249043710332785, -21.60601451369855 ], [ -50.249043873566777, -21.606014532395307 ], [ -50.249156873570584, -21.606027532392506 ], [ -50.249269873461685, -21.606040532376735 ], [ -50.249274140372215, -21.606041079792277 ], [ -50.249384929739428, -21.606056766779776 ], [ -50.249496710348637, -21.606069513687377 ], [ -50.249496873582757, -21.606069532384154 ], [ -50.249609873473851, -21.606082532368365 ], [ -50.249572126484331, -21.606369467625935 ], [ -50.249459207982099, -21.606356476998581 ], [ -50.249345289499935, -21.606343486291184 ], [ -50.249340859685205, -21.60634292021934 ], [ -50.2492299889592, -21.606327221706906 ], [ -50.24911912650029, -21.60631446761478 ], [ -50.249006208006875, -21.606301476988431 ], [ -50.248892289515794, -21.606288486280008 ], [ -50.248889276478565, -21.606288114540153 ], [ -50.248777160487229, -21.606273231883446 ], [ -50.248663747530742, -21.606259425085394 ], [ -50.248549449873288, -21.606246504477117 ], [ -50.248546647022366, -21.606246163289406 ], [ -50.248433046783788, -21.606231345864153 ], [ -50.248319449881294, -21.606218504471418 ], [ -50.248318381565653, -21.606218380173559 ], [ -50.248201381453143, -21.606204380156701 ], [ -50.248199647036152, -21.606204163281035 ], [ -50.248086125432174, -21.60618935611248 ], [ -50.247971607533188, -21.606176522206209 ], [ -50.247969005263776, -21.606176209600065 ], [ -50.247852525353863, -21.606161276275067 ], [ -50.247738045918581, -21.606147339644661 ], [ -50.247737005273102, -21.606147209594489 ], [ -50.247620609875035, -21.606132287104362 ], [ -50.247505215114067, -21.606118360146898 ], [ -50.247503002261126, -21.606118077864398 ], [ -50.247384503487126, -21.606102145252802 ], [ -50.247268005175542, -21.606087209568258 ], [ -50.24726644532533, -21.606087002007431 ], [ -50.247151311900019, -21.606071121531858 ], [ -50.247034179865096, -21.606056231862663 ], [ -50.247034005302297, -21.606056209577648 ], [ -50.246917178477851, -21.606041231776288 ], [ -50.246798351697663, -21.60602625360718 ], [ -50.246795068496233, -21.606025806155838 ], [ -50.246729662485762, -21.606016220790579 ], [ -50.246680621876628, -21.606009033803517 ], [ -50.246564265847759, -21.605994242778952 ], [ -50.246445351712453, -21.605979253598733 ], [ -50.246445180007377, -21.605979231863525 ], [ -50.246327265858909, -21.605964242773421 ], [ -50.246208351721933, -21.605949253592989 ], [ -50.246207827728583, -21.6059491866895 ], [ -50.246092003791155, -21.605934209452887 ], [ -50.245974265870501, -21.605919242764575 ], [ -50.245855436310933, -21.605904264245179 ], [ -50.245735520775874, -21.605889274799779 ], [ -50.245733819738952, -21.605889053167342 ], [ -50.245616585208872, -21.605873156956687 ], [ -50.245498351750676, -21.60585825357585 ], [ -50.24549546469428, -21.605857863687952 ], [ -50.245378820569577, -21.6058410590229 ], [ -50.245262179938251, -21.605826231820082 ], [ -50.24525984808966, -21.60582591845527 ], [ -50.245141098463996, -21.605809095588537 ], [ -50.245023351770804, -21.605794253564476 ], [ -50.245020464717157, -21.60579386367694 ], [ -50.244904501138258, -21.605777157056892 ], [ -50.244788545197444, -21.605763399568303 ], [ -50.244787520934999, -21.605763274791954 ], [ -50.244667520819924, -21.605748274774047 ], [ -50.244665819786583, -21.605748053142097 ], [ -50.244549261121762, -21.605732248574448 ], [ -50.244431706137746, -21.605718418572401 ], [ -50.244430180090419, -21.60571823181504 ], [ -50.244312179977378, -21.605703231797211 ], [ -50.244311182047397, -21.605703101842174 ], [ -50.244193045615894, -21.605687350315151 ], [ -50.244076915103349, -21.605674556271623 ], [ -50.244074687277397, -21.605674295477922 ], [ -50.243954800180362, -21.605659433438017 ], [ -50.243837915111186, -21.605646556265601 ], [ -50.243835520971849, -21.605646274768702 ], [ -50.243716032883043, -21.605631338754296 ], [ -50.243599378383571, -21.605617498386689 ], [ -50.243480212510761, -21.605604588746743 ], [ -50.243479171433776, -21.60560446619705 ], [ -50.24347718012698, -21.605604231791716 ], [ -50.243360620874128, -21.605589414934617 ], [ -50.243243065048922, -21.605576572697718 ], [ -50.243240520993986, -21.605576274754064 ], [ -50.243121716890691, -21.605561424238111 ], [ -50.243004915138592, -21.605548556244663 ], [ -50.243003545379644, -21.605548399538083 ], [ -50.242885545266141, -21.605534399521193 ], [ -50.242884351972201, -21.605534253527185 ], [ -50.242766780584112, -21.605519433601362 ], [ -50.242648212537731, -21.605506588725767 ], [ -50.24264518015849, -21.605506231771269 ], [ -50.242528620903805, -21.605491414913946 ], [ -50.242411065076105, -21.605478572676759 ], [ -50.242406819878823, -21.605478053087509 ], [ -50.242290863928083, -21.605462330244031 ], [ -50.242174915166267, -21.605449556223828 ], [ -50.242172351999272, -21.605449253509704 ], [ -50.242054632234002, -21.605434414880829 ], [ -50.241937915174091, -21.605421556217859 ], [ -50.24193621544147, -21.605421360024483 ], [ -50.241821139586676, -21.605407471556219 ], [ -50.241703065099401, -21.605394572658927 ], [ -50.241738504857196, -21.605110869606875 ], [ -50.24166887415209, -21.605102318465438 ], [ -50.241709125803638, -21.604815681528535 ], [ -50.241823125694189, -21.604829681511756 ], [ -50.241824723206626, -21.604829885628497 ], [ -50.241849365054492, -21.604833156669521 ], [ -50.241867089536591, -21.604691267232308 ], [ -50.241877684863518, -21.604606448676495 ], [ -50.241846225152827, -21.604602109405185 ], [ -50.241730610332212, -21.604587286988814 ], [ -50.241693694136195, -21.604582831584707 ], [ -50.241615215557708, -21.604573360029686 ], [ -50.241612634537951, -21.604573027822497 ], [ -50.24149563442645, -21.60455702780375 ], [ -50.241508758580558, -21.60447309876804 ], [ -50.241540365524976, -21.604270972189514 ], [ -50.241586535318078, -21.604277286006177 ], [ -50.241617673204146, -21.604034300579276 ], [ -50.241556182441769, -21.604026101809119 ], [ -50.241599817510703, -21.603739898184319 ], [ -50.241719729081282, -21.603755886390182 ], [ -50.241839389216139, -21.603771709214826 ], [ -50.241958134950352, -21.60378556287991 ], [ -50.241961780189371, -21.603786029422999 ], [ -50.242082465969908, -21.603802846290943 ], [ -50.242203148699453, -21.603817684327442 ], [ -50.242323896554666, -21.603832530372141 ], [ -50.242443641887569, -21.603845395569277 ], [ -50.242444826091216, -21.603845527127618 ], [ -50.242566234263492, -21.603859459209676 ], [ -50.242685776739123, -21.603872302612807 ], [ -50.242808910397017, -21.603884218769409 ], [ -50.242810642018917, -21.603884395572852 ], [ -50.242930905598811, -21.603897316450144 ], [ -50.243051501551427, -21.60390917834366 ], [ -50.243172833999097, -21.603920118150825 ], [ -50.243176675299821, -21.60392050987279 ], [ -50.243299087499999, -21.603934442965425 ], [ -50.24341996728036, -21.603947323594276 ], [ -50.243539434866967, -21.603959270349314 ], [ -50.243540499294824, -21.603959380280678 ], [ -50.243662499176821, -21.603972380264612 ], [ -50.243663979379292, -21.603972544755486 ], [ -50.243784239705647, -21.603986459170205 ], [ -50.243905499184145, -21.603999380258408 ], [ -50.243905787127979, -21.603999411196614 ], [ -50.244025714530999, -21.604012403328511 ], [ -50.244146641937341, -21.604025395525696 ], [ -50.244147979394981, -21.604025544743273 ], [ -50.244268979278431, -21.604039544726291 ], [ -50.244270478733149, -21.604039725183078 ], [ -50.244389061971667, -21.604054548084964 ], [ -50.244508641948819, -21.604067395516566 ], [ -50.244511478741991, -21.604067725177153 ], [ -50.244630807273047, -21.604082641240286 ], [ -50.244750135162626, -21.604096562823706 ], [ -50.244870135047087, -21.604110562806749 ], [ -50.24487147875557, -21.604110725168312 ], [ -50.244991478640507, -21.604125725150418 ], [ -50.244992817641148, -21.604125898101255 ], [ -50.245111323789004, -21.604141698918017 ], [ -50.24523182606039, -21.604155527043499 ], [ -50.245233478769713, -21.604155725159515 ], [ -50.24535347865465, -21.604170725141614 ], [ -50.245354817656221, -21.60417089809258 ], [ -50.245474817661524, -21.604186898089733 ], [ -50.245594148569459, -21.604202808874181 ], [ -50.245713478789156, -21.604217725147915 ], [ -50.245833478674079, -21.604232725130039 ], [ -50.24583615156795, -21.604233081488065 ], [ -50.245954816790231, -21.604249892391486 ], [ -50.246073478684046, -21.604264725124267 ], [ -50.246074817687514, -21.604264898075474 ], [ -50.246194817692803, -21.604280898072634 ], [ -50.246314817698135, -21.604296898069805 ], [ -50.246434817583555, -21.604312898050981 ], [ -50.2464361515961, -21.604313081474103 ], [ -50.246554816817266, -21.604329892377358 ], [ -50.246646183913676, -21.604341313261365 ], [ -50.246673478709035, -21.604344725109886 ] ] ], [ [ [ -50.246827913490954, -21.605452910852247 ], [ -50.246937757899431, -21.605467622154446 ], [ -50.247047594466189, -21.605479390354148 ], [ -50.247049208274412, -21.605479571305317 ], [ -50.247160208167557, -21.605492571289592 ], [ -50.247161479149909, -21.60549272515016 ], [ -50.247272929862667, -21.605506656486206 ], [ -50.247382209752864, -21.605519571379041 ], [ -50.247494039290373, -21.605532551589942 ], [ -50.247494380177123, -21.605532591516784 ], [ -50.247604380071287, -21.605545591501098 ], [ -50.247605660381012, -21.605545747893217 ], [ -50.247716020579048, -21.605559667194473 ], [ -50.247753458560041, -21.60556409168198 ], [ -50.247683644915895, -21.605554033782276 ], [ -50.247568916586246, -21.60553919821864 ], [ -50.247452005337138, -21.605524209593504 ], [ -50.247449658039862, -21.605523891480697 ], [ -50.247332433749428, -21.605507145150636 ], [ -50.247218215285251, -21.605493360159635 ], [ -50.247217180143188, -21.605493231902702 ], [ -50.247099942672243, -21.605478328831207 ], [ -50.246981706195321, -21.605464418653764 ], [ -50.24698018015247, -21.605464231896946 ], [ -50.246863546105956, -21.605449405532191 ], [ -50.246746990158989, -21.605436564618962 ], [ -50.24669866735929, -21.605431285656252 ], [ -50.246628065074589, -21.605423572799591 ], [ -50.246626545399003, -21.605423399646131 ], [ -50.246509378427113, -21.605409498476885 ], [ -50.246390750809354, -21.605396647148119 ], [ -50.246273494228348, -21.605384722746578 ], [ -50.24619168014025, -21.605376608950479 ], [ -50.246266411022077, -21.605386707716455 ], [ -50.246378710164478, -21.605399513755195 ], [ -50.246379208250737, -21.6053995713219 ], [ -50.246490208143868, -21.605412571306179 ], [ -50.246491479124643, -21.605412725166566 ], [ -50.24660275962983, -21.605426635226724 ], [ -50.246698930827236, -21.605437797951996 ], [ -50.24671403926304, -21.605439551609251 ], [ -50.246714208262567, -21.60543957131361 ], [ -50.246825208155705, -21.605452571297896 ], [ -50.246827913490954, -21.605452910852247 ] ] ], [ [ [ -50.244768076643936, -21.604939680115301 ], [ -50.244651842888842, -21.604927758701404 ], [ -50.244603128309045, -21.604923178696698 ], [ -50.244631461664909, -21.604926484254129 ], [ -50.244750787361255, -21.604939411200888 ], [ -50.244870111562378, -21.604952337986152 ], [ -50.244989435099463, -21.604964270336225 ], [ -50.244990787368259, -21.60496441119475 ], [ -50.245110111568955, -21.604977337979989 ], [ -50.245229435105919, -21.604989270330044 ], [ -50.245230787375228, -21.604989411188626 ], [ -50.245343625581604, -21.605001635324641 ], [ -50.24523491405666, -21.604989556262975 ], [ -50.245116534898166, -21.604976624082717 ], [ -50.245001004820516, -21.604964672691896 ], [ -50.244999762966877, -21.604964539468405 ], [ -50.244883383608332, -21.604951608425448 ], [ -50.244768076643936, -21.604939680115301 ] ] ], [ [ [ -50.244590521328128, -21.604369274834582 ], [ -50.24447193798256, -21.604354451913455 ], [ -50.244352357894712, -21.60434160446205 ], [ -50.244349521336986, -21.604341274828659 ], [ -50.244230270478269, -21.604326368468097 ], [ -50.244110688946108, -21.604312532584849 ], [ -50.243990212948233, -21.604299588814001 ], [ -50.243870356792797, -21.604286604393781 ], [ -50.243748500658647, -21.6042736197202 ], [ -50.24374702069521, -21.604273455255807 ], [ -50.243626760257584, -21.604259540821801 ], [ -50.243506032677281, -21.60424667640395 ], [ -50.243405686804294, -21.604236641813632 ], [ -50.243452723038708, -21.604242885560161 ], [ -50.243564218405872, -21.604257685827353 ], [ -50.243676709863664, -21.604270513796855 ], [ -50.243678660002828, -21.60427074796106 ], [ -50.243788685735048, -21.604284625077526 ], [ -50.243901709871444, -21.604297513791231 ], [ -50.243903300712624, -21.604297703039542 ], [ -50.244014155597732, -21.604311437270592 ], [ -50.244125003367103, -21.604322227757528 ], [ -50.244127709992412, -21.60432251379849 ], [ -50.244241230476611, -21.604335459113759 ], [ -50.244351750608388, -21.604347407232787 ], [ -50.244352709999688, -21.604347513792842 ], [ -50.244466075547507, -21.60436044143999 ], [ -50.24457836500094, -21.604372365980296 ], [ -50.244692440594285, -21.604384374004606 ], [ -50.24480544048496, -21.604396373989761 ], [ -50.244806873130571, -21.60439653246473 ], [ -50.244919007609433, -21.604409432888559 ], [ -50.244965730541963, -21.604414308323623 ], [ -50.244949851408542, -21.604412191105403 ], [ -50.244831192674056, -21.604397358760135 ], [ -50.244711864914713, -21.604383437184495 ], [ -50.244591864799162, -21.604369437167541 ], [ -50.244590521328128, -21.604369274834582 ] ] ] ] } },
{ "type": "Feature", "properties": { "CHAVE": null, "FAZENDA": "Faz. ABC", "NOME_FAZ": null, "ZONA": null, "TALHAO": null, "AREA_TOTAL": null, "TIPO_GEO": "VOO_PROCESSADO", "DATA_INICI": "17-04-2026", "DATA_FINAL": "17-04-2026", "HORA_INICI": "14:08:14", "HORA_FINAL": "14:08:14", "CLASSE": "SOBREPOSIÇÃO", "PILOTO": "valmir alves", "AERONAVE": "PS-CBA", "AREA_HA": 8.5403177864e-05 }, "geometry": { "type": "MultiPolygon", "coordinates": [ [ [ [ -50.249340318802652, -21.605721910588084 ], [ -50.24923477575674, -21.605714019522647 ], [ -50.249128300670321, -21.605704160720908 ], [ -50.249021371182785, -21.605694167313846 ], [ -50.249018205447648, -21.6056939021612 ], [ -50.248911649849688, -21.605686009157392 ], [ -50.248804914432306, -21.605676216920084 ], [ -50.248697736206005, -21.605665300622029 ], [ -50.248696230131529, -21.605665154201716 ], [ -50.248588983549645, -21.605655223965925 ], [ -50.248481736200461, -21.605644300627596 ], [ -50.248479822335597, -21.605644116959379 ], [ -50.248370531887076, -21.605634270976669 ], [ -50.248264237353688, -21.605622460475445 ], [ -50.248263910150179, -21.605622424450068 ], [ -50.248154645601247, -21.605610504684464 ], [ -50.248045380196587, -21.60559759150318 ], [ -50.248042435257879, -21.605597270267172 ], [ -50.247934643883106, -21.605586491133483 ], [ -50.247826844809772, -21.605572771253836 ], [ -50.247825380079341, -21.605572591495687 ], [ -50.247753458560041, -21.60556409168198 ], [ -50.247800464776041, -21.605570863765177 ], [ -50.247803005322098, -21.605571209601845 ], [ -50.247920005434118, -21.605586209619638 ], [ -50.248036319318857, -21.605601121659781 ], [ -50.248152634188415, -21.605617027969931 ], [ -50.248153827701081, -21.605617186741981 ], [ -50.248269230608457, -21.605632109535325 ], [ -50.248385443775192, -21.605648001937503 ], [ -50.24850025355245, -21.605663975475082 ], [ -50.24850200529238, -21.605664209618489 ], [ -50.248618826210297, -21.605679186662719 ], [ -50.24873364718345, -21.605694163314691 ], [ -50.248733827676226, -21.605694186755748 ], [ -50.248849737421295, -21.60570917508829 ], [ -50.248964647173665, -21.60572416332019 ], [ -50.249079647168777, -21.605739163322919 ], [ -50.249082450000778, -21.60573950450831 ], [ -50.249196046912466, -21.605752345902086 ], [ -50.249308852106189, -21.6057670596261 ], [ -50.249422058356295, -21.605782948225695 ], [ -50.249426449988277, -21.605783504516751 ], [ -50.249540046898879, -21.605796345910388 ], [ -50.249653647145223, -21.605811163336664 ], [ -50.249662606225733, -21.605751095804685 ], [ -50.24955637119438, -21.605741167299833 ], [ -50.249554846988225, -21.605741031976507 ], [ -50.249448681298801, -21.605732102155411 ], [ -50.249343514745796, -21.605722180785193 ], [ -50.249340318802652, -21.605721910588084 ] ] ], [ [ [ -50.242007463574794, -21.605146139063233 ], [ -50.242121370194297, -21.605161126779741 ], [ -50.242234276839028, -21.605176114390765 ], [ -50.242234647248182, -21.605176163132501 ], [ -50.242349555452122, -21.605191151162526 ], [ -50.242463463668948, -21.60520613908913 ], [ -50.242463647238395, -21.605206163137993 ], [ -50.242578555447267, -21.605221151168664 ], [ -50.242692463659068, -21.605236139094618 ], [ -50.242692647228623, -21.605236163143495 ], [ -50.242807647338594, -21.605251163161224 ], [ -50.242810289805533, -21.605251486138648 ], [ -50.242922967078357, -21.60526433530508 ], [ -50.243036647329397, -21.605279163166788 ], [ -50.243151647324503, -21.60529416316955 ], [ -50.243154450136359, -21.605294504352504 ], [ -50.243267348035097, -21.605307266727639 ], [ -50.243380253682055, -21.605322975342052 ], [ -50.243384126666584, -21.605323467469315 ], [ -50.243495885669461, -21.605336324703387 ], [ -50.243609647305838, -21.605351163180615 ], [ -50.243612450120082, -21.605351504363853 ], [ -50.243726747786326, -21.605364424973168 ], [ -50.243840160763973, -21.605378231773816 ], [ -50.243952276766848, -21.605393114432069 ], [ -50.243955450108089, -21.605393504372405 ], [ -50.244069137546113, -21.60540635599958 ], [ -50.244183827890687, -21.605421186650485 ], [ -50.244186126638105, -21.605421467489212 ], [ -50.244297885639, -21.605434324723056 ], [ -50.244411461921217, -21.605449139023733 ], [ -50.244524276743213, -21.605464114445834 ], [ -50.244525874040406, -21.605464318535187 ], [ -50.244639168365744, -21.605478231876937 ], [ -50.244752463574208, -21.605493139144315 ], [ -50.244755289735949, -21.605493486186869 ], [ -50.244869208224529, -21.605506476895016 ], [ -50.244980699911764, -21.605519303375996 ], [ -50.245092276719845, -21.60553411445952 ], [ -50.245094046097286, -21.605534339589717 ], [ -50.245209046207748, -21.605548339606511 ], [ -50.24521028972007, -21.60554848619816 ], [ -50.245322781259553, -21.605561314184509 ], [ -50.245434276705836, -21.605576114467762 ], [ -50.245437289712022, -21.605576486203802 ], [ -50.245550493864329, -21.605589395452778 ], [ -50.245662609953428, -21.605603285944721 ], [ -50.245774520968055, -21.60561727482478 ], [ -50.245774698946803, -21.605617296973683 ], [ -50.245887699055217, -21.60563129699041 ], [ -50.245889126577119, -21.605631467531349 ], [ -50.246001500010543, -21.605644395451936 ], [ -50.24611388270894, -21.605658196839336 ], [ -50.246223893197033, -21.605673063124431 ], [ -50.246227289684093, -21.605673486223349 ], [ -50.246341040701232, -21.605686457833929 ], [ -50.246451155981255, -21.605699354221397 ], [ -50.246562520937836, -21.605713274843993 ], [ -50.246563960586926, -21.605713448369286 ], [ -50.24667587618508, -21.605726438575889 ], [ -50.246785437528324, -21.605739270088158 ], [ -50.246896086568285, -21.605754089158818 ], [ -50.246900405386128, -21.605754609625727 ], [ -50.247011598079965, -21.605766523132072 ], [ -50.247121155956478, -21.605779354237828 ], [ -50.247232520912569, -21.605793274860368 ], [ -50.247233619787835, -21.605793408471893 ], [ -50.247343619893684, -21.605806408487581 ], [ -50.247343960559597, -21.605806448388595 ], [ -50.24744326066098, -21.605817974296137 ], [ -50.247427997804614, -21.60581592214778 ], [ -50.247426994666533, -21.605815790407664 ], [ -50.247310775267636, -21.60580089048841 ], [ -50.247195554736258, -21.605784998004474 ], [ -50.247193819976275, -21.605784768113267 ], [ -50.24707590736994, -21.605769779226115 ], [ -50.246958994763816, -21.605754790433856 ], [ -50.246958648143014, -21.605754746368788 ], [ -50.246841292422225, -21.605739953634892 ], [ -50.246726931562208, -21.605723193856555 ], [ -50.2467238199566, -21.605722768124526 ], [ -50.246605820069654, -21.605707768142342 ], [ -50.246605648128231, -21.605707746377231 ], [ -50.246486734096948, -21.605692757217128 ], [ -50.24636882006007, -21.605677768148055 ], [ -50.246368648118739, -21.605677746382948 ], [ -50.246249910291617, -21.605662779433519 ], [ -50.246134172336149, -21.605647813321902 ], [ -50.246133819932695, -21.605647768138752 ], [ -50.246015820045734, -21.605632768156564 ], [ -50.246015648104503, -21.605632746391475 ], [ -50.245896648218569, -21.605617746409351 ], [ -50.245896479064115, -21.605617725176206 ], [ -50.245777330354429, -21.60560283159128 ], [ -50.245660180325395, -21.60558694684476 ], [ -50.245658648090007, -21.6055867464001 ], [ -50.245541093696765, -21.605571928623398 ], [ -50.245424535366951, -21.605555136324632 ], [ -50.245421819903122, -21.60555476815583 ], [ -50.245304987214567, -21.605539916546746 ], [ -50.245186151974359, -21.6055230815575 ], [ -50.245183648069869, -21.605522746411456 ], [ -50.245066093675078, -21.605507928634573 ], [ -50.244949535344077, -21.60549113633563 ], [ -50.244945454646064, -21.605490600408963 ], [ -50.244827967112457, -21.605476661213665 ], [ -50.244709330308922, -21.605461831616811 ], [ -50.244592180277749, -21.605445946869999 ], [ -50.244589293705069, -21.605445581404886 ], [ -50.244471057338806, -21.605431671247864 ], [ -50.244354319167542, -21.605416831653152 ], [ -50.244234818019677, -21.605400898170107 ], [ -50.244231084742353, -21.605400443706973 ], [ -50.244114199779474, -21.605387566553791 ], [ -50.243994312794079, -21.605372704533909 ], [ -50.243992084734529, -21.605372443712984 ], [ -50.243875283090802, -21.605359575739062 ], [ -50.24375647909828, -21.60534472524305 ], [ -50.243755454602365, -21.605344600438311 ], [ -50.243637454715888, -21.605330600455208 ], [ -50.243635787333496, -21.605330411231879 ], [ -50.243517305525394, -21.605317575706628 ], [ -50.243400819940462, -21.605302768219865 ], [ -50.24339793479605, -21.605302427280861 ], [ -50.243280208257467, -21.605289566402359 ], [ -50.243161479076143, -21.605274725257701 ], [ -50.243159084707095, -21.605274443733915 ], [ -50.243041770073269, -21.605261519243982 ], [ -50.242925051640249, -21.605247671297658 ], [ -50.242806648096582, -21.605232746484486 ], [ -50.242803787306514, -21.605232411252828 ], [ -50.242685305496124, -21.605219575727347 ], [ -50.242568819908925, -21.605204768240316 ], [ -50.242565934768862, -21.605204427301818 ], [ -50.242449061326148, -21.605191659618924 ], [ -50.242333180185511, -21.605175946924589 ], [ -50.242329084679426, -21.605175443754764 ], [ -50.242212367727106, -21.605162585111291 ], [ -50.242094648069504, -21.605147746501984 ], [ -50.242092084671604, -21.605147443760718 ], [ -50.241974935230665, -21.605134537470054 ], [ -50.241859784626378, -21.605120639986399 ], [ -50.24185793474556, -21.60512042731964 ], [ -50.241738934860528, -21.605107427335653 ], [ -50.241738504857196, -21.605110869606875 ], [ -50.241782074934399, -21.605116220319491 ], [ -50.241894276853955, -21.605131114382651 ], [ -50.242007276848952, -21.605146114385331 ], [ -50.242007463574794, -21.605146139063233 ] ] ], [ [ [ -50.245699215529399, -21.60504336014521 ], [ -50.245699706311989, -21.605043418630821 ], [ -50.245818544078432, -21.605057399548041 ], [ -50.245934604352556, -21.605071287105762 ], [ -50.246049827980194, -21.605086186715912 ], [ -50.246050005469321, -21.605086209569006 ], [ -50.246167005581327, -21.605101209586799 ], [ -50.246169607811957, -21.605101522188278 ], [ -50.246284305273321, -21.605114376217873 ], [ -50.246400005572283, -21.605129209592459 ], [ -50.246517005567462, -21.605144209595277 ], [ -50.246518545356381, -21.60514439963827 ], [ -50.246636463592395, -21.605158389940897 ], [ -50.246752006344693, -21.605172215573177 ], [ -50.246867634325753, -21.605188027949591 ], [ -50.246871607787369, -21.605188522205648 ], [ -50.246986305246601, -21.605201376235026 ], [ -50.247101916681174, -21.605216198216763 ], [ -50.247217827933106, -21.605231186744078 ], [ -50.247220762775122, -21.605231539510822 ], [ -50.247336382567042, -21.605244386158162 ], [ -50.247452005530377, -21.605259209617902 ], [ -50.247568916660306, -21.60527419822775 ], [ -50.247684827914277, -21.605289186755329 ], [ -50.247685005403937, -21.605289209608497 ], [ -50.247801916646829, -21.605304198232837 ], [ -50.247917827904566, -21.605319186760912 ], [ -50.247918005394304, -21.605319209614084 ], [ -50.248035005506324, -21.605334209631874 ], [ -50.248151916638868, -21.605349198242049 ], [ -50.248267827890004, -21.605364186769268 ], [ -50.248268005379863, -21.605364209622469 ], [ -50.248385005491897, -21.60537920964024 ], [ -50.248502005487062, -21.605394209643048 ], [ -50.248504762729539, -21.605394539542463 ], [ -50.248619503740755, -21.605407288547791 ], [ -50.248732253626578, -21.605422975490992 ], [ -50.248733827755046, -21.605423186765485 ], [ -50.248849827866039, -21.605438186783218 ], [ -50.248852450078488, -21.605438504511248 ], [ -50.24896622651351, -21.605451366198906 ], [ -50.249082005463897, -21.60546620965702 ], [ -50.24908445007047, -21.60546650451699 ], [ -50.249198046987587, -21.605479345911373 ], [ -50.249311647239644, -21.605494163338374 ], [ -50.249314450062464, -21.60549450452266 ], [ -50.249428747727123, -21.605507425131766 ], [ -50.249543046197928, -21.605521339731272 ], [ -50.249545219491978, -21.605505727682342 ], [ -50.24946575004671, -21.605496744182641 ], [ -50.249353941702523, -21.605481051786018 ], [ -50.249352352793821, -21.605480836665148 ], [ -50.249237352903805, -21.605465836682853 ], [ -50.249234549847088, -21.605465495470266 ], [ -50.249120953039338, -21.605452654095743 ], [ -50.249007352894616, -21.605437836688395 ], [ -50.248892352889726, -21.605422836691133 ], [ -50.248892172166528, -21.605422813220148 ], [ -50.24877626252983, -21.605407824908486 ], [ -50.248661352879957, -21.605392836696613 ], [ -50.248660994549681, -21.605392790357438 ], [ -50.248544871246416, -21.605377902758178 ], [ -50.248430746507758, -21.605362024536745 ], [ -50.248430365773622, -21.605361972017882 ], [ -50.248313365885139, -21.605345972036599 ], [ -50.248312172141681, -21.605345813233914 ], [ -50.248196769337817, -21.605330890461154 ], [ -50.248080365874578, -21.605314972042066 ], [ -50.248078994524768, -21.605314790371263 ], [ -50.247961994636782, -21.605299790389051 ], [ -50.24784626643833, -21.605284953444365 ], [ -50.247729535285217, -21.6052681362474 ], [ -50.247727172116548, -21.605267813247821 ], [ -50.247611172227543, -21.605252813265569 ], [ -50.247610994504925, -21.605252790382416 ], [ -50.247495169568055, -21.605237941035348 ], [ -50.24737734202278, -21.605221108531982 ], [ -50.247373784559677, -21.605220639817624 ], [ -50.247258302472765, -21.605206702327912 ], [ -50.24714081992429, -21.605191768108867 ], [ -50.247139293647493, -21.605191581323531 ], [ -50.247021057279355, -21.605177671166278 ], [ -50.246903819914984, -21.605162768114635 ], [ -50.246901084692745, -21.605162443623033 ], [ -50.246783084806708, -21.605149443638968 ], [ -50.246664695180129, -21.60513651025266 ], [ -50.24654745467155, -21.605122600364922 ], [ -50.246545787292895, -21.605122411141998 ], [ -50.246425787408889, -21.605109411158001 ], [ -50.246424710471842, -21.605109298065837 ], [ -50.246306710586232, -21.60509729808081 ], [ -50.246306300822184, -21.605097256926573 ], [ -50.246185300939594, -21.605085256941653 ], [ -50.246184332239139, -21.605085163756588 ], [ -50.246066883945723, -21.605074215190374 ], [ -50.245947435244325, -21.60506227032344 ], [ -50.245828111588821, -21.605050337961544 ], [ -50.245708787388693, -21.605037411176369 ], [ -50.245706079140732, -21.605037140372907 ], [ -50.245586895300455, -21.605026215191216 ], [ -50.245469710564308, -21.605014298102461 ], [ -50.245469435112362, -21.605014270323853 ], [ -50.245350111575419, -21.605002337973797 ], [ -50.245343625581604, -21.605001635324641 ], [ -50.24535098870696, -21.605002453449899 ], [ -50.245466215537675, -21.605016360139434 ], [ -50.245467762835482, -21.605016539467258 ], [ -50.245583988699202, -21.605029453455725 ], [ -50.245699215529399, -21.60504336014521 ] ] ], [ [ [ -50.245927587564282, -21.605344614625878 ], [ -50.245815390006882, -21.605330714046605 ], [ -50.245703479094409, -21.605316725185769 ], [ -50.245703300891471, -21.605316703008988 ], [ -50.245590300999893, -21.605302703025711 ], [ -50.245588710136538, -21.60530251377476 ], [ -50.245476218700531, -21.605289685807747 ], [ -50.245364723354776, -21.605274885543391 ], [ -50.245361710128485, -21.605274513780373 ], [ -50.245248332311206, -21.605261584734524 ], [ -50.245134839240876, -21.605247768190225 ], [ -50.24502272334076, -21.605232885551622 ], [ -50.245019873235812, -21.605232532472431 ], [ -50.244906873344704, -21.605219532488221 ], [ -50.244906710112623, -21.605219513791685 ], [ -50.244794125011644, -21.605206675143556 ], [ -50.244681536487789, -21.605191860866928 ], [ -50.244680125805893, -21.605191681442005 ], [ -50.244566925131274, -21.605177779608354 ], [ -50.244454723317396, -21.60516288556531 ], [ -50.244454352679718, -21.605162836793522 ], [ -50.244339352789687, -21.605147836811248 ], [ -50.244336873211161, -21.605147532489308 ], [ -50.24422502381789, -21.605134664863627 ], [ -50.24411017217404, -21.605119813360936 ], [ -50.244107549739759, -21.605119495606157 ], [ -50.243994138676676, -21.605106675228932 ], [ -50.243882723293758, -21.605091885579085 ], [ -50.243880953696227, -21.605091660421003 ], [ -50.243765953806687, -21.605077660437793 ], [ -50.243764549727764, -21.605077495614694 ], [ -50.24365095291104, -21.605064654239165 ], [ -50.243537352757514, -21.605049836830702 ], [ -50.243534873182668, -21.605049532509209 ], [ -50.243423813107093, -21.605036755690247 ], [ -50.243310746378121, -21.605021024669767 ], [ -50.243306549711484, -21.605020495626043 ], [ -50.243192952893452, -21.605007654250389 ], [ -50.243079352738846, -21.604992836841788 ], [ -50.242964352733942, -21.604977836844544 ], [ -50.242961710043012, -21.604977513839884 ], [ -50.242849032872194, -21.604964664692535 ], [ -50.242735444518033, -21.604949848823178 ], [ -50.242621536402908, -21.604934860916632 ], [ -50.242621352605013, -21.604934836837852 ], [ -50.242506444504748, -21.604919848828199 ], [ -50.242392536393012, -21.604904860922094 ], [ -50.242392352595218, -21.604904836843343 ], [ -50.24227753794132, -21.604889861022375 ], [ -50.242164723221549, -21.604874885620379 ], [ -50.242164536269286, -21.604874860912577 ], [ -50.242050629750089, -21.604859873216089 ], [ -50.241937723211635, -21.604844885625809 ], [ -50.241849365054492, -21.604833156669521 ], [ -50.241846065231023, -21.604859572679427 ], [ -50.241962938798522, -21.604872340384219 ], [ -50.242078820059803, -21.604888053100296 ], [ -50.242079182181342, -21.604888101792291 ], [ -50.242199182295927, -21.604904101811123 ], [ -50.242200180214724, -21.60490423176471 ], [ -50.24231818032775, -21.60491923178256 ], [ -50.242318687374549, -21.604919295438457 ], [ -50.24243817067326, -21.60493410742172 ], [ -50.242555658245998, -21.604950891363657 ], [ -50.242558352020161, -21.604951253523215 ], [ -50.242676766835132, -21.604966179764084 ], [ -50.242795514831734, -21.604982012833851 ], [ -50.242914848362986, -21.604998918420797 ], [ -50.242917521037917, -21.604999274749794 ], [ -50.243035990810796, -21.605014083475439 ], [ -50.24315246497202, -21.605030863654164 ], [ -50.243154182133821, -21.605031101817865 ], [ -50.243274182248406, -21.605047101836693 ], [ -50.243275521022916, -21.605047274758398 ], [ -50.243394183015312, -21.605062107511419 ], [ -50.243512848334831, -21.605078918434756 ], [ -50.2435151801592, -21.605079231796317 ], [ -50.243632012963879, -21.605094083427886 ], [ -50.243750848323572, -21.605110918440307 ], [ -50.243753687315106, -21.605111295473083 ], [ -50.243874519670534, -21.605126274694296 ], [ -50.243993352079123, -21.605141253572747 ], [ -50.243993520993534, -21.605141274775768 ], [ -50.244113521108609, -21.605156274793657 ], [ -50.244113687301081, -21.605156295481873 ], [ -50.24423451966026, -21.605171274703544 ], [ -50.244353352064863, -21.6051862535815 ], [ -50.244356065141247, -21.605186572741651 ], [ -50.244474464635005, -21.605199507143755 ], [ -50.244593864696654, -21.605213437154184 ], [ -50.244595212602569, -21.605213588790676 ], [ -50.244715212655954, -21.605226588799908 ], [ -50.24483521271496, -21.605239588809734 ], [ -50.244836564747004, -21.605239729643678 ], [ -50.244955888395971, -21.605251662012215 ], [ -50.245075212707967, -21.605264588815864 ], [ -50.245076564740536, -21.605264729649861 ], [ -50.2451958883887, -21.605276662018337 ], [ -50.245315212701009, -21.605289588821996 ], [ -50.245316564734104, -21.60528972965605 ], [ -50.245436427114726, -21.605301715897578 ], [ -50.245554289512398, -21.605313701907441 ], [ -50.245555920707972, -21.605313859608291 ], [ -50.245674565422391, -21.605324735377621 ], [ -50.245793212687545, -21.605337588834253 ], [ -50.245794564721677, -21.605337729668431 ], [ -50.245914564838074, -21.605349729683471 ], [ -50.246034564834943, -21.605361729686564 ], [ -50.246035667611096, -21.605361836224596 ], [ -50.246153183217224, -21.60537279107275 ], [ -50.24619168014025, -21.605376608950479 ], [ -50.246157106860807, -21.605371936886524 ], [ -50.246155125861613, -21.605371681405881 ], [ -50.246041125971054, -21.605357681422657 ], [ -50.246039873272146, -21.605357532447194 ], [ -50.245927587564282, -21.605344614625878 ] ] ], [ [ [ -50.242313820127244, -21.604663053115509 ], [ -50.24231638189201, -21.604663380039238 ], [ -50.242432693393589, -21.604677297658426 ], [ -50.242548225122043, -21.604692109421936 ], [ -50.242663445772671, -21.604708001928632 ], [ -50.242667762923048, -21.604708539396373 ], [ -50.242783293704619, -21.604721376153719 ], [ -50.242897828095316, -21.604736186638132 ], [ -50.242898005583484, -21.604736209491104 ], [ -50.24301500569549, -21.604751209508915 ], [ -50.243132005690661, -21.604766209511737 ], [ -50.24313476290677, -21.604766539408001 ], [ -50.243250293686955, -21.604779376165194 ], [ -50.243364828076466, -21.60479418664946 ], [ -50.243366046307187, -21.60479433956511 ], [ -50.243481046417642, -21.604808339581929 ], [ -50.243482762894949, -21.604808539416702 ], [ -50.243599763007886, -21.604821539432624 ], [ -50.243716763004194, -21.604834539435586 ], [ -50.24371800485531, -21.604834672658807 ], [ -50.243833383638339, -21.60484660839851 ], [ -50.243949762997076, -21.604859539441502 ], [ -50.243951004848661, -21.604859672664777 ], [ -50.244067004961011, -21.604871672679732 ], [ -50.244068537982471, -21.6048718240353 ], [ -50.244184842901639, -21.604882758689374 ], [ -50.244301148478755, -21.604894687469592 ], [ -50.244303931388608, -21.604894949089132 ], [ -50.244419466763517, -21.604904823911284 ], [ -50.244534004948889, -21.604916672691839 ], [ -50.244535537971416, -21.60491682404751 ], [ -50.244603128309045, -21.604923178696698 ], [ -50.244512135376524, -21.604912562857006 ], [ -50.24451093470374, -21.604912427236933 ], [ -50.24439329286384, -21.604899575611235 ], [ -50.244275648003928, -21.604884746430148 ], [ -50.244275312538207, -21.604884704494097 ], [ -50.244154395752851, -21.604869714813521 ], [ -50.244034563429935, -21.604854735776669 ], [ -50.243915647989667, -21.60483974643892 ], [ -50.243915312524173, -21.604839704502886 ], [ -50.243795734003513, -21.604824880723346 ], [ -50.243677151740428, -21.604808081572454 ], [ -50.243674819682163, -21.604807768179583 ], [ -50.243557986981642, -21.604792916568982 ], [ -50.243439151729177, -21.60477608157802 ], [ -50.243436478817074, -21.604775725217554 ], [ -50.243317148722973, -21.604760808959522 ], [ -50.243198677112396, -21.604745012748367 ], [ -50.243081535089189, -21.604728136358428 ], [ -50.243078478802062, -21.604727725226162 ], [ -50.242959816915857, -21.604712892494366 ], [ -50.242841151701015, -21.604696081592007 ], [ -50.242839817682537, -21.604695898168057 ], [ -50.242719817797109, -21.604679898186902 ], [ -50.242718647820503, -21.604679746452721 ], [ -50.242600996523571, -21.60466491646126 ], [ -50.242483341816602, -21.60464810864903 ], [ -50.242480312464728, -21.604647704537516 ], [ -50.242359566159855, -21.60463273599094 ], [ -50.242242318924795, -21.604617831684941 ], [ -50.242122998861532, -21.604601922346585 ], [ -50.242005180004504, -21.604585946911804 ], [ -50.242000934613941, -21.604585427299153 ], [ -50.241881934728923, -21.604572427315144 ], [ -50.241877684863518, -21.604606448676495 ], [ -50.241961445803689, -21.604618001911927 ], [ -50.241964381905511, -21.604618380030594 ], [ -50.242080693408006, -21.604632297649914 ], [ -50.242196412547202, -21.604647133440366 ], [ -50.242313820127244, -21.604663053115509 ] ] ], [ [ [ -50.242042463925635, -21.604344139108481 ], [ -50.242042647492944, -21.604344163157055 ], [ -50.242157647602923, -21.604359163174784 ], [ -50.242272647598007, -21.604374163177557 ], [ -50.242386151324169, -21.604388968015272 ], [ -50.242498659528025, -21.604405745557361 ], [ -50.242500253857159, -21.604405975336284 ], [ -50.242615057054316, -21.604421947958524 ], [ -50.242727860320024, -21.604437920105678 ], [ -50.242728058696024, -21.604437948071123 ], [ -50.242842058804463, -21.604453948089755 ], [ -50.242843647457256, -21.604454163176086 ], [ -50.242958462220649, -21.60446913901826 ], [ -50.243071277041736, -21.604484114440265 ], [ -50.243184181933444, -21.604499101818629 ], [ -50.243296086956974, -21.604514089101873 ], [ -50.243296276918926, -21.604514114430629 ], [ -50.243409277026849, -21.604529114448297 ], [ -50.243522277021889, -21.604544114450981 ], [ -50.243525289984895, -21.604544486181695 ], [ -50.243638314227042, -21.604557374914663 ], [ -50.243748340058254, -21.604571252049421 ], [ -50.243750289977115, -21.604571486187307 ], [ -50.243863494139745, -21.604584395437474 ], [ -50.243975699351189, -21.604598296971094 ], [ -50.243979996486871, -21.604598772223646 ], [ -50.244091641933657, -21.604609640368114 ], [ -50.244204290075942, -21.604622486211682 ], [ -50.244205249244629, -21.604622592747052 ], [ -50.244315769478263, -21.604634540883758 ], [ -50.244429290068673, -21.604647486217356 ], [ -50.244430559373193, -21.604647625984295 ], [ -50.244543559482508, -21.60465962599914 ], [ -50.244657634951189, -21.6046716340168 ], [ -50.244769842757009, -21.604683549893444 ], [ -50.244882126936453, -21.604696467545391 ], [ -50.24488385891069, -21.60469665753001 ], [ -50.244998859022026, -21.604708657544929 ], [ -50.24500013535495, -21.60470878571147 ], [ -50.245111913556613, -21.604719571331366 ], [ -50.245222699308471, -21.604733297002205 ], [ -50.245224126812857, -21.604733467541045 ], [ -50.245337126921733, -21.604746467556843 ], [ -50.245337450268181, -21.604746504432494 ], [ -50.245451574150465, -21.604759405396678 ], [ -50.245563699295914, -21.604773297010599 ], [ -50.245565289918325, -21.604773486232986 ], [ -50.245679290028221, -21.604786486248805 ], [ -50.245679450256674, -21.604786504441023 ], [ -50.245794288556993, -21.604799486165302 ], [ -50.245905885804937, -21.604812324790327 ], [ -50.246019647449202, -21.604827163268578 ], [ -50.246020874210622, -21.60482731859971 ], [ -50.24613487432007, -21.604841318616465 ], [ -50.246136450240954, -21.604841504452391 ], [ -50.246249861419237, -21.604854324850272 ], [ -50.246361276912644, -21.60486911452028 ], [ -50.246364450232967, -21.604869504458051 ], [ -50.246477348142328, -21.604882266834387 ], [ -50.246590253800065, -21.604897975450253 ], [ -50.246594450224684, -21.604898504463712 ], [ -50.246708047153092, -21.604911345859385 ], [ -50.246821647416752, -21.604926163287917 ], [ -50.246824126756707, -21.604926467580707 ], [ -50.246935885765289, -21.604939324815422 ], [ -50.247049647407579, -21.604954163293417 ], [ -50.247052450208706, -21.604954504475057 ], [ -50.247166047135693, -21.604967345870556 ], [ -50.247279647398386, -21.604982163298963 ], [ -50.247281046240012, -21.604982339670936 ], [ -50.247395346383733, -21.604996254474603 ], [ -50.247509647388895, -21.605011163304482 ], [ -50.24751245019246, -21.605011504486427 ], [ -50.247627450303376, -21.605024504502264 ], [ -50.247741747857695, -21.605037425098892 ], [ -50.247856046333553, -21.605051339699013 ], [ -50.247860271789484, -21.605051798899677 ], [ -50.247973155679098, -21.605062596493031 ], [ -50.248086046325781, -21.605076339704738 ], [ -50.248088858809986, -21.60507665761072 ], [ -50.248203858921329, -21.605088657625615 ], [ -50.248204996365224, -21.605088772331257 ], [ -50.248317996474952, -21.605099772345149 ], [ -50.248319688746761, -21.605099928284673 ], [ -50.248433272498069, -21.605109805136305 ], [ -50.248546858912363, -21.605121657634445 ], [ -50.248663004884079, -21.605133672803888 ], [ -50.248665437673225, -21.605133906268623 ], [ -50.248777854556941, -21.605143854668786 ], [ -50.248891415042259, -21.605154716979378 ], [ -50.249003559345205, -21.605166626111789 ], [ -50.249003858785613, -21.605166657634232 ], [ -50.249098979036901, -21.605176583228374 ], [ -50.249006994602226, -21.605164790354465 ], [ -50.249004549769388, -21.605164495467331 ], [ -50.248890862437086, -21.605151643859571 ], [ -50.248776959842495, -21.605136915078937 ], [ -50.248662746433638, -21.605121024520813 ], [ -50.248658237116913, -21.605120460436137 ], [ -50.248542617434381, -21.605107613808553 ], [ -50.248426994579049, -21.605092790368442 ], [ -50.248310083322529, -21.605077801749257 ], [ -50.248194172174749, -21.605062813242121 ], [ -50.248193994452564, -21.605062790359028 ], [ -50.248076994564585, -21.605047790376823 ], [ -50.24796008330879, -21.605032801757744 ], [ -50.247844172160178, -21.605017813250498 ], [ -50.247843994438128, -21.605017790367437 ], [ -50.247727083302749, -21.605002801763774 ], [ -50.247611172150478, -21.604987813256077 ], [ -50.247610994428506, -21.604987790373009 ], [ -50.24749399454052, -21.604972790390793 ], [ -50.247376994535742, -21.604957790393598 ], [ -50.247374237071327, -21.60495746046778 ], [ -50.247258706407592, -21.60494462373121 ], [ -50.247144172131641, -21.604929813267322 ], [ -50.247143994409825, -21.604929790384279 ], [ -50.247026994521839, -21.604914790402056 ], [ -50.247024392059785, -21.604914477772926 ], [ -50.24691038232568, -21.604901700823927 ], [ -50.246795365737221, -21.604885972062405 ], [ -50.246792618102738, -21.604885619830519 ], [ -50.246675618215228, -21.604871619847369 ], [ -50.246675454487146, -21.604871600339013 ], [ -50.246558225004414, -21.604857691759996 ], [ -50.246441994498639, -21.604842790416232 ], [ -50.246324994493811, -21.604827790419034 ], [ -50.246322392035182, -21.604827477790291 ], [ -50.246207694678475, -21.60481462377993 ], [ -50.246092083231105, -21.604799801802457 ], [ -50.245976172084546, -21.604784813295488 ], [ -50.245974618072268, -21.604784619850587 ], [ -50.245857618184758, -21.604770619867448 ], [ -50.245857293530825, -21.604770581346457 ], [ -50.245738539086204, -21.604756610238848 ], [ -50.245622784538476, -21.60474263986567 ], [ -50.245621237010958, -21.604742460511329 ], [ -50.245505011255119, -21.604729546542078 ], [ -50.245389784530204, -21.604715639871458 ], [ -50.24538823700334, -21.604715460517181 ], [ -50.245271237116278, -21.604702460533076 ], [ -50.245270934654599, -21.604702427208686 ], [ -50.245151934769574, -21.60468942722466 ], [ -50.245150995028908, -21.604689327287982 ], [ -50.245035616355615, -21.604677391566668 ], [ -50.244919237105449, -21.604664460542001 ], [ -50.244917995022256, -21.604664327293936 ], [ -50.244801995134615, -21.60465232730888 ], [ -50.244684851608689, -21.604640312528105 ], [ -50.244683461879568, -21.604640175933667 ], [ -50.244567228906575, -21.604629248050905 ], [ -50.244451995125246, -21.604617327317914 ], [ -50.244449068464739, -21.604617050893321 ], [ -50.244333461296186, -21.604607169942518 ], [ -50.244217851596652, -21.604595312540237 ], [ -50.244216461868525, -21.604595175945882 ], [ -50.244100228894233, -21.604584248062995 ], [ -50.243985616325809, -21.604572391593617 ], [ -50.243869237075238, -21.604559460568911 ], [ -50.243867994994105, -21.604559327321063 ], [ -50.243752616318751, -21.604547391599546 ], [ -50.24363623706811, -21.60453446057484 ], [ -50.243520095899157, -21.604521556004162 ], [ -50.243406563088598, -21.604507734621748 ], [ -50.243291171988247, -21.604492813361947 ], [ -50.243288236939648, -21.604492460570569 ], [ -50.243172617243943, -21.604479613941546 ], [ -50.243056994375408, -21.604464790499758 ], [ -50.24294008312166, -21.604449801880964 ], [ -50.242824171969396, -21.604434813373281 ], [ -50.242821236923376, -21.604434460582215 ], [ -50.242706399656292, -21.604421700889965 ], [ -50.24259255428889, -21.604405998083294 ], [ -50.242590994239613, -21.604405790496084 ], [ -50.242473994351606, -21.604390790513886 ], [ -50.242472617952203, -21.604390619938005 ], [ -50.242356900406946, -21.60437677339797 ], [ -50.242240179937077, -21.604360946896598 ], [ -50.24223899422514, -21.6043607905046 ], [ -50.24212199433714, -21.604345790522409 ], [ -50.24212061793871, -21.604345619946663 ], [ -50.242005088037708, -21.604331795859828 ], [ -50.241890554257864, -21.604315998099985 ], [ -50.241888994210669, -21.604315790513041 ], [ -50.241771994322683, -21.604300790530854 ], [ -50.241770784287198, -21.604300639947521 ], [ -50.241656076403174, -21.604286795896371 ], [ -50.241586535318078, -21.604277286006177 ], [ -50.241585608035685, -21.604284522082086 ], [ -50.241698729557278, -21.604297199498266 ], [ -50.241810866037071, -21.604313776197682 ], [ -50.24181364750271, -21.604314163151546 ], [ -50.241928555706579, -21.604329151181588 ], [ -50.242042463925635, -21.604344139108481 ] ] ], [ [ [ -50.245431182410861, -21.604473101919698 ], [ -50.245551182405556, -21.604489101922539 ], [ -50.24555252117063, -21.604489274843036 ], [ -50.245672521285705, -21.604504274860911 ], [ -50.245791183167071, -21.604519107600037 ], [ -50.245909848496069, -21.604535918524707 ], [ -50.245912521155958, -21.604536274851718 ], [ -50.246031851363902, -21.604551191131431 ], [ -50.246151182379563, -21.604567101936805 ], [ -50.246271182374279, -21.604583101939639 ], [ -50.246390514932912, -21.604599012951233 ], [ -50.246509848467916, -21.604615918538681 ], [ -50.24651252113096, -21.604616274866082 ], [ -50.246631851337909, -21.604631191145685 ], [ -50.246750514916322, -21.604647012959642 ], [ -50.246869848451013, -21.604663918547061 ], [ -50.246872521115989, -21.604664274874729 ], [ -50.246991183114424, -21.604679107628495 ], [ -50.247109848439756, -21.604695918552633 ], [ -50.247112521105997, -21.604696274880471 ], [ -50.247232521221086, -21.604711274898346 ], [ -50.247352521216364, -21.604726274901271 ], [ -50.247352851063056, -21.60472631579411 ], [ -50.247474851180165, -21.604741315812049 ], [ -50.247477212707977, -21.604741588887666 ], [ -50.247597139027967, -21.604754580909113 ], [ -50.247715619362182, -21.604767524142424 ], [ -50.247837173800121, -21.604781473015684 ], [ -50.247838212696884, -21.60478158889676 ], [ -50.247957538388022, -21.604794515850308 ], [ -50.248076864789986, -21.604808437267053 ], [ -50.248078500514566, -21.604808619828376 ], [ -50.248200356640794, -21.60482160450109 ], [ -50.248320212801779, -21.604834588921907 ], [ -50.248439616324355, -21.60484752430715 ], [ -50.248560020523435, -21.604861455374724 ], [ -50.248561212674737, -21.604861588915004 ], [ -50.248679948785231, -21.60487445199751 ], [ -50.248799687477401, -21.604889295640049 ], [ -50.248802065198696, -21.60488957287814 ], [ -50.248920542639013, -21.604902515795356 ], [ -50.249041020507256, -21.604916455386689 ], [ -50.249042212659575, -21.604916588927082 ], [ -50.249161459105643, -21.604929507295751 ], [ -50.249279706443481, -21.604943418750388 ], [ -50.249280020378613, -21.604943455378677 ], [ -50.249400942555752, -21.604957446377881 ], [ -50.249520864741591, -21.604971437302972 ], [ -50.249521915258775, -21.604971556449236 ], [ -50.249600222034331, -21.604980183469248 ], [ -50.249605003520365, -21.604937227617533 ], [ -50.249492722494907, -21.604926297609616 ], [ -50.249380440737937, -21.604914373886164 ], [ -50.249267440734663, -21.604902373889033 ], [ -50.249265864614166, -21.604902214164621 ], [ -50.249152503179367, -21.604891275783981 ], [ -50.249038290914257, -21.604879357985482 ], [ -50.248925440725067, -21.604867373897758 ], [ -50.248923728085842, -21.6048672010578 ], [ -50.248808728197588, -21.604856201071748 ], [ -50.248807562183195, -21.604856093713874 ], [ -50.248695779673149, -21.60484620145991 ], [ -50.248581068120771, -21.604834334750461 ], [ -50.248466141160499, -21.604822342375236 ], [ -50.248463311108132, -21.604822071697807 ], [ -50.248349157813301, -21.604812145327863 ], [ -50.248237572546465, -21.604801283048324 ], [ -50.248124548948709, -21.604789489285107 ], [ -50.24801095374076, -21.604775660306057 ], [ -50.248006728063018, -21.604775201081527 ], [ -50.247893844277378, -21.604764403505953 ], [ -50.247780953732992, -21.604750660311783 ], [ -50.247779549659164, -21.60475049548927 ], [ -50.247664549770072, -21.604737495505116 ], [ -50.247550952833272, -21.604724654116009 ], [ -50.247437352674496, -21.604709836706835 ], [ -50.24743595360561, -21.604709660306291 ], [ -50.247321653566196, -21.604695745522442 ], [ -50.247207352664994, -21.604680836712355 ], [ -50.247204549639157, -21.604680495503516 ], [ -50.24709095281586, -21.604667654127244 ], [ -50.246977352655797, -21.604652836717914 ], [ -50.246974873092555, -21.604652532397846 ], [ -50.246863114185253, -21.604639675182071 ], [ -50.246749352646617, -21.604624836723413 ], [ -50.246746549623175, -21.604624495514862 ], [ -50.246633651817007, -21.604611733158126 ], [ -50.246520746260138, -21.604596024561545 ], [ -50.246516549614903, -21.604595495520517 ], [ -50.246403138541488, -21.604582675142129 ], [ -50.246291723147984, -21.604567885490869 ], [ -50.246288549606909, -21.604567495526172 ], [ -50.24617433818738, -21.604554584673622 ], [ -50.246061739456721, -21.604540756762535 ], [ -50.245947352614159, -21.604525836742745 ], [ -50.245944873055691, -21.604525532423256 ], [ -50.245831873164583, -21.604512532439045 ], [ -50.245831549591188, -21.604512495537534 ], [ -50.245716629826724, -21.604499504610967 ], [ -50.245603505873916, -21.604486604514616 ], [ -50.24549130076791, -21.604472703000045 ], [ -50.24548954957968, -21.604472495546069 ], [ -50.245374711384308, -21.604459513840407 ], [ -50.245262587320056, -21.604446614615199 ], [ -50.245150300755355, -21.604432703008435 ], [ -50.245145864498276, -21.60443221426971 ], [ -50.245032503058638, -21.604421275888622 ], [ -50.244965730541963, -21.604414308323623 ], [ -50.245069182425922, -21.604428101911004 ], [ -50.245072173780279, -21.604428472933812 ], [ -50.245193346970197, -21.604442378057797 ], [ -50.245311851394391, -21.604457191114207 ], [ -50.245431182410861, -21.604473101919698 ] ] ], [ [ [ -50.242038219877365, -21.60408897058997 ], [ -50.24204085126086, -21.604089315663522 ], [ -50.242162851377962, -21.604104315681486 ], [ -50.242284851373334, -21.604119315684478 ], [ -50.242287357955952, -21.60411960440932 ], [ -50.242407765699035, -21.604132540782079 ], [ -50.242529173984572, -21.60414647288372 ], [ -50.24253035794851, -21.604146604415494 ], [ -50.242651358065501, -21.604159604431548 ], [ -50.242653089446421, -21.60415978121048 ], [ -50.242776223221377, -21.6041716973861 ], [ -50.24289635805858, -21.604184604437854 ], [ -50.242897831444473, -21.604184756044795 ], [ -50.243019831562883, -21.604196756059931 ], [ -50.243021165848084, -21.604196881830358 ], [ -50.243141242694612, -21.6042077084354 ], [ -50.243262324777277, -21.604221490138634 ], [ -50.24326350067286, -21.604221619707801 ], [ -50.243385500790865, -21.60423461972389 ], [ -50.243386564979495, -21.604234729630576 ], [ -50.243405686804294, -21.604236641813632 ], [ -50.243339818024083, -21.604227898172208 ], [ -50.243227913102238, -21.604212910909183 ], [ -50.243227722915883, -21.60421288555052 ], [ -50.243114723023822, -21.604197885568212 ], [ -50.243001723018864, -21.604182885570889 ], [ -50.243001352386166, -21.604182836799772 ], [ -50.242887147417619, -21.604167940503185 ], [ -50.242774040451351, -21.604152065844396 ], [ -50.242661139737343, -21.604136079905945 ], [ -50.242660745984104, -21.604136024638173 ], [ -50.242546543896943, -21.604120135655858 ], [ -50.242433340527548, -21.60410325445481 ], [ -50.242430352360245, -21.604102836813272 ], [ -50.242315352470214, -21.604087836831013 ], [ -50.242200352465332, -21.604072836833776 ], [ -50.242085444254883, -21.604057848809756 ], [ -50.241971536136333, -21.604042860902769 ], [ -50.241971352340705, -21.604042836824298 ], [ -50.24185774506293, -21.604028018487565 ], [ -50.241744134019918, -21.604011223814616 ], [ -50.241738391811452, -21.60401047789648 ], [ -50.241622391923379, -21.603997477912365 ], [ -50.241617673204146, -21.604034300579276 ], [ -50.24167618255634, -21.604042101827961 ], [ -50.241676359197065, -21.604042125282742 ], [ -50.241797359312656, -21.604058125301616 ], [ -50.241799864891739, -21.604058437097358 ], [ -50.241918039415154, -21.60407222412919 ], [ -50.242038219877365, -21.60408897058997 ] ] ] ] } },
{ "type": "Feature", "properties": { "CHAVE": null, "FAZENDA": "Faz. ABC", "NOME_FAZ": null, "ZONA": null, "TALHAO": null, "AREA_TOTAL": null, "TIPO_GEO": "VOO_PROCESSADO", "DATA_INICI": "17-04-2026", "DATA_FINAL": "17-04-2026", "HORA_INICI": "14:08:14", "HORA_FINAL": "14:08:14", "CLASSE": "APLICADO", "PILOTO": "valmir alves", "AERONAVE": "PS-CBA", "AREA_HA": 0.0015195624524650001 }, "geometry": { "type": "Polygon", "coordinates": [ [ [ -50.249384929739428, -21.606056766779776 ], [ -50.249274140372215, -21.606041079792277 ], [ -50.249269873461685, -21.606040532376735 ], [ -50.249156873570584, -21.606027532392506 ], [ -50.249043873566777, -21.606014532395307 ], [ -50.249043710332785, -21.60601451369855 ], [ -50.248931218912482, -21.606001685733329 ], [ -50.248819723582081, -21.605986885470987 ], [ -50.248817953961449, -21.605986660309952 ], [ -50.248702954071916, -21.605972660326721 ], [ -50.248701549974577, -21.605972495501465 ], [ -50.248587953176198, -21.605959654128 ], [ -50.248474353041033, -21.605944836721903 ], [ -50.248471549966567, -21.605944495507156 ], [ -50.248357084465923, -21.605931555932294 ], [ -50.248241486366773, -21.605917723684573 ], [ -50.248127353027236, -21.605902836730273 ], [ -50.248124392313969, -21.605902477772371 ], [ -50.248009694976496, -21.60588962376417 ], [ -50.247893994802325, -21.605874790411423 ], [ -50.247892953927028, -21.605874660332578 ], [ -50.247778474596409, -21.605860723721921 ], [ -50.247661994792999, -21.60584579041701 ], [ -50.247660784730861, -21.605845639830353 ], [ -50.247545892357067, -21.605831773513106 ], [ -50.24744326060393, -21.605817974293345 ], [ -50.247455790201094, -21.605819428618116 ], [ -50.247564979381096, -21.605832332797245 ], [ -50.247675339680107, -21.605846252117242 ], [ -50.247676619771994, -21.605846408482822 ], [ -50.247785887051741, -21.605859321892002 ], [ -50.247895155249971, -21.605873228756536 ], [ -50.247899564598285, -21.605873729714006 ], [ -50.248008090585508, -21.605884582316307 ], [ -50.248116619866451, -21.605897408506685 ], [ -50.24811808970356, -21.605897575529784 ], [ -50.24822792618707, -21.605909557694815 ], [ -50.248335762709964, -21.605921539533721 ], [ -50.248339177522318, -21.605921883023115 ], [ -50.248449220085114, -21.605931796770932 ], [ -50.248556263866526, -21.605942699381032 ], [ -50.24855776972862, -21.605942845780785 ], [ -50.248665016411458, -21.605952776032467 ], [ -50.248772263860978, -21.605963699386603 ], [ -50.248773908111758, -21.605963858541386 ], [ -50.24888290821783, -21.605973858554194 ], [ -50.24888579441771, -21.605974097823854 ], [ -50.248992210195041, -21.605981980477523 ], [ -50.24909762888624, -21.60599183269413 ], [ -50.249205769821764, -21.606001845807683 ], [ -50.249208681063493, -21.606002089396984 ], [ -50.249314081694195, -21.606009969821436 ], [ -50.249418485321939, -21.606019819222723 ], [ -50.249420152875267, -21.606019968007285 ], [ -50.249526390516266, -21.60602890388687 ], [ -50.249632628874643, -21.606038832708155 ], [ -50.249634152871067, -21.606038968012939 ], [ -50.249741152975503, -21.606047968024715 ], [ -50.249768846992424, -21.605760031970838 ], [ -50.249662609451846, -21.605751096106186 ], [ -50.24966260624128, -21.605751095806138 ], [ -50.249696352808201, -21.605524836656944 ], [ -50.249581352918177, -21.605509836674667 ], [ -50.249578549859599, -21.605509495461845 ], [ -50.249545219495396, -21.605505727690886 ], [ -50.249582953758164, -21.605234660262763 ], [ -50.249467953868631, -21.605220660279539 ], [ -50.24946654978541, -21.605220495455928 ], [ -50.249352952972849, -21.605207654080846 ], [ -50.249239352823743, -21.605192836672941 ], [ -50.2492365497774, -21.605192495461594 ], [ -50.249122773446075, -21.605179633793036 ], [ -50.249098978995448, -21.605176583229852 ], [ -50.249118858896964, -21.60517865764912 ], [ -50.249120135239096, -21.605178785816591 ], [ -50.249233346849707, -21.605189709747403 ], [ -50.249345559335616, -21.6052016261205 ], [ -50.249458559332325, -21.605213626123366 ], [ -50.249459996333627, -21.605213772363665 ], [ -50.249572996443362, -21.605224772377557 ], [ -50.249600222042545, -21.604980183479597 ], [ -50.249639389777954, -21.604984498560832 ], [ -50.249758864733572, -21.604998437308886 ], [ -50.249760888249952, -21.604998660728803 ], [ -50.249808888296435, -21.605003660735004 ], [ -50.24984311166515, -21.604716339259785 ], [ -50.249796124255376, -21.604711444739412 ], [ -50.249677135339645, -21.604697562702299 ], [ -50.249676084586959, -21.604697443529393 ], [ -50.249558610175576, -21.604684501436761 ], [ -50.249439135331627, -21.604670562708215 ], [ -50.249438979462788, -21.604670544598669 ], [ -50.249318136566522, -21.604656562779493 ], [ -50.249199293628422, -21.604642581260727 ], [ -50.24919778718472, -21.604642411051554 ], [ -50.249078383653192, -21.604629475672581 ], [ -50.24895797956728, -21.604615544624572 ], [ -50.248956934646309, -21.604615427100487 ], [ -50.248839124768416, -21.604602557117634 ], [ -50.248719312594105, -21.60458770437177 ], [ -50.248716787169549, -21.604587411063612 ], [ -50.248597383637268, -21.604574475684565 ], [ -50.248476979551086, -21.604560544636534 ], [ -50.248475787162064, -21.604560411069695 ], [ -50.248355787278044, -21.604547411085687 ], [ -50.248235787274467, -21.604534411088704 ], [ -50.248235499328246, -21.604534380150255 ], [ -50.248114317826882, -21.6045214673711 ], [ -50.247995135283226, -21.60450756274415 ], [ -50.247993787147394, -21.604507411081869 ], [ -50.247874306919698, -21.604494467394126 ], [ -50.247752826275708, -21.604480526995655 ], [ -50.247751934608672, -21.604480427130792 ], [ -50.24763293472364, -21.604467427146755 ], [ -50.247513969137657, -21.604454539144946 ], [ -50.247393313840114, -21.604439704480342 ], [ -50.247273478853792, -21.604424725110476 ], [ -50.247154816843633, -21.604409892363154 ], [ -50.247036151624279, -21.604393081460149 ], [ -50.247033478724013, -21.60439272510126 ], [ -50.246914816832827, -21.604377892368792 ], [ -50.246796151613019, -21.604361081465719 ], [ -50.246794817599493, -21.604360898042469 ], [ -50.246674817714073, -21.604344898061285 ], [ -50.246673478709035, -21.604344725109886 ], [ -50.246554816817266, -21.604329892377358 ], [ -50.2464361515961, -21.604313081474103 ], [ -50.246434817583555, -21.604312898050981 ], [ -50.246314817698135, -21.604296898069805 ], [ -50.246194817692803, -21.604280898072634 ], [ -50.246074817687514, -21.604264898075474 ], [ -50.246073478684046, -21.604264725124267 ], [ -50.245954816790231, -21.604249892391486 ], [ -50.24583615156795, -21.604233081488065 ], [ -50.245833478674079, -21.604232725130039 ], [ -50.245713478789156, -21.604217725147915 ], [ -50.245594148569459, -21.604202808874181 ], [ -50.245474817661524, -21.604186898089733 ], [ -50.245354817656221, -21.60417089809258 ], [ -50.24535347865465, -21.604170725141614 ], [ -50.245233478769713, -21.604155725159515 ], [ -50.24523182606039, -21.604155527043499 ], [ -50.245111323789004, -21.604141698918017 ], [ -50.244992817641148, -21.604125898101255 ], [ -50.244991478640507, -21.604125725150418 ], [ -50.24487147875557, -21.604110725168312 ], [ -50.244870135047087, -21.604110562806749 ], [ -50.244750135162626, -21.604096562823706 ], [ -50.244630807273047, -21.604082641240286 ], [ -50.244511478741991, -21.604067725177153 ], [ -50.244508641948819, -21.604067395516566 ], [ -50.244389061971667, -21.604054548084964 ], [ -50.244270478733149, -21.604039725183078 ], [ -50.244268979278431, -21.604039544726291 ], [ -50.244147979394981, -21.604025544743273 ], [ -50.244146641937341, -21.604025395525696 ], [ -50.244025714530999, -21.604012403328511 ], [ -50.243905787127979, -21.603999411196614 ], [ -50.243905499184145, -21.603999380258408 ], [ -50.243784239705647, -21.603986459170205 ], [ -50.243663979379292, -21.603972544755486 ], [ -50.243662499176821, -21.603972380264612 ], [ -50.243540499294824, -21.603959380280678 ], [ -50.243539434866967, -21.603959270349314 ], [ -50.24341996728036, -21.603947323594276 ], [ -50.243299087499999, -21.603934442965425 ], [ -50.243176675299821, -21.60392050987279 ], [ -50.243172833999097, -21.603920118150825 ], [ -50.243051501551427, -21.60390917834366 ], [ -50.242930905598811, -21.603897316450144 ], [ -50.242810642018917, -21.603884395572852 ], [ -50.242808910397017, -21.603884218769409 ], [ -50.242685776739123, -21.603872302612807 ], [ -50.242566234263492, -21.603859459209676 ], [ -50.242444826091216, -21.603845527127618 ], [ -50.242443641887569, -21.603845395569277 ], [ -50.242323896554666, -21.603832530372141 ], [ -50.242203148699453, -21.603817684327442 ], [ -50.242082465969908, -21.603802846290943 ], [ -50.241961780189371, -21.603786029422999 ], [ -50.241958134950352, -21.60378556287991 ], [ -50.241839389216139, -21.603771709214826 ], [ -50.241719729081282, -21.603755886390182 ], [ -50.241599817510703, -21.603739898184319 ], [ -50.241556182441769, -21.604026101809119 ], [ -50.241617673211898, -21.604034300591497 ], [ -50.241586535318824, -21.604277286016309 ], [ -50.241540365524976, -21.604270972189514 ], [ -50.24149563442645, -21.60455702780375 ], [ -50.241612634537951, -21.604573027822497 ], [ -50.241615215557708, -21.604573360029686 ], [ -50.241730610332212, -21.604587286988814 ], [ -50.241846225152827, -21.604602109405185 ], [ -50.241877684870872, -21.604606448685733 ], [ -50.241849365060354, -21.604833156677078 ], [ -50.241824723206626, -21.604829885628497 ], [ -50.241823125694189, -21.604829681511756 ], [ -50.241709125803638, -21.604815681528535 ], [ -50.24166887415209, -21.605102318465438 ], [ -50.24173850485699, -21.60511086961624 ], [ -50.241703065099401, -21.605394572658927 ], [ -50.241821139586676, -21.605407471556219 ], [ -50.24193621544147, -21.605421360024483 ], [ -50.241937915174091, -21.605421556217859 ], [ -50.242054632234002, -21.605434414880829 ], [ -50.242172351999272, -21.605449253509704 ], [ -50.242174915166267, -21.605449556223828 ], [ -50.242290863928083, -21.605462330244031 ], [ -50.242406819878823, -21.605478053087509 ], [ -50.242411065076105, -21.605478572676759 ], [ -50.242528620903805, -21.605491414913946 ], [ -50.24264518015849, -21.605506231771269 ], [ -50.242648212537731, -21.605506588725767 ], [ -50.242766780584112, -21.605519433601362 ], [ -50.242884351972201, -21.605534253527185 ], [ -50.242885545266141, -21.605534399521193 ], [ -50.243003545379644, -21.605548399538083 ], [ -50.243004915138592, -21.605548556244663 ], [ -50.243121716890691, -21.605561424238111 ], [ -50.243240520993986, -21.605576274754064 ], [ -50.243243065048922, -21.605576572697718 ], [ -50.243360620874128, -21.605589414934617 ], [ -50.24347718012698, -21.605604231791716 ], [ -50.243480212510761, -21.605604588746743 ], [ -50.243599378383571, -21.605617498386689 ], [ -50.243716032883043, -21.605631338754296 ], [ -50.243835520971849, -21.605646274768702 ], [ -50.243837915111186, -21.605646556265601 ], [ -50.243954800180362, -21.605659433438017 ], [ -50.244074687277397, -21.605674295477922 ], [ -50.244076915103349, -21.605674556271623 ], [ -50.244193045615894, -21.605687350315151 ], [ -50.244311182047397, -21.605703101842174 ], [ -50.244312179977378, -21.605703231797211 ], [ -50.244430180090419, -21.60571823181504 ], [ -50.244431706137746, -21.605718418572401 ], [ -50.244549261121762, -21.605732248574448 ], [ -50.244665819786583, -21.605748053142097 ], [ -50.244667520819924, -21.605748274774047 ], [ -50.244787520934999, -21.605763274791954 ], [ -50.244788545197444, -21.605763399568303 ], [ -50.244904501138258, -21.605777157056892 ], [ -50.245020464717157, -21.60579386367694 ], [ -50.245023351770804, -21.605794253564476 ], [ -50.245141098463996, -21.605809095588537 ], [ -50.24525984808966, -21.60582591845527 ], [ -50.245262179938251, -21.605826231820082 ], [ -50.245378820569577, -21.6058410590229 ], [ -50.24549546469428, -21.605857863687952 ], [ -50.245498351750676, -21.60585825357585 ], [ -50.245616585208872, -21.605873156956687 ], [ -50.245733819738952, -21.605889053167342 ], [ -50.245735520775874, -21.605889274799779 ], [ -50.245855436310933, -21.605904264245179 ], [ -50.245974265870501, -21.605919242764575 ], [ -50.246092003791155, -21.605934209452887 ], [ -50.246207827728583, -21.6059491866895 ], [ -50.246208351721933, -21.605949253592989 ], [ -50.246327265858909, -21.605964242773421 ], [ -50.246445180007377, -21.605979231863525 ], [ -50.246445351712453, -21.605979253598733 ], [ -50.246564265847759, -21.605994242778952 ], [ -50.246680621876628, -21.606009033803517 ], [ -50.246795068496233, -21.606025806155838 ], [ -50.246798351697663, -21.60602625360718 ], [ -50.246917178477851, -21.606041231776288 ], [ -50.247034005302297, -21.606056209577648 ], [ -50.247034179865096, -21.606056231862663 ], [ -50.247151311900019, -21.606071121531858 ], [ -50.24726644532533, -21.606087002007431 ], [ -50.247268005175542, -21.606087209568258 ], [ -50.247384503487126, -21.606102145252802 ], [ -50.247503002261126, -21.606118077864398 ], [ -50.247505215114067, -21.606118360146898 ], [ -50.247620609875035, -21.606132287104362 ], [ -50.247737005273102, -21.606147209594489 ], [ -50.247738045918581, -21.606147339644661 ], [ -50.247852525353863, -21.606161276275067 ], [ -50.247969005263776, -21.606176209600065 ], [ -50.247971607533188, -21.606176522206209 ], [ -50.248086125432174, -21.60618935611248 ], [ -50.248199647036152, -21.606204163281035 ], [ -50.248201381453143, -21.606204380156701 ], [ -50.248318381565653, -21.606218380173559 ], [ -50.248319449881294, -21.606218504471418 ], [ -50.248433046783788, -21.606231345864153 ], [ -50.248546647022366, -21.606246163289406 ], [ -50.248549449873288, -21.606246504477117 ], [ -50.248663747530742, -21.606259425085394 ], [ -50.248777160487229, -21.606273231883446 ], [ -50.248889276478565, -21.606288114540153 ], [ -50.248892289515794, -21.606288486280008 ], [ -50.249006208006875, -21.606301476988431 ], [ -50.24911912650029, -21.60631446761478 ], [ -50.2492299889592, -21.606327221706906 ], [ -50.249340859685205, -21.60634292021934 ], [ -50.249345289499935, -21.606343486291184 ], [ -50.249459207982099, -21.606356476998581 ], [ -50.249572126484331, -21.606369467625935 ], [ -50.249609873473851, -21.606082532368365 ], [ -50.249496873582757, -21.606069532384154 ], [ -50.249496710348637, -21.606069513687377 ], [ -50.249384929739428, -21.606056766779776 ] ], [ [ -50.245230787375228, -21.604989411188626 ], [ -50.245229435105919, -21.604989270330044 ], [ -50.245110111568955, -21.604977337979989 ], [ -50.244990787368259, -21.60496441119475 ], [ -50.244989435099463, -21.604964270336225 ], [ -50.244870111562378, -21.604952337986152 ], [ -50.244750787361255, -21.604939411200888 ], [ -50.244631461664909, -21.604926484254129 ], [ -50.244603128401614, -21.60492317871546 ], [ -50.244651842888842, -21.604927758701404 ], [ -50.244768076643936, -21.604939680115301 ], [ -50.244883383608332, -21.604951608425448 ], [ -50.244999762966877, -21.604964539468405 ], [ -50.245001004820516, -21.604964672691896 ], [ -50.245116534898166, -21.604976624082717 ], [ -50.24523491405666, -21.604989556262975 ], [ -50.245343625504603, -21.605001635318544 ], [ -50.245230787375228, -21.604989411188626 ] ], [ [ -50.247604380071287, -21.605545591501098 ], [ -50.247494380177123, -21.605532591516784 ], [ -50.247494039290373, -21.605532551589942 ], [ -50.247382209752864, -21.605519571379041 ], [ -50.247272929862667, -21.605506656486206 ], [ -50.247161479149909, -21.60549272515016 ], [ -50.247160208167557, -21.605492571289592 ], [ -50.247049208274412, -21.605479571305317 ], [ -50.247047594466189, -21.605479390354148 ], [ -50.246937757899431, -21.605467622154446 ], [ -50.246827913490954, -21.605452910852247 ], [ -50.246825208155705, -21.605452571297896 ], [ -50.246714208262567, -21.60543957131361 ], [ -50.24671403926304, -21.605439551609251 ], [ -50.24660275962983, -21.605426635226724 ], [ -50.246491479124643, -21.605412725166566 ], [ -50.246490208143868, -21.605412571306179 ], [ -50.246379208250737, -21.6053995713219 ], [ -50.246378710164478, -21.605399513755195 ], [ -50.246266411022077, -21.605386707716455 ], [ -50.246191680184658, -21.60537660896453 ], [ -50.246273494228348, -21.605384722746578 ], [ -50.246390750809354, -21.605396647148119 ], [ -50.246509378427113, -21.605409498476885 ], [ -50.246626545399003, -21.605423399646131 ], [ -50.246628065074589, -21.605423572799591 ], [ -50.246746990158989, -21.605436564618962 ], [ -50.246863546105956, -21.605449405532191 ], [ -50.24698018015247, -21.605464231896946 ], [ -50.246981706195321, -21.605464418653764 ], [ -50.247099942672243, -21.605478328831207 ], [ -50.247217180143188, -21.605493231902702 ], [ -50.247218215285251, -21.605493360159635 ], [ -50.247332433749428, -21.605507145150636 ], [ -50.247449658039862, -21.605523891480697 ], [ -50.247452005337138, -21.605524209593504 ], [ -50.247568916586246, -21.60553919821864 ], [ -50.247683644915895, -21.605554033782276 ], [ -50.247753458484084, -21.605564091681327 ], [ -50.247716020579048, -21.605559667194473 ], [ -50.247605660381012, -21.605545747893217 ], [ -50.247604380071287, -21.605545591501098 ] ], [ [ -50.24480544048496, -21.604396373989761 ], [ -50.244692440594285, -21.604384374004606 ], [ -50.24457836500094, -21.604372365980296 ], [ -50.244466075547507, -21.60436044143999 ], [ -50.244352709999688, -21.604347513792842 ], [ -50.244351750608388, -21.604347407232787 ], [ -50.244241230476611, -21.604335459113759 ], [ -50.244127709992412, -21.60432251379849 ], [ -50.244125003367103, -21.604322227757528 ], [ -50.244014155597732, -21.604311437270592 ], [ -50.243903300712624, -21.604297703039542 ], [ -50.243901709871444, -21.604297513791231 ], [ -50.243788685735048, -21.604284625077526 ], [ -50.243678660002828, -21.60427074796106 ], [ -50.243676709863664, -21.604270513796855 ], [ -50.243564218405872, -21.604257685827353 ], [ -50.243452723038708, -21.604242885560161 ], [ -50.243405686689243, -21.604236641808011 ], [ -50.243506032677281, -21.60424667640395 ], [ -50.243626760257584, -21.604259540821801 ], [ -50.24374702069521, -21.604273455255807 ], [ -50.243748500658647, -21.6042736197202 ], [ -50.243870356792797, -21.604286604393781 ], [ -50.243990212948233, -21.604299588814001 ], [ -50.244110688946108, -21.604312532584849 ], [ -50.244230270478269, -21.604326368468097 ], [ -50.244349521336986, -21.604341274828659 ], [ -50.244352357894712, -21.60434160446205 ], [ -50.24447193798256, -21.604354451913455 ], [ -50.244590521328128, -21.604369274834582 ], [ -50.244591864799162, -21.604369437167541 ], [ -50.244711864914713, -21.604383437184495 ], [ -50.244831192674056, -21.604397358760135 ], [ -50.244949851408542, -21.604412191105403 ], [ -50.24496573069576, -21.604414308349249 ], [ -50.244919007609433, -21.604409432888559 ], [ -50.244806873130571, -21.60439653246473 ], [ -50.24480544048496, -21.604396373989761 ] ] ] } }
]
}
