{
"type": "FeatureCollection",
"name": "307707_SITIO_SIQUEROLI_I_21-03-2026_03-07-2026_07h43m",
"crs": { "type": "name", "properties": { "name": "urn:ogc:def:crs:OGC:1.3:CRS84" } },
"features": [
{ "type": "Feature", "properties": { "CHAVE": "3077071", "FAZENDA": "307707", "NOME_FAZ": "SITIO SIQUEROLI I", "ZONA": 1.0, "TALHAO": 1.0, "AREA_TOTAL": 13.379923161575944, "TIPO_GEO": "TALHAO", "DATA_INICI": null, "DATA_FINAL": null, "HORA_INICI": null, "HORA_FINAL": null, "CLASSE": null, "PILOTO": null, "AERONAVE": null, "AREA_HA": null }, "geometry": { "type": "Polygon", "coordinates": [ [ [ -50.473229184148799, -21.443927455806602 ], [ -50.473373086440397, -21.444094411787198 ], [ -50.473466055447204, -21.444200970397599 ], [ -50.473588681845499, -21.444116850419199 ], [ -50.473788893189102, -21.443970776715201 ], [ -50.474060000353703, -21.443776240831703 ], [ -50.474315136521497, -21.443588145631189 ], [ -50.474581412098097, -21.443387102404103 ], [ -50.474887989358997, -21.4431615182469 ], [ -50.475065925111302, -21.443039390863692 ], [ -50.475249486267302, -21.442895210518799 ], [ -50.475418424156899, -21.4427685106347 ], [ -50.475607498908303, -21.442633434970599 ], [ -50.475716611459802, -21.442561723361798 ], [ -50.475830632966002, -21.442474447942899 ], [ -50.475968972359198, -21.442372967718793 ], [ -50.476131641137201, -21.442254037015697 ], [ -50.476249142773803, -21.442162877413299 ], [ -50.476409030777901, -21.442045885118397 ], [ -50.476621037210698, -21.441895950006195 ], [ -50.476708689882003, -21.441814433689697 ], [ -50.476827931105198, -21.441721331712799 ], [ -50.476955138645998, -21.441630201925999 ], [ -50.477057979671599, -21.441566908500889 ], [ -50.477227591637103, -21.441444752730789 ], [ -50.4774486328904, -21.441288353445998 ], [ -50.477580029745802, -21.441188797556503 ], [ -50.477645413787698, -21.441129930774508 ], [ -50.477664316442805, -21.441078708504708 ], [ -50.477676375823002, -21.441002148822101 ], [ -50.477673253408199, -21.440905418749505 ], [ -50.477651639670299, -21.440744367137299 ], [ -50.477627044671806, -21.4406417278962 ], [ -50.4775920057766, -21.440551389527297 ], [ -50.4775661212404, -21.440421482802098 ], [ -50.477536677636103, -21.440317530155696 ], [ -50.4775165178092, -21.440137658292297 ], [ -50.477502997828203, -21.440040246629991 ], [ -50.477501014900803, -21.440012976990097 ], [ -50.477506108588798, -21.439945483388001 ], [ -50.477513242977601, -21.439889031360298 ], [ -50.477510037476499, -21.439815669688301 ], [ -50.477511652940102, -21.439751410878198 ], [ -50.477484338025697, -21.439633833134501 ], [ -50.477455726634901, -21.439490935275508 ], [ -50.477399271308997, -21.439184369778701 ], [ -50.477363132875503, -21.439013535820198 ], [ -50.4773500775485, -21.438980389443209 ], [ -50.477328621385098, -21.438969936384797 ], [ -50.477297421649702, -21.438969838982398 ], [ -50.477271726916598, -21.438981443099106 ], [ -50.4771696412719, -21.439027861690494 ], [ -50.4769292223856, -21.439175112346199 ], [ -50.476555197632706, -21.439458262236499 ], [ -50.4765294772875, -21.439477006583502 ], [ -50.476239598900698, -21.4396890145395 ], [ -50.475850299667599, -21.439977308043506 ], [ -50.4755027288383, -21.440229380081693 ], [ -50.475010590293003, -21.440579665786601 ], [ -50.474583725299503, -21.440901593160596 ], [ -50.474122140376402, -21.441237691189595 ], [ -50.473711925650306, -21.441555773774201 ], [ -50.473289229020097, -21.441873816039497 ], [ -50.4728053625279, -21.4422345071001 ], [ -50.472386854737103, -21.442543472375696 ], [ -50.472283948035603, -21.442624289158001 ], [ -50.47221995724, -21.442680561662403 ], [ -50.472189263285102, -21.442732395223402 ], [ -50.472188499889903, -21.4427518666918 ], [ -50.472199429957897, -21.442797340195899 ], [ -50.472246390634297, -21.442849418585496 ], [ -50.472327150190203, -21.442950288192794 ], [ -50.472412844971807, -21.443028453794891 ], [ -50.4725214436139, -21.443100200234095 ], [ -50.4725663757958, -21.443137991302098 ], [ -50.472608515947897, -21.443180966595396 ], [ -50.472620729075103, -21.443205861808192 ], [ -50.472711362284905, -21.443356170266799 ], [ -50.4727702407571, -21.443441700763792 ], [ -50.472854006231003, -21.443537353770601 ], [ -50.472933659223003, -21.443621493954893 ], [ -50.473098795733797, -21.443788865487399 ], [ -50.473229184148799, -21.443927455806602 ] ] ] } },
{ "type": "Feature", "properties": { "CHAVE": "3077071", "FAZENDA": "307707", "NOME_FAZ": "SITIO SIQUEROLI I", "ZONA": 1.0, "TALHAO": 1.0, "AREA_TOTAL": 4.0329777952104813, "TIPO_GEO": "TALHAO", "DATA_INICI": null, "DATA_FINAL": null, "HORA_INICI": null, "HORA_FINAL": null, "CLASSE": null, "PILOTO": null, "AERONAVE": null, "AREA_HA": null }, "geometry": { "type": "Polygon", "coordinates": [ [ [ -50.472897877750903, -21.443651804651392 ], [ -50.472817280159603, -21.4435666666316 ], [ -50.472731176999403, -21.443468344156802 ], [ -50.472670038107402, -21.443379529999302 ], [ -50.472609978462998, -21.443279925525392 ], [ -50.472547018395197, -21.443315142573798 ], [ -50.472333593459801, -21.443472208342094 ], [ -50.472155601256702, -21.443609262557292 ], [ -50.471953922705502, -21.443777400054795 ], [ -50.471803014838301, -21.443902205860592 ], [ -50.471636834298501, -21.4440321563503 ], [ -50.471463712936902, -21.444164032139696 ], [ -50.471282964394199, -21.444295883651897 ], [ -50.471077866284503, -21.444450377537201 ], [ -50.470900604880597, -21.444576397478002 ], [ -50.470693397816, -21.4447386737539 ], [ -50.470528653600901, -21.444854346803101 ], [ -50.470480645799903, -21.444900283092405 ], [ -50.470463897513206, -21.444930090038199 ], [ -50.470463749909797, -21.444970984690404 ], [ -50.470479514333803, -21.445021666612899 ], [ -50.470502270892403, -21.445056142430499 ], [ -50.470570325124704, -21.445219289038992 ], [ -50.470641808814896, -21.445392832526696 ], [ -50.470727070838699, -21.445591086447489 ], [ -50.470789714497698, -21.445716566383904 ], [ -50.470830992903203, -21.445806276667302 ], [ -50.470859800253002, -21.445893351001395 ], [ -50.470887258374702, -21.445970035003796 ], [ -50.470908663568402, -21.445994769562205 ], [ -50.470939157359901, -21.445998760722905 ], [ -50.471023166261901, -21.445967868053199 ], [ -50.471152458786896, -21.445877398566701 ], [ -50.471418009690503, -21.445687393475897 ], [ -50.4717600349313, -21.445440505959393 ], [ -50.472005085862001, -21.445262768654999 ], [ -50.4722185184594, -21.445104405156396 ], [ -50.472507713018999, -21.444894349818298 ], [ -50.472794119344009, -21.444688179953499 ], [ -50.473035349674099, -21.444511727306203 ], [ -50.4733398352693, -21.444290683416099 ], [ -50.473416304366403, -21.444235098882896 ], [ -50.473427079485603, -21.444227707317491 ], [ -50.473335625330002, -21.4441228849563 ], [ -50.4731922867797, -21.443956582981496 ], [ -50.473062963844598, -21.443819125127504 ], [ -50.472897877750903, -21.443651804651392 ] ] ] } },
{ "type": "Feature", "properties": { "CHAVE": null, "FAZENDA": "Faz. ABC", "NOME_FAZ": null, "ZONA": null, "TALHAO": null, "AREA_TOTAL": null, "TIPO_GEO": "VOO_PROCESSADO", "DATA_INICI": "21-03-2026", "DATA_FINAL": "21-03-2026", "HORA_INICI": "12:06:57", "HORA_FINAL": "12:06:57", "CLASSE": "NÃO APLICADO DENTRO DO TALHÃO", "PILOTO": "valmir alves", "AERONAVE": "PS-CBA", "AREA_HA": 0.000166886640908 }, "geometry": { "type": "MultiPolygon", "coordinates": [ [ [ [ -50.470570325124704, -21.445219289038992 ], [ -50.470641808814896, -21.445392832526696 ], [ -50.470727070838699, -21.445591086447489 ], [ -50.470789714497698, -21.445716566383904 ], [ -50.470830992903203, -21.445806276667302 ], [ -50.470859800253002, -21.445893351001395 ], [ -50.470887258374702, -21.445970035003796 ], [ -50.470908663568402, -21.445994769562205 ], [ -50.470939157359901, -21.445998760722905 ], [ -50.471023166261901, -21.445967868053199 ], [ -50.471152458786896, -21.445877398566701 ], [ -50.471418009690503, -21.445687393475897 ], [ -50.4717600349313, -21.445440505959393 ], [ -50.472005085862001, -21.445262768654999 ], [ -50.4722185184594, -21.445104405156396 ], [ -50.472507713018999, -21.444894349818298 ], [ -50.472794119344009, -21.444688179953499 ], [ -50.473035349674099, -21.444511727306203 ], [ -50.4733398352693, -21.444290683416099 ], [ -50.473416304366403, -21.444235098882896 ], [ -50.473427079485603, -21.444227707317491 ], [ -50.473418091182921, -21.444217405160046 ], [ -50.47336618627233, -21.444256333860569 ], [ -50.473276828387696, -21.444324841603496 ], [ -50.473275322834873, -21.444325981172756 ], [ -50.473184855163041, -21.444393583419327 ], [ -50.473093383723658, -21.444463181285133 ], [ -50.47309190255816, -21.444464294167897 ], [ -50.472998902528964, -21.444533294219717 ], [ -50.472998679432266, -21.444533459430023 ], [ -50.472906679402989, -21.444601459481138 ], [ -50.472906041789251, -21.44460192822206 ], [ -50.472813041859915, -21.444669928199303 ], [ -50.472720041829277, -21.444737928250621 ], [ -50.472719028400938, -21.444738662932163 ], [ -50.472623028367607, -21.444807662984509 ], [ -50.472622276454679, -21.444808200003283 ], [ -50.472529964970754, -21.444873711405709 ], [ -50.472435647604378, -21.444942215626455 ], [ -50.472434784374371, -21.444942838048636 ], [ -50.472339975793155, -21.445010701060909 ], [ -50.472247166756404, -21.445077563512761 ], [ -50.472246784513608, -21.44507783800411 ], [ -50.472152532116198, -21.445145302906045 ], [ -50.472059272698473, -21.445213759315987 ], [ -50.472056643006383, -21.445215647314107 ], [ -50.471963089769304, -21.445281333655632 ], [ -50.471869534098644, -21.445348016979544 ], [ -50.47186801544882, -21.445349085668603 ], [ -50.471774098410137, -21.445414333321267 ], [ -50.471682167172929, -21.445480563379093 ], [ -50.47168153433806, -21.445481016862718 ], [ -50.471587534304618, -21.445548016913705 ], [ -50.471587277215654, -21.445548199760704 ], [ -50.47149427718216, -21.44561419981099 ], [ -50.471493372267439, -21.445614837130229 ], [ -50.471400826039918, -21.445679520002926 ], [ -50.471308598037375, -21.445744972159982 ], [ -50.471216917454612, -21.445810743039591 ], [ -50.471051580774606, -21.445608743823534 ], [ -50.471036529113775, -21.445620074854276 ], [ -50.470949290538769, -21.445687486511648 ], [ -50.470752709609997, -21.445464513432231 ], [ -50.470816054218169, -21.445415565348942 ], [ -50.470629096704435, -21.445194706042557 ], [ -50.47072209677647, -21.44512570601924 ], [ -50.47081509684854, -21.445056705995896 ], [ -50.470908096819315, -21.444987706047709 ], [ -50.470910215606104, -21.444986161931642 ], [ -50.471004468041073, -21.444918697058831 ], [ -50.471097727500386, -21.444850240676033 ], [ -50.471099215747429, -21.44484916188647 ], [ -50.471194215714043, -21.444781161938138 ], [ -50.471194835906189, -21.444780720327856 ], [ -50.471290090774517, -21.444713248156919 ], [ -50.471370436841667, -21.444654891563829 ], [ -50.471353462349875, -21.44466677371274 ], [ -50.471352287254845, -21.444667588186924 ], [ -50.471251177489307, -21.444736977268395 ], [ -50.471153058306164, -21.444806354495693 ], [ -50.471151872271278, -21.444807184773687 ], [ -50.471050872232524, -21.444877184827423 ], [ -50.471050338854305, -21.444877552839387 ], [ -50.470951338815439, -21.444945552891721 ], [ -50.470951018134869, -21.444945772563372 ], [ -50.470850178693595, -21.445014662900544 ], [ -50.470751338954599, -21.445082552847786 ], [ -50.470751018273738, -21.44508277251964 ], [ -50.470650018233563, -21.445151772572832 ], [ -50.470469481799952, -21.444920151676403 ], [ -50.470463897513206, -21.444930090038199 ], [ -50.470463749909797, -21.444970984690404 ], [ -50.470479514333803, -21.445021666612899 ], [ -50.470502270892403, -21.445056142430499 ], [ -50.470570325124704, -21.445219289038992 ] ] ], [ [ [ -50.471803014838301, -21.443902205860592 ], [ -50.471636834298501, -21.4440321563503 ], [ -50.471463712936902, -21.444164032139696 ], [ -50.471282964394199, -21.444295883651897 ], [ -50.471077866284503, -21.444450377537201 ], [ -50.470900604880597, -21.444576397478002 ], [ -50.470693397816, -21.4447386737539 ], [ -50.470528653600901, -21.444854346803101 ], [ -50.470480645799903, -21.444900283092405 ], [ -50.470472171161546, -21.444915365416389 ], [ -50.470568821380219, -21.444849337073929 ], [ -50.470667661150678, -21.444781447156078 ], [ -50.470667982049164, -21.444781227335305 ], [ -50.470768821518647, -21.444712337030484 ], [ -50.470867394179407, -21.444644630582026 ], [ -50.47096753272934, -21.444575227653473 ], [ -50.471065941803232, -21.444505645507373 ], [ -50.471067712929354, -21.444504411710778 ], [ -50.471169123282579, -21.444434816396917 ], [ -50.471268116357585, -21.444365521271408 ], [ -50.471367282126096, -21.444295113604056 ], [ -50.47146686927136, -21.444223410888814 ], [ -50.471468041886752, -21.444222574913425 ], [ -50.471569869409308, -21.44415069669089 ], [ -50.471669282347861, -21.444080113533047 ], [ -50.471768869493495, -21.444008410817528 ], [ -50.471769458463889, -21.444007988862175 ], [ -50.471870458538035, -21.443935988838497 ], [ -50.471970453713993, -21.443864705178243 ], [ -50.472068461543728, -21.443792436809066 ], [ -50.472070458687398, -21.443790988790834 ], [ -50.472170753593666, -21.443719491461341 ], [ -50.472269757689197, -21.443647218501962 ], [ -50.472368461770827, -21.443574436735624 ], [ -50.472369642800579, -21.443573574530646 ], [ -50.472468848323722, -21.4435018715598 ], [ -50.472566095297424, -21.44342721735083 ], [ -50.472569642954845, -21.443424574481266 ], [ -50.472658481604874, -21.443360364395406 ], [ -50.472609978462998, -21.443279925525392 ], [ -50.472547018395197, -21.443315142573798 ], [ -50.472333593459801, -21.443472208342094 ], [ -50.472155601256702, -21.443609262557292 ], [ -50.471953922705502, -21.443777400054795 ], [ -50.471803014838301, -21.443902205860592 ] ] ], [ [ [ -50.472814040614331, -21.443615011365182 ], [ -50.472842954515386, -21.443593787340486 ], [ -50.472842107742792, -21.443592892865347 ], [ -50.472760151745547, -21.443652128413731 ], [ -50.472705342647679, -21.443694204103693 ], [ -50.472717880674487, -21.443684867279231 ], [ -50.472719353622423, -21.443683783993407 ], [ -50.472814040614331, -21.443615011365182 ] ] ], [ [ [ -50.472630573604611, -21.443222188230486 ], [ -50.472696671739968, -21.44333180708724 ], [ -50.472713477646565, -21.443319075345428 ], [ -50.472630573604611, -21.443222188230486 ] ] ], [ [ [ -50.472199429957897, -21.442797340195899 ], [ -50.472246390634297, -21.442849418585496 ], [ -50.472327150190203, -21.442950288192794 ], [ -50.472412844971807, -21.443028453794891 ], [ -50.4725214436139, -21.443100200234095 ], [ -50.472538380557644, -21.44311444537345 ], [ -50.472524462638475, -21.443098179977913 ], [ -50.472624462608223, -21.443023180034007 ], [ -50.472627226183754, -21.443021155189189 ], [ -50.472662847429355, -21.442995661563149 ], [ -50.472466536724099, -21.442777430274312 ], [ -50.472570536698413, -21.442695430334552 ], [ -50.472573094615264, -21.442693457055999 ], [ -50.472588169146789, -21.442682080056201 ], [ -50.472443862486784, -21.442501386145818 ], [ -50.472386854737103, -21.442543472375696 ], [ -50.472283948035603, -21.442624289158001 ], [ -50.47221995724, -21.442680561662403 ], [ -50.472189263285102, -21.442732395223402 ], [ -50.472188499889903, -21.4427518666918 ], [ -50.472199429957897, -21.442797340195899 ] ] ], [ [ [ -50.474581412098097, -21.443387102404103 ], [ -50.474887989358997, -21.4431615182469 ], [ -50.475065925111302, -21.443039390863692 ], [ -50.475249486267302, -21.442895210518799 ], [ -50.475418424156899, -21.4427685106347 ], [ -50.475607498908303, -21.442633434970599 ], [ -50.475716611459802, -21.442561723361798 ], [ -50.475830632966002, -21.442474447942899 ], [ -50.475968972359198, -21.442372967718793 ], [ -50.476131641137201, -21.442254037015697 ], [ -50.476249142773803, -21.442162877413299 ], [ -50.476409030777901, -21.442045885118397 ], [ -50.476621037210698, -21.441895950006195 ], [ -50.476708689882003, -21.441814433689697 ], [ -50.476827931105198, -21.441721331712799 ], [ -50.476955138645998, -21.441630201925999 ], [ -50.477057979671599, -21.441566908500889 ], [ -50.477227591637103, -21.441444752730789 ], [ -50.4774486328904, -21.441288353445998 ], [ -50.477580029745802, -21.441188797556503 ], [ -50.477645413787698, -21.441129930774508 ], [ -50.477664316442805, -21.441078708504708 ], [ -50.477667690506422, -21.441057288063888 ], [ -50.47761195208939, -21.441102379839986 ], [ -50.477611796843263, -21.441102505263849 ], [ -50.477523796823895, -21.441173505315568 ], [ -50.477523305474769, -21.441173900067103 ], [ -50.477433305454078, -21.441245900119711 ], [ -50.477431666533207, -21.441247192940313 ], [ -50.477342490860671, -21.441316551830308 ], [ -50.477253305605728, -21.441387900069451 ], [ -50.477251666683699, -21.44138919289097 ], [ -50.477161666660102, -21.441459192942659 ], [ -50.477160380664444, -21.441460182241869 ], [ -50.477068380638073, -21.441530182293956 ], [ -50.477067319910468, -21.441530982122135 ], [ -50.476977502760192, -21.441598098264887 ], [ -50.476888666880427, -21.441667192870202 ], [ -50.476885676445853, -21.441669460395346 ], [ -50.476793676416605, -21.441737460446465 ], [ -50.476792802373637, -21.441738101714872 ], [ -50.476701240696578, -21.441804782529829 ], [ -50.476609676557381, -21.441872460400944 ], [ -50.476609447547204, -21.441872629340921 ], [ -50.476518447517883, -21.441939629391349 ], [ -50.476517802583288, -21.441940101647489 ], [ -50.476425802552612, -21.44200710169811 ], [ -50.476424009528237, -21.442008387889487 ], [ -50.476333237986417, -21.442072519983356 ], [ -50.476243447725082, -21.442138629324397 ], [ -50.476241009663781, -21.442140387846429 ], [ -50.476149009630255, -21.442205387896021 ], [ -50.476148738551714, -21.44220557898149 ], [ -50.47605787427139, -21.442269483555627 ], [ -50.47596600986293, -21.442334387783021 ], [ -50.475874788816633, -21.442398837461447 ], [ -50.475784560279742, -21.442464277965694 ], [ -50.475783009997436, -21.442465387740253 ], [ -50.47569100996391, -21.442530387789844 ], [ -50.475690460284852, -21.442530774354779 ], [ -50.475600735649429, -21.442593581624322 ], [ -50.475509663314455, -21.442657926234684 ], [ -50.475420311240278, -21.442722458314655 ], [ -50.475417156060125, -21.442724677425311 ], [ -50.475326748861846, -21.442786586726523 ], [ -50.47523831147069, -21.44285045820132 ], [ -50.475148311537936, -21.442915458179741 ], [ -50.475058977771852, -21.442979977037989 ], [ -50.474971638366952, -21.443044489125988 ], [ -50.474970311672479, -21.44304545813662 ], [ -50.474881881866359, -21.443109324135179 ], [ -50.474795420437701, -21.443175152752097 ], [ -50.474792311809111, -21.443177458092887 ], [ -50.474703096049303, -21.443241891724441 ], [ -50.47461565056274, -21.443306738967486 ], [ -50.474528420697467, -21.443373152644863 ], [ -50.474440523875813, -21.443440074119344 ], [ -50.474351626865221, -21.443507995462049 ], [ -50.474351420883906, -21.44350815256476 ], [ -50.474263420858733, -21.443575152614617 ], [ -50.474262971580664, -21.443575493372052 ], [ -50.474173632975003, -21.443642993682783 ], [ -50.474086288455872, -21.4437104872062 ], [ -50.474084100582104, -21.443712146668496 ], [ -50.473995636395969, -21.443778003370252 ], [ -50.473909140685208, -21.443845823902549 ], [ -50.473907627319285, -21.443846995271389 ], [ -50.473818627294172, -21.443914995321915 ], [ -50.473817971937834, -21.443915493255886 ], [ -50.473727971911323, -21.443983493306639 ], [ -50.473727100866533, -21.443984146576504 ], [ -50.473637537720698, -21.444050821392423 ], [ -50.473548401403875, -21.444118168862218 ], [ -50.473458828242116, -21.444186841651142 ], [ -50.473457538544572, -21.444187819625441 ], [ -50.473455751301152, -21.444189160058613 ], [ -50.473466055447204, -21.444200970397599 ], [ -50.473588681845499, -21.444116850419199 ], [ -50.473788893189102, -21.443970776715201 ], [ -50.474060000353703, -21.443776240831703 ], [ -50.474315136521497, -21.443588145631189 ], [ -50.474581412098097, -21.443387102404103 ] ] ], [ [ [ -50.474739070110878, -21.441473631532769 ], [ -50.474625128582232, -21.441555589508244 ], [ -50.474514652945082, -21.441635211622327 ], [ -50.474403116100639, -21.441716872560708 ], [ -50.474401656541104, -21.441717928075352 ], [ -50.474290657196597, -21.441797213354391 ], [ -50.474180645276554, -21.441878483455923 ], [ -50.474179722295325, -21.441879159991014 ], [ -50.47406972225847, -21.441959160051493 ], [ -50.474068656790557, -21.44195992799574 ], [ -50.473957191392579, -21.44203954616993 ], [ -50.473847722424367, -21.442119159998107 ], [ -50.473845911852656, -21.442120456826142 ], [ -50.473735562238595, -21.442198292746728 ], [ -50.473627178764097, -21.442279087734825 ], [ -50.47362680530771, -21.442279365248417 ], [ -50.473518805273599, -21.442359365308526 ], [ -50.473517722794107, -21.442360159830645 ], [ -50.473408266006679, -21.442439764800866 ], [ -50.473300805440516, -21.442519365254476 ], [ -50.473300262128525, -21.442519765858624 ], [ -50.473192088142852, -21.442599159644157 ], [ -50.473086905280795, -21.442678542971464 ], [ -50.473086353423582, -21.442678957517817 ], [ -50.47297935350732, -21.44275895749065 ], [ -50.472872630026302, -21.442838750783029 ], [ -50.472768195803376, -21.442917569100747 ], [ -50.472731652603379, -21.442946382022146 ], [ -50.472831204936369, -21.442873892489526 ], [ -50.472831421682955, -21.442873734953423 ], [ -50.47293342164852, -21.442799735009412 ], [ -50.472934804134539, -21.442798743659711 ], [ -50.473037288522427, -21.442726109122987 ], [ -50.473140776198086, -21.44265147861821 ], [ -50.473141804286648, -21.44265074361126 ], [ -50.473244000798388, -21.442578313103358 ], [ -50.473346205320141, -21.442503892365941 ], [ -50.473347342669769, -21.442503072114633 ], [ -50.47345234263264, -21.442428072171655 ], [ -50.473452804515844, -21.442427743538278 ], [ -50.473555573319658, -21.442354907425113 ], [ -50.473659275758401, -21.442280834285263 ], [ -50.473762223011185, -21.442204613755521 ], [ -50.47376434297896, -21.442203072015868 ], [ -50.473869343056229, -21.442128071991185 ], [ -50.473972987113285, -21.442054040552883 ], [ -50.474074654356365, -21.441978036918453 ], [ -50.47407655968717, -21.441976635323595 ], [ -50.474181172737225, -21.441900915433497 ], [ -50.474285787805776, -21.441824197749071 ], [ -50.474390406545297, -21.441747477373156 ], [ -50.474494651560789, -21.441670038252685 ], [ -50.474599277782893, -21.441591319511055 ], [ -50.474599464218656, -21.441591179462485 ], [ -50.474703464300376, -21.441513179435962 ], [ -50.474807371107097, -21.441435249365718 ], [ -50.474912278029336, -21.441356319430959 ], [ -50.474913586260662, -21.441355346003338 ], [ -50.475017983460958, -21.441278525456145 ], [ -50.475119414484858, -21.441199744114623 ], [ -50.475122027773942, -21.441197758986753 ], [ -50.47516040634401, -21.44116924920468 ], [ -50.475075861191797, -21.441230062409804 ], [ -50.474965644685696, -21.441311483647205 ], [ -50.474962607456362, -21.441313670666055 ], [ -50.474849772538299, -21.441392853096669 ], [ -50.474739920948721, -21.441473015100549 ], [ -50.474739070110878, -21.441473631532769 ] ] ], [ [ [ -50.477510037476499, -21.439815669688301 ], [ -50.477511652940102, -21.439751410878198 ], [ -50.477484338025697, -21.439633833134501 ], [ -50.477455726634901, -21.439490935275508 ], [ -50.477399271308997, -21.439184369778701 ], [ -50.477363132875503, -21.439013535820198 ], [ -50.4773500775485, -21.438980389443209 ], [ -50.477328621385098, -21.438969936384797 ], [ -50.477297421649702, -21.438969838982398 ], [ -50.477271726916598, -21.438981443099106 ], [ -50.4771696412719, -21.439027861690494 ], [ -50.4769292223856, -21.439175112346199 ], [ -50.476555197632706, -21.439458262236499 ], [ -50.4765294772875, -21.439477006583502 ], [ -50.476239598900698, -21.4396890145395 ], [ -50.475850299667599, -21.439977308043506 ], [ -50.4755027288383, -21.440229380081693 ], [ -50.475010590293003, -21.440579665786601 ], [ -50.474583725299503, -21.440901593160596 ], [ -50.474122140376402, -21.441237691189595 ], [ -50.473711925650306, -21.441555773774201 ], [ -50.473289229020097, -21.441873816039497 ], [ -50.4728053625279, -21.4422345071001 ], [ -50.472594330572157, -21.442390302399016 ], [ -50.47264312541985, -21.442356815751623 ], [ -50.4727414006625, -21.442288023109022 ], [ -50.472839277275227, -21.442216840147164 ], [ -50.472842715274425, -21.442214411002887 ], [ -50.472943701205395, -21.442145106959373 ], [ -50.473042699379697, -21.442074818283228 ], [ -50.473043044109957, -21.442074574235349 ], [ -50.4731446346292, -21.442002863309369 ], [ -50.473246227209565, -21.441930154923416 ], [ -50.473246460622583, -21.441929988201753 ], [ -50.473347343904202, -21.441858071436158 ], [ -50.473448130901005, -21.441785939595981 ], [ -50.473548049569096, -21.44171174259694 ], [ -50.473550571667886, -21.44170990920399 ], [ -50.473653300570611, -21.441636813668946 ], [ -50.473753049724621, -21.44156274254652 ], [ -50.473754777450239, -21.441561478189492 ], [ -50.473857122851989, -21.441487671441081 ], [ -50.473956503337483, -21.441411906154116 ], [ -50.473958994981608, -21.441410046285359 ], [ -50.474062322126599, -21.441334538019632 ], [ -50.474164655121648, -21.441258036687806 ], [ -50.47416485037229, -21.441257890965538 ], [ -50.474266752766866, -21.441181963724635 ], [ -50.474369655393851, -21.441105036552045 ], [ -50.474472560030058, -21.441028107877564 ], [ -50.474576464788861, -21.440950179343119 ], [ -50.474576655556078, -21.440950036499427 ], [ -50.474679655636663, -21.440873036473295 ], [ -50.474782560273603, -21.44079610779827 ], [ -50.474886465031922, -21.440718179264191 ], [ -50.474886655798876, -21.440718036420691 ], [ -50.474989275717121, -21.44064132059372 ], [ -50.475091897556368, -21.440563607002858 ], [ -50.475094348812384, -21.440561788847031 ], [ -50.475199113431174, -21.440485686279398 ], [ -50.475300897719201, -21.440408606949752 ], [ -50.475302426005591, -21.440407464519904 ], [ -50.475404566817275, -21.440332098517281 ], [ -50.475507717311949, -21.440253743849713 ], [ -50.475508465632203, -21.440253179021123 ], [ -50.475612465600754, -21.440175179079461 ], [ -50.475613225254129, -21.440174613000988 ], [ -50.47571722522126, -21.440097613058846 ], [ -50.475717426328686, -21.440097464415679 ], [ -50.475820040439892, -21.440021749182169 ], [ -50.475922185648308, -21.439945388234989 ], [ -50.476025717718926, -21.439866743716887 ], [ -50.476027426570496, -21.439865464337675 ], [ -50.476130426537559, -21.439789464394838 ], [ -50.476131208261386, -21.439788891393469 ], [ -50.476233715422737, -21.439714250288397 ], [ -50.476336747645263, -21.439637966849133 ], [ -50.476437177977502, -21.439562395543646 ], [ -50.476539083590836, -21.439485466830945 ], [ -50.476641083560722, -21.439408466888409 ], [ -50.476642632796519, -21.439407312633847 ], [ -50.476744632763555, -21.439332312690333 ], [ -50.476913906838874, -21.439534104161222 ], [ -50.477022823980931, -21.439452911418197 ], [ -50.477215176166581, -21.439679088528052 ], [ -50.477152339034902, -21.439725930774131 ], [ -50.477316210239529, -21.439921802827275 ], [ -50.477295654909632, -21.439936876742447 ], [ -50.477478368020648, -21.44015468707844 ], [ -50.477377146561025, -21.440229114654798 ], [ -50.477276206879353, -21.440305314252431 ], [ -50.477175495399109, -21.440382094326889 ], [ -50.477173574009903, -21.440383535449897 ], [ -50.477070573976981, -21.440459535507042 ], [ -50.477069221450925, -21.440460522138459 ], [ -50.476966290003766, -21.440534751578952 ], [ -50.476864344018168, -21.440610963659452 ], [ -50.476863004230033, -21.440611953943314 ], [ -50.476759107687258, -21.440687878372295 ], [ -50.476654493722968, -21.440764595312348 ], [ -50.476550775483233, -21.440841386734604 ], [ -50.476446775450349, -21.440918386792458 ], [ -50.476445439247478, -21.440919364975528 ], [ -50.476340826238548, -21.440995084899559 ], [ -50.476236211327588, -21.441071802533454 ], [ -50.476235439405897, -21.441072364924718 ], [ -50.476130826397529, -21.44114808484834 ], [ -50.476026211601031, -21.441224802398299 ], [ -50.475921211681097, -21.441301802372521 ], [ -50.475816393559015, -21.441378669028357 ], [ -50.475713575013756, -21.441454535172099 ], [ -50.475713211840215, -21.441454802321225 ], [ -50.475608211805969, -21.441531802379256 ], [ -50.475607439882246, -21.441532364772002 ], [ -50.475503110934454, -21.441607879089993 ], [ -50.475400061283317, -21.441684175499244 ], [ -50.475297345221399, -21.441760963268671 ], [ -50.47529621215952, -21.441761802218352 ], [ -50.475191394040607, -21.441838668871863 ], [ -50.475088961464685, -21.441914250222844 ], [ -50.474986345462064, -21.441990963190548 ], [ -50.474985369932867, -21.441991686461741 ], [ -50.474883472902079, -21.442066610781328 ], [ -50.474780676353198, -21.442142460694868 ], [ -50.474677350222322, -21.442218961806134 ], [ -50.474575919288093, -21.442295532251404 ], [ -50.474573794381023, -21.442297107734024 ], [ -50.47447118619754, -21.442371822462505 ], [ -50.474368576048604, -21.442447534837871 ], [ -50.474368370407575, -21.44244768630865 ], [ -50.474267148957793, -21.442522113877772 ], [ -50.474166209288093, -21.442598313466355 ], [ -50.474065497812568, -21.442675093537183 ], [ -50.474063370646029, -21.442676686231835 ], [ -50.473962053702557, -21.442751184016863 ], [ -50.473861730682565, -21.44282667463953 ], [ -50.473860951524358, -21.442827257069879 ], [ -50.473760342186715, -21.442901967007035 ], [ -50.473660023581935, -21.442977454307769 ], [ -50.473560315145903, -21.443053232753552 ], [ -50.473559537341707, -21.443053819985831 ], [ -50.473459537420297, -21.4431288199603 ], [ -50.473359537498894, -21.443203819934762 ], [ -50.473259537577462, -21.443278819909246 ], [ -50.473159537656038, -21.443353819883729 ], [ -50.47305983348658, -21.443428598044353 ], [ -50.472961128259378, -21.443503374765356 ], [ -50.472880013074786, -21.443564825690665 ], [ -50.472880564744379, -21.443565408438143 ], [ -50.472880995606594, -21.443565863572665 ], [ -50.472907616561223, -21.443546322667501 ], [ -50.47300250439644, -21.443476405345312 ], [ -50.473003353838074, -21.44347578392415 ], [ -50.473097928031528, -21.443407093223268 ], [ -50.473192504644665, -21.443337405222305 ], [ -50.473287504614142, -21.443267405274984 ], [ -50.473289217380312, -21.443266161364551 ], [ -50.473383356405449, -21.443198777669355 ], [ -50.4734775048613, -21.443129405152291 ], [ -50.47357250483077, -21.443059405204973 ], [ -50.473574586755291, -21.443057897877434 ], [ -50.473670539004004, -21.44298964321327 ], [ -50.473764504975513, -21.442920405158169 ], [ -50.473765591798575, -21.442919611669215 ], [ -50.473859046567341, -21.442852006120305 ], [ -50.473953505119248, -21.442782405111725 ], [ -50.47395473553226, -21.442781507875353 ], [ -50.474051117977766, -21.442711953562483 ], [ -50.474145505265064, -21.442642405064603 ], [ -50.47414845235032, -21.442640286785725 ], [ -50.474244279403756, -21.442573109084641 ], [ -50.474339123340073, -21.44250395207624 ], [ -50.47433973581979, -21.442503507783172 ], [ -50.474436735786519, -21.442433507836213 ], [ -50.474437587398633, -21.442432897672418 ], [ -50.47453385210963, -21.442364420741171 ], [ -50.47462912355698, -21.442294952006385 ], [ -50.474630587541689, -21.442293897626836 ], [ -50.474727587612691, -21.442224897604174 ], [ -50.474823852324384, -21.442156420672415 ], [ -50.474919123772807, -21.442086951936833 ], [ -50.474919736251067, -21.442086507644827 ], [ -50.475016736217789, -21.442016507697879 ], [ -50.475017343154896, -21.442016071941111 ], [ -50.47511503918134, -21.441946289093682 ], [ -50.475211736468239, -21.441876507575191 ], [ -50.475307591847191, -21.441807333619799 ], [ -50.475402463944519, -21.44173617957777 ], [ -50.475405588118107, -21.441733897443154 ], [ -50.475502588083415, -21.441664897495681 ], [ -50.475502944822743, -21.441664644495141 ], [ -50.475600185156964, -21.441595888731811 ], [ -50.475694464165443, -21.441525179505831 ], [ -50.475695074140312, -21.441524724387783 ], [ -50.475792074109904, -21.441452724441831 ], [ -50.475793736907896, -21.441451507434369 ], [ -50.475889592289896, -21.441382333476788 ], [ -50.475984464389597, -21.441311179432969 ], [ -50.475986504836015, -21.441309675297248 ], [ -50.476083786324338, -21.441239195881543 ], [ -50.476179872629729, -21.441167874118705 ], [ -50.47627467135726, -21.441097024574638 ], [ -50.476275074587171, -21.441096724243124 ], [ -50.476372074662358, -21.441024724218785 ], [ -50.476469074631964, -21.44095272427284 ], [ -50.476469288223946, -21.440952566017319 ], [ -50.476565181428199, -21.440881645032555 ], [ -50.476661051166985, -21.440810484021036 ], [ -50.47675504140355, -21.440738259977493 ], [ -50.476757074963132, -21.440736724121546 ], [ -50.476853146562767, -21.440665413275269 ], [ -50.476946135553789, -21.440594187697553 ], [ -50.477041041632589, -21.440521259902507 ], [ -50.477041655270867, -21.440520790831201 ], [ -50.477137655243304, -21.440447790885536 ], [ -50.47713846539925, -21.440447179060751 ], [ -50.477233120192587, -21.440376187998254 ], [ -50.477324799381549, -21.440304224797877 ], [ -50.477325246787672, -21.440303874952377 ], [ -50.477420246762925, -21.440229875006992 ], [ -50.477554705400131, -21.440381178402003 ], [ -50.477536677636103, -21.440317530155696 ], [ -50.4775165178092, -21.440137658292297 ], [ -50.477502997828203, -21.440040246629991 ], [ -50.477501014900803, -21.440012976990097 ], [ -50.477506108588798, -21.439945483388001 ], [ -50.477513242977601, -21.439889031360298 ], [ -50.477510037476499, -21.439815669688301 ] ] ] ] } },
{ "type": "Feature", "properties": { "CHAVE": null, "FAZENDA": "Faz. ABC", "NOME_FAZ": null, "ZONA": null, "TALHAO": null, "AREA_TOTAL": null, "TIPO_GEO": "VOO_PROCESSADO", "DATA_INICI": "21-03-2026", "DATA_FINAL": "21-03-2026", "HORA_INICI": "12:06:57", "HORA_FINAL": "12:06:57", "CLASSE": "APLICADO FORA DO TALHÃO", "PILOTO": "valmir alves", "AERONAVE": "PS-CBA", "AREA_HA": 6.429658409e-06 }, "geometry": { "type": "Polygon", "coordinates": [ [ [ -50.47778960395933, -21.440958849421882 ], [ -50.477877603977234, -21.440886849369733 ], [ -50.477732994794138, -21.440731928002823 ], [ -50.477749368366005, -21.440719692797423 ], [ -50.477842405872181, -21.440652389040881 ], [ -50.477653594274166, -21.440423610907317 ], [ -50.477620411744788, -21.44044761528027 ], [ -50.47763798512284, -21.440535810655167 ], [ -50.477640064495631, -21.440542945338329 ], [ -50.477671872472158, -21.440624953583193 ], [ -50.477674462692377, -21.440633246016329 ], [ -50.477698467827942, -21.44073342352106 ], [ -50.477699658376224, -21.440739808034216 ], [ -50.477720985665798, -21.44089872483119 ], [ -50.477721517164206, -21.440905124248111 ], [ -50.477724540664703, -21.440998789075639 ], [ -50.477723799772406, -21.441010714127671 ], [ -50.47772357747656, -21.44101212538877 ], [ -50.477788796690156, -21.440959505314645 ], [ -50.47778960395933, -21.440958849421882 ] ] ] } },
{ "type": "Feature", "properties": { "CHAVE": null, "FAZENDA": "Faz. ABC", "NOME_FAZ": null, "ZONA": null, "TALHAO": null, "AREA_TOTAL": null, "TIPO_GEO": "VOO_PROCESSADO", "DATA_INICI": "21-03-2026", "DATA_FINAL": "21-03-2026", "HORA_INICI": "12:06:57", "HORA_FINAL": "12:06:57", "CLASSE": "SOBREPOSIÇÃO", "PILOTO": "valmir alves", "AERONAVE": "PS-CBA", "AREA_HA": 0.00012098339110300001 }, "geometry": { "type": "MultiPolygon", "coordinates": [ [ [ [ -50.472530121972007, -21.443821952516515 ], [ -50.472434237569416, -21.443891868197241 ], [ -50.47234009155185, -21.443960247908009 ], [ -50.472244836680055, -21.444027720081387 ], [ -50.472242503820496, -21.444029405531488 ], [ -50.472148355472498, -21.444098777969078 ], [ -50.472054216451824, -21.444166161661087 ], [ -50.472053353018254, -21.444166784229537 ], [ -50.471959395003424, -21.444235027391287 ], [ -50.471863450648051, -21.444302287324692 ], [ -50.471862216207022, -21.444303161780407 ], [ -50.471767216240401, -21.444371161728746 ], [ -50.471766352805801, -21.444371784297932 ], [ -50.471672091056675, -21.444440248066407 ], [ -50.471576836186742, -21.444507720238477 ], [ -50.471576215995583, -21.444508161848042 ], [ -50.471481525426626, -21.444575940333092 ], [ -50.471385836046991, -21.444643720283015 ], [ -50.471384352522911, -21.444644784388998 ], [ -50.471370436841667, -21.444654891563829 ], [ -50.471453462387259, -21.444596773659171 ], [ -50.471454303031713, -21.444596181015388 ], [ -50.471554303067677, -21.444525180961303 ], [ -50.471555130840272, -21.444524589114312 ], [ -50.471654546697415, -21.444453009668017 ], [ -50.471755958295894, -21.444381424981412 ], [ -50.471756302810604, -21.444381181085927 ], [ -50.471856302846575, -21.444310181031831 ], [ -50.471857130618133, -21.444309589185586 ], [ -50.471956836708337, -21.444237800771202 ], [ -50.472057541717803, -21.444166011032202 ], [ -50.472158541643651, -21.444094011055899 ], [ -50.472160538571636, -21.444092563192836 ], [ -50.472258546356777, -21.444020294795475 ], [ -50.472358541494287, -21.443949011103555 ], [ -50.472359945403113, -21.44394799832644 ], [ -50.472459945436228, -21.443874998271337 ], [ -50.472460538344556, -21.443874563266277 ], [ -50.472558950094538, -21.443801996995454 ], [ -50.472659357380252, -21.443729425362342 ], [ -50.472662904823686, -21.443726782649875 ], [ -50.472705342647679, -21.443694204103693 ], [ -50.472625040000167, -21.443754003921935 ], [ -50.472531216807695, -21.443821161547355 ], [ -50.472530121972007, -21.443821952516515 ] ] ], [ [ [ -50.477586798612656, -21.440740821264416 ], [ -50.477499203479162, -21.440811494574575 ], [ -50.477499048041345, -21.440811620153166 ], [ -50.477410125641214, -21.440883557339049 ], [ -50.477322448557764, -21.440954296768258 ], [ -50.477233509364183, -21.441025448087856 ], [ -50.477144333639338, -21.441094806951412 ], [ -50.477142694523323, -21.441096099924682 ], [ -50.477053509213, -21.441167448137747 ], [ -50.476964973638559, -21.441236309107179 ], [ -50.476874147989584, -21.441305415547514 ], [ -50.476783680265001, -21.441373017773007 ], [ -50.476781333244908, -21.441374807124912 ], [ -50.476692813393171, -21.441443655866649 ], [ -50.476602759520553, -21.44151021739513 ], [ -50.476511197803653, -21.441576898182273 ], [ -50.476510323560575, -21.44157753959697 ], [ -50.476418438008977, -21.441645454975276 ], [ -50.476327874427781, -21.44171213362733 ], [ -50.476237089081039, -21.441778249015353 ], [ -50.476145990650679, -21.441842612010625 ], [ -50.476143552392678, -21.441844370673085 ], [ -50.476053762091567, -21.441910479987929 ], [ -50.475963125940936, -21.441974516372547 ], [ -50.475872261627046, -21.442038420919623 ], [ -50.475871990349184, -21.442038612145438 ], [ -50.475779990382712, -21.442103612095849 ], [ -50.475687990315976, -21.442168612117101 ], [ -50.475686439835989, -21.442169722032268 ], [ -50.475596211261674, -21.442235162509785 ], [ -50.475505264561306, -21.442299418304795 ], [ -50.47541553989376, -21.442362225547345 ], [ -50.475414990016553, -21.442362612251319 ], [ -50.475322990050095, -21.44242761220173 ], [ -50.475321688875248, -21.442428541682887 ], [ -50.475233251348548, -21.442492413204334 ], [ -50.475142844120199, -21.442554322477871 ], [ -50.47513968874285, -21.442556541725462 ], [ -50.475049688773645, -21.442621541676218 ], [ -50.474959688706406, -21.442686541697768 ], [ -50.474869688639174, -21.442751541719325 ], [ -50.474868361752179, -21.442752510869724 ], [ -50.47478102230739, -21.442817022932086 ], [ -50.47469168850462, -21.442881541762446 ], [ -50.474688579685385, -21.442883847242612 ], [ -50.474602118211692, -21.442949675835401 ], [ -50.474513688367992, -21.443013541806181 ], [ -50.474512127653831, -21.443014684012965 ], [ -50.474423127681824, -21.443080683963391 ], [ -50.474421579477017, -21.443081847310705 ], [ -50.474333579502186, -21.443148847260858 ], [ -50.474245579431646, -21.443215847283888 ], [ -50.474245373258057, -21.44321600453312 ], [ -50.474156476199965, -21.443283925849613 ], [ -50.474068803587912, -21.44335067655782 ], [ -50.473979028593831, -21.443418506522573 ], [ -50.473977711669143, -21.443419512788008 ], [ -50.473890797547888, -21.443486673668975 ], [ -50.473801899593312, -21.443552853227597 ], [ -50.473798859441693, -21.443555176091124 ], [ -50.473711612168835, -21.443623585852048 ], [ -50.473623699804683, -21.443690754818142 ], [ -50.473534462497909, -21.443758178530665 ], [ -50.47344489930888, -21.44382485331958 ], [ -50.4734440280684, -21.443825506735642 ], [ -50.473354028094903, -21.443893506684919 ], [ -50.473353171881307, -21.443894158344467 ], [ -50.47326381394786, -21.443962666062081 ], [ -50.473172461631002, -21.444031180268805 ], [ -50.473171171735743, -21.444032158392133 ], [ -50.473081920721299, -21.444100584138603 ], [ -50.47299167734063, -21.444168018722404 ], [ -50.472990616398206, -21.444168818711869 ], [ -50.472899353351607, -21.444238257955156 ], [ -50.47280720908639, -21.444306623024911 ], [ -50.472715638893398, -21.44437430531223 ], [ -50.4726229583882, -21.444442071674132 ], [ -50.472530463402748, -21.444509702387762 ], [ -50.472435346856571, -21.44457806737709 ], [ -50.47234272372441, -21.444643799895864 ], [ -50.472341352510206, -21.444644784373679 ], [ -50.472246782984506, -21.44471347168485 ], [ -50.472152215804968, -21.444781161848603 ], [ -50.472151833357728, -21.444781436486533 ], [ -50.472059024282764, -21.444848298910866 ], [ -50.471964215665729, -21.444916161893119 ], [ -50.471962727417896, -21.44491724068326 ], [ -50.471870031472591, -21.444985283423318 ], [ -50.471777357173615, -21.445050352585575 ], [ -50.471776466013687, -21.445050983020618 ], [ -50.47168322186031, -21.445117444252421 ], [ -50.471588984732051, -21.445182914231598 ], [ -50.471586832941206, -21.445184436620167 ], [ -50.471494148766041, -21.445251209063059 ], [ -50.471400594283864, -21.445317891486003 ], [ -50.471308174172357, -21.445383479926093 ], [ -50.471215627912407, -21.445448162770436 ], [ -50.47121472279526, -21.445448800231755 ], [ -50.471121722828762, -21.445514800181463 ], [ -50.471121082659302, -21.44551525695929 ], [ -50.471029082691423, -21.445581256909168 ], [ -50.471051580774606, -21.445608743823534 ], [ -50.471124759716574, -21.445553654033123 ], [ -50.471124973553117, -21.445553492761533 ], [ -50.47121453921735, -21.44548582089606 ], [ -50.471304102359859, -21.445419146082632 ], [ -50.471393660324892, -21.445352475124093 ], [ -50.471483215830673, -21.445286801058167 ], [ -50.471484323733684, -21.445285980912825 ], [ -50.471575212988512, -21.445218063637487 ], [ -50.471664456667177, -21.445151626647824 ], [ -50.471755805840651, -21.445085100590859 ], [ -50.47184736244953, -21.445018423467413 ], [ -50.471938916662999, -21.444952743243597 ], [ -50.471940450648226, -21.444951628371111 ], [ -50.472031450677548, -21.444884628320686 ], [ -50.472031679691533, -21.44488445937791 ], [ -50.472123565200512, -21.444816543972323 ], [ -50.472214128633929, -21.444749865371875 ], [ -50.472305362103008, -21.444683423578411 ], [ -50.472396916317102, -21.444617743354147 ], [ -50.472398450299373, -21.444616628483814 ], [ -50.472489128426361, -21.444549865438688 ], [ -50.472580361895417, -21.444483423645227 ], [ -50.472671916110613, -21.444417743420171 ], [ -50.472672805047317, -21.444417100886824 ], [ -50.472764805078015, -21.444350100836207 ], [ -50.472765450021363, -21.444349628573661 ], [ -50.472855686706524, -21.444283190546553 ], [ -50.472946915904124, -21.444217743486195 ], [ -50.472947804839777, -21.444217100953608 ], [ -50.473039043936915, -21.444150655061833 ], [ -50.473131275704631, -21.444085200232173 ], [ -50.473133449744431, -21.444083628663201 ], [ -50.473224127872186, -21.44401686561752 ], [ -50.473315361344319, -21.443950423821814 ], [ -50.473406915560361, -21.443884743596136 ], [ -50.47340716551664, -21.443884563900131 ], [ -50.473500165548707, -21.443817563849326 ], [ -50.47350167857816, -21.443816459738315 ], [ -50.4735932427132, -21.443748781870283 ], [ -50.473684804384931, -21.443682101059228 ], [ -50.473686322054704, -21.443680981458591 ], [ -50.473776566890862, -21.443613545727469 ], [ -50.473867804244826, -21.44354710110423 ], [ -50.473868678296633, -21.443546459829356 ], [ -50.473960563805257, -21.443478544424025 ], [ -50.474051127243847, -21.44341186581978 ], [ -50.474142804035196, -21.443345101171627 ], [ -50.474144321702127, -21.443343981573083 ], [ -50.474233939301847, -21.443277014546709 ], [ -50.474326531993292, -21.443211017600753 ], [ -50.474326914764184, -21.443210743890404 ], [ -50.474418914796303, -21.443144743840296 ], [ -50.474420448765621, -21.443143628979385 ], [ -50.474510496096535, -21.443077330367114 ], [ -50.474603531787288, -21.443011017666464 ], [ -50.474603657789281, -21.443010927760785 ], [ -50.474694466354791, -21.442946064473436 ], [ -50.474787274465108, -21.442880200626611 ], [ -50.47478880345156, -21.442879101400198 ], [ -50.474880484591743, -21.442812333585355 ], [ -50.474972589377131, -21.442745978497634 ], [ -50.475064010213814, -21.442681387663026 ], [ -50.475064531345012, -21.442681017847931 ], [ -50.475158531378433, -21.442614017796981 ], [ -50.475159560428587, -21.442613277909434 ], [ -50.475250047494882, -21.442547649900131 ], [ -50.475343531241471, -21.44248101784067 ], [ -50.475345448074421, -21.442479629202921 ], [ -50.475435368460715, -21.442413424055509 ], [ -50.47552727391799, -21.442348200800886 ], [ -50.475527531002058, -21.442348017957364 ], [ -50.475621531035479, -21.442281017906389 ], [ -50.475624320588302, -21.442278981935399 ], [ -50.475714565430088, -21.442211546200074 ], [ -50.475805605301275, -21.442145245395992 ], [ -50.47589940734764, -21.442077388568102 ], [ -50.475900447654837, -21.442076629338484 ], [ -50.475990929163018, -21.442010011056837 ], [ -50.476084407207871, -21.441942388612908 ], [ -50.476087178100357, -21.441940336308011 ], [ -50.476176563065764, -21.441872560864869 ], [ -50.476266913416097, -21.44180774428165 ], [ -50.476268899676278, -21.441806295134597 ], [ -50.476361788141197, -21.441737377856402 ], [ -50.476453358195656, -21.44166969561298 ], [ -50.476545920486053, -21.441602015629812 ], [ -50.476637802157306, -21.441535101775703 ], [ -50.47663803849521, -21.441534929314965 ], [ -50.476730723205812, -21.441467159820519 ], [ -50.476824406645633, -21.441399388793073 ], [ -50.476825446948823, -21.441398629566379 ], [ -50.47691624290033, -21.441331779771225 ], [ -50.477009038314918, -21.441263929331587 ], [ -50.477010535375051, -21.441262820690113 ], [ -50.477101478215197, -21.441194613530246 ], [ -50.477194284607535, -21.441127476962549 ], [ -50.477287162698296, -21.441060564761887 ], [ -50.47728867570401, -21.4410594606682 ], [ -50.477380675733258, -21.440991460617074 ], [ -50.477380898825544, -21.440991295410051 ], [ -50.477473898854733, -21.440922295358238 ], [ -50.477474319168664, -21.440921982396357 ], [ -50.477563936787078, -21.440855015356007 ], [ -50.477656529498311, -21.440789018395929 ], [ -50.477659319027438, -21.440786982442226 ], [ -50.477701735649028, -21.440755286491481 ], [ -50.477699658376224, -21.440739808034216 ], [ -50.477698467827942, -21.44073342352106 ], [ -50.4776860608413, -21.440681647060153 ], [ -50.477674396173065, -21.440669150570258 ], [ -50.477586798612656, -21.440740821264416 ] ] ], [ [ [ -50.472665463425251, -21.442998569668205 ], [ -50.472731652603379, -21.442946382022146 ], [ -50.472728713915487, -21.442948521842535 ], [ -50.472662847429355, -21.442995661563149 ], [ -50.472665463425251, -21.442998569668205 ] ] ], [ [ [ -50.471098851104507, -21.445215074581867 ], [ -50.471192784573248, -21.4451478379656 ], [ -50.471194272615982, -21.445146759323219 ], [ -50.471287532034388, -21.445078302912787 ], [ -50.471381474930759, -21.445011059548722 ], [ -50.471477164274077, -21.444943279569877 ], [ -50.471478647591667, -21.444942215611139 ], [ -50.471572909300413, -21.444873751815479 ], [ -50.471668164133277, -21.444806279614738 ], [ -50.471668784116979, -21.444805838152522 ], [ -50.471763474649123, -21.444738059638858 ], [ -50.471859163993521, -21.444670279659274 ], [ -50.471860647308773, -21.444669215702202 ], [ -50.47195521679653, -21.444600528361473 ], [ -50.472049169059076, -21.444533278293576 ], [ -50.472145549533131, -21.444465712573532 ], [ -50.472147647096321, -21.444464215770598 ], [ -50.472242216584931, -21.444395528429244 ], [ -50.472336783727506, -21.444327838236138 ], [ -50.472338496296061, -21.444326594468205 ], [ -50.472432338485632, -21.444257447562595 ], [ -50.472527163500203, -21.44419027981634 ], [ -50.47252864681127, -21.444189215862277 ], [ -50.472623646843232, -21.444120215810099 ], [ -50.472623878142784, -21.444120047484063 ], [ -50.47271933264814, -21.444050445211484 ], [ -50.472813783371635, -21.443982838349871 ], [ -50.472816119443848, -21.443981132719575 ], [ -50.472909386507425, -21.443911678493215 ], [ -50.473003646556073, -21.443843215902369 ], [ -50.473004271259782, -21.443842759761374 ], [ -50.473098271290361, -21.443773759709376 ], [ -50.473098495720123, -21.443773594654377 ], [ -50.473193072187655, -21.443703906701167 ], [ -50.473287646340424, -21.443635215971632 ], [ -50.473288495575346, -21.443634594701148 ], [ -50.47338349560588, -21.443564594648485 ], [ -50.473477643813062, -21.443495222255944 ], [ -50.473571782799013, -21.443427838532678 ], [ -50.473573495358714, -21.443426594771164 ], [ -50.473668495389241, -21.443356594718487 ], [ -50.473762461214221, -21.443287356713004 ], [ -50.473858413425084, -21.443219102019341 ], [ -50.473860495141047, -21.443217594841517 ], [ -50.473954953650995, -21.443147993804526 ], [ -50.474048408379801, -21.443080388227507 ], [ -50.474049494997317, -21.443079594887966 ], [ -50.474143882241236, -21.443010046362851 ], [ -50.474240264647285, -21.442940492019954 ], [ -50.474241494851512, -21.442939594935087 ], [ -50.474335034950613, -21.442870670622728 ], [ -50.474430547830835, -21.442803713112504 ], [ -50.474432876774713, -21.442802047924328 ], [ -50.474528571161962, -21.442732270737647 ], [ -50.474624839684459, -21.442662798579253 ], [ -50.474721412781733, -21.442594102224351 ], [ -50.474722876557806, -21.44259304799419 ], [ -50.474818147964939, -21.442523579230905 ], [ -50.474914412638682, -21.442455102269921 ], [ -50.475011412567667, -21.442386102292595 ], [ -50.475012876341978, -21.442385048063713 ], [ -50.475108570729383, -21.442315270876918 ], [ -50.475204961037022, -21.442245710832236 ], [ -50.47530265702558, -21.44217592795469 ], [ -50.475303263750419, -21.442175492349978 ], [ -50.47540026378369, -21.442105492296932 ], [ -50.47549726371129, -21.442035492320144 ], [ -50.475499536174183, -21.442033820421937 ], [ -50.475593989756128, -21.441962980204927 ], [ -50.475689233889177, -21.441895229195481 ], [ -50.475788055358677, -21.441825355401161 ], [ -50.475791535953263, -21.441822820493879 ], [ -50.475887231608603, -21.44175104872058 ], [ -50.475983099079905, -21.441679889329674 ], [ -50.476079263271629, -21.441610492460967 ], [ -50.476081535729122, -21.441608820566742 ], [ -50.476176522290068, -21.441537580614941 ], [ -50.476273495343612, -21.441467324597145 ], [ -50.476274925709504, -21.441466275655099 ], [ -50.47637192573989, -21.441394275601063 ], [ -50.476372328761265, -21.441393975424628 ], [ -50.476467127442007, -21.441323125853049 ], [ -50.476563925590575, -21.441251275649353 ], [ -50.476660818794251, -21.441179354889471 ], [ -50.476756711953733, -21.441108433876078 ], [ -50.476756925335671, -21.441108275776042 ], [ -50.476853925366072, -21.441036275721995 ], [ -50.476855958718794, -21.441034740020882 ], [ -50.476949948904718, -21.440962515950297 ], [ -50.477045925214611, -21.440891275770937 ], [ -50.477047770551891, -21.44088988431302 ], [ -50.477141770578143, -21.440817884259541 ], [ -50.47714195848976, -21.440817740095863 ], [ -50.477236652339535, -21.440744975314441 ], [ -50.477331940927577, -21.440672516250899 ], [ -50.47742753477749, -21.440600820831236 ], [ -50.47743020074423, -21.440598775198637 ], [ -50.477522977417102, -21.440525950463339 ], [ -50.477617753386049, -21.440452124936328 ], [ -50.477616354233362, -21.440450550500081 ], [ -50.477559594306157, -21.44049161085583 ], [ -50.477557681092293, -21.440493017554765 ], [ -50.477468063429257, -21.440559984570889 ], [ -50.477375470680862, -21.440625981502251 ], [ -50.477372680951071, -21.440628017600645 ], [ -50.477281890845475, -21.440695860726549 ], [ -50.477189212786392, -21.440764621837065 ], [ -50.477098077282925, -21.440831982832545 ], [ -50.477005837479936, -21.440898435135772 ], [ -50.477005593782366, -21.440898611064899 ], [ -50.476911593814357, -21.440966611013415 ], [ -50.476909464744871, -21.440968179307344 ], [ -50.476818209642744, -21.44103662060391 ], [ -50.476725961862485, -21.441104070564617 ], [ -50.476725553168933, -21.441104370431106 ], [ -50.476635071617373, -21.441170988687919 ], [ -50.476541593532723, -21.441238611103643 ], [ -50.476540961620948, -21.441239070683832 ], [ -50.476448079730027, -21.441306984295711 ], [ -50.476356198019992, -21.441373898121444 ], [ -50.476355961480685, -21.441374070729001 ], [ -50.47626296151131, -21.441442070677702 ], [ -50.476262323707068, -21.441442539558281 ], [ -50.476170323736326, -21.441510539507181 ], [ -50.476170100441877, -21.441510704863774 ], [ -50.476078087289395, -21.441578972657375 ], [ -50.475987086762032, -21.441644255616989 ], [ -50.475983822021334, -21.441646663688523 ], [ -50.475894194952104, -21.441714622645037 ], [ -50.475801592970491, -21.441781611283805 ], [ -50.475800552462914, -21.441782370658999 ], [ -50.475710070913564, -21.441848988914209 ], [ -50.475616592830718, -21.441916611328608 ], [ -50.475616197356324, -21.441916898375489 ], [ -50.475524197387003, -21.44198389832486 ], [ -50.475522679531423, -21.441985018061605 ], [ -50.475433061879819, -21.442051985069185 ], [ -50.475340597585443, -21.442117890443029 ], [ -50.47524772626106, -21.44218379909827 ], [ -50.475245552043326, -21.442185370794576 ], [ -50.475155504667697, -21.442251669383822 ], [ -50.475062468937722, -21.442317982057524 ], [ -50.475061439687138, -21.442318722088523 ], [ -50.474970952582211, -21.442384350071521 ], [ -50.474877728948066, -21.442450796677289 ], [ -50.474785989965099, -21.44251561223712 ], [ -50.474784835705826, -21.442516435744238 ], [ -50.474691835737886, -21.442583435693443 ], [ -50.474691196664395, -21.44258389859819 ], [ -50.474599957522855, -21.442650344467168 ], [ -50.474507725713949, -21.442715799272538 ], [ -50.474507342324401, -21.442716072237666 ], [ -50.47441640533301, -21.44278102720514 ], [ -50.474322468391897, -21.442847982231733 ], [ -50.474320551352122, -21.442849371018116 ], [ -50.474230314621273, -21.442915809022587 ], [ -50.474139276538871, -21.442981118924134 ], [ -50.474045468185899, -21.443047982297447 ], [ -50.474042678417604, -21.443050018423929 ], [ -50.473952433537093, -21.443117454129446 ], [ -50.473861196142138, -21.44318389872555 ], [ -50.47386055100332, -21.443184371130819 ], [ -50.473769551032639, -21.443251371080382 ], [ -50.473769321821329, -21.443251540168582 ], [ -50.473677757644289, -21.443319218009481 ], [ -50.473586195932505, -21.443385898792918 ], [ -50.473584678065023, -21.443387018538438 ], [ -50.473494433185927, -21.44345445424289 ], [ -50.473403195792407, -21.443520898837924 ], [ -50.473402321539787, -21.443521540259606 ], [ -50.473311074420067, -21.443588983754097 ], [ -50.473218959508088, -21.443655346082227 ], [ -50.473127084617801, -21.443721256302503 ], [ -50.473126195483658, -21.44372189897803 ], [ -50.473034195514352, -21.443788898927405 ], [ -50.47303355037333, -21.443789371334308 ], [ -50.472943629956241, -21.443855576448705 ], [ -50.472851724474452, -21.443920799666987 ], [ -50.47285019527618, -21.443921899044785 ], [ -50.472758638526365, -21.443988576215148 ], [ -50.472667084274029, -21.444054256412453 ], [ -50.47266555009638, -21.44405537142385 ], [ -50.472574871928394, -21.444122134442047 ], [ -50.472483638319822, -21.444188576281213 ], [ -50.47239208406755, -21.444254256478462 ], [ -50.472391194930651, -21.444254899155979 ], [ -50.472299194961352, -21.444321899105361 ], [ -50.472298549818369, -21.444322371513696 ], [ -50.472208313093873, -21.444388809513484 ], [ -50.472117083861065, -21.444454256544514 ], [ -50.472116194723156, -21.444454899222745 ], [ -50.47202419475385, -21.44452189917213 ], [ -50.472023549610121, -21.444522371581005 ], [ -50.471932549639455, -21.444589371530558 ], [ -50.471932320426419, -21.444589540620026 ], [ -50.471840434874998, -21.444657455998225 ], [ -50.471750312747027, -21.444723809624719 ], [ -50.471659083515178, -21.444789256655056 ], [ -50.471658194375514, -21.444789899334548 ], [ -50.471566194406222, -21.444856899283941 ], [ -50.471474194336707, -21.4449238993063 ], [ -50.471472898067745, -21.444924853772921 ], [ -50.471382898095698, -21.444991853722669 ], [ -50.471382676386042, -21.4449920190842 ], [ -50.471292228361513, -21.44505960658946 ], [ -50.471202784345621, -21.445125198839435 ], [ -50.471201897857661, -21.445125853841034 ], [ -50.471111897885613, -21.445192853790783 ], [ -50.471021897815568, -21.445259853813486 ], [ -50.47102102656838, -21.445260507234575 ], [ -50.470931133434462, -21.445328426460708 ], [ -50.470842240457884, -21.445395345862426 ], [ -50.470840709586248, -21.445396513482567 ], [ -50.470816054218169, -21.445415565348942 ], [ -50.470820903442927, -21.445421293904033 ], [ -50.470913903472145, -21.445352293852224 ], [ -50.471006903400117, -21.445283293875534 ], [ -50.471098851104507, -21.445215074581867 ] ] ], [ [ [ -50.473121890240137, -21.443028764263598 ], [ -50.473224196048207, -21.442956256234201 ], [ -50.473225223912415, -21.442955521387063 ], [ -50.473328711547381, -21.442880890850489 ], [ -50.473431195896097, -21.442808256282639 ], [ -50.47343279479211, -21.442807107638512 ], [ -50.473535228188283, -21.442732520183043 ], [ -50.473639426901507, -21.442658092500249 ], [ -50.473742195666894, -21.442585256355631 ], [ -50.473742657323584, -21.442584927883164 ], [ -50.473847657360707, -21.442509927826141 ], [ -50.47384977710319, -21.44250838624902 ], [ -50.473952724309257, -21.442432165689031 ], [ -50.474056657204002, -21.442357927876142 ], [ -50.474161657126729, -21.442282927900823 ], [ -50.474164345759739, -21.442280963085263 ], [ -50.474266398998857, -21.442204670824847 ], [ -50.474370440494909, -21.442129364567066 ], [ -50.474371212421225, -21.44212880217243 ], [ -50.474476212455485, -21.442051802114378 ], [ -50.474581212375391, -21.441974802140216 ], [ -50.474581972948009, -21.441974240773906 ], [ -50.474686972980834, -21.441896240715366 ], [ -50.474687722333556, -21.441895680493609 ], [ -50.474792629206917, -21.44181675052501 ], [ -50.474896535960532, -21.441738820425012 ], [ -50.475000535878806, -21.441660820451553 ], [ -50.475000722087124, -21.441660680573712 ], [ -50.475105070815367, -21.441582170543452 ], [ -50.475210413920571, -21.441504653885048 ], [ -50.475213585636865, -21.441502255887983 ], [ -50.475315290572873, -21.441423261726342 ], [ -50.475418972406267, -21.44134624090119 ], [ -50.475421585469576, -21.441344255943001 ], [ -50.475523290406514, -21.441265261780654 ], [ -50.475626972241194, -21.441188240954521 ], [ -50.47562845997016, -21.441187121685452 ], [ -50.475732907894461, -21.44110754227848 ], [ -50.475839351702909, -21.441027958086956 ], [ -50.475841187230692, -21.441026564053836 ], [ -50.47594582439573, -21.440945843917486 ], [ -50.476049443389606, -21.440866896076887 ], [ -50.47615441317577, -21.440789654124803 ], [ -50.476155351336267, -21.440788958255069 ], [ -50.476262351368973, -21.44070895819517 ], [ -50.476263459465919, -21.440708121850093 ], [ -50.476367907392167, -21.440628542441633 ], [ -50.476473883446843, -21.440549307973047 ], [ -50.476579412844593, -21.440471654231519 ], [ -50.476580902970525, -21.440470543734509 ], [ -50.476686161482711, -21.440391103312678 ], [ -50.476791412680051, -21.440313654284555 ], [ -50.476793459049091, -21.440312121986292 ], [ -50.476897540206807, -21.440232822020928 ], [ -50.477003610003017, -21.440154508772302 ], [ -50.477003971046791, -21.440154241388665 ], [ -50.477108971079602, -21.440076241330125 ], [ -50.477110101742284, -21.440075393284978 ], [ -50.477212161882917, -21.439998104988764 ], [ -50.477295654909632, -21.439936876742447 ], [ -50.477287632126341, -21.439927312868715 ], [ -50.477185632159319, -21.440002312812236 ], [ -50.477184082918164, -21.440003467070788 ], [ -50.477082082948279, -21.440080467013328 ], [ -50.477081504720438, -21.440080905675135 ], [ -50.476981459306934, -21.440157177886736 ], [ -50.476880099507333, -21.44023196760924 ], [ -50.476776778731043, -21.440306477753108 ], [ -50.476774656097945, -21.440308036344263 ], [ -50.47667232309967, -21.440384537678479 ], [ -50.476568995951027, -21.440460045946871 ], [ -50.47656878910432, -21.440460197369035 ], [ -50.47646378913857, -21.440537197310992 ], [ -50.476463224744364, -21.440537613186098 ], [ -50.476359224777241, -21.440614613128254 ], [ -50.476255889928744, -21.440691120627502 ], [ -50.476151560934582, -21.440766634915128 ], [ -50.476150788785048, -21.440767197471903 ], [ -50.476046173828749, -21.440843915073998 ], [ -50.475941560776171, -21.440919634965912 ], [ -50.475940788625948, -21.440920197523202 ], [ -50.475835788660198, -21.440997197465176 ], [ -50.475730788580115, -21.441074197490995 ], [ -50.475625788500054, -21.441151197516781 ], [ -50.475625425100439, -21.441151464832 ], [ -50.47552260650707, -21.441227330945875 ], [ -50.475418173351827, -21.441303915227138 ], [ -50.475313560299817, -21.44137963511864 ], [ -50.475312223865039, -21.441380613470628 ], [ -50.475208223897916, -21.441457613412776 ], [ -50.475207654894717, -21.44145803673505 ], [ -50.475105219360898, -21.441534614721963 ], [ -50.475000788021639, -21.441611197670937 ], [ -50.475000424621072, -21.441611464986838 ], [ -50.474897424654003, -21.441687464929672 ], [ -50.474896654654053, -21.441688036813169 ], [ -50.474794140893195, -21.441764673280407 ], [ -50.474692630247127, -21.441839313428936 ], [ -50.474692424383448, -21.44183946506358 ], [ -50.474589424416394, -21.44191546500641 ], [ -50.474589223306879, -21.441915613651119 ], [ -50.474485223339762, -21.441992613593261 ], [ -50.474484080829747, -21.441993467751473 ], [ -50.474383135927198, -21.442069671222718 ], [ -50.474281205799976, -21.442143892157112 ], [ -50.474280424065597, -21.442144465166219 ], [ -50.474177526853225, -21.442220389290153 ], [ -50.474075629772422, -21.442295313582029 ], [ -50.474074080511755, -21.442296467855112 ], [ -50.473972080541877, -21.442373467797641 ], [ -50.473971502306988, -21.44237390646483 ], [ -50.473871558415581, -21.442450101278485 ], [ -50.473770629533973, -21.442524313658826 ], [ -50.47376926943511, -21.442525325362883 ], [ -50.473668658039962, -21.442601032913686 ], [ -50.473568048654649, -21.442675742820331 ], [ -50.473567269276742, -21.442676325414403 ], [ -50.473466269306925, -21.442752325357613 ], [ -50.473465684973498, -21.44275276724802 ], [ -50.473366072889633, -21.442828472397476 ], [ -50.473266462836271, -21.442903179903929 ], [ -50.47316646275771, -21.442978179929444 ], [ -50.473066462679114, -21.443053179954983 ], [ -50.472966462600532, -21.443128179980491 ], [ -50.472866462521949, -21.443203180006012 ], [ -50.472865871967556, -21.443203625154133 ], [ -50.472766871996427, -21.44327862509823 ], [ -50.472713477646565, -21.443319075345428 ], [ -50.472717537509268, -21.443323819967954 ], [ -50.472816168040318, -21.443249847037649 ], [ -50.47291677399803, -21.443177844704259 ], [ -50.472917795175881, -21.443177107514916 ], [ -50.473020686909777, -21.443102186317926 ], [ -50.473121890240137, -21.443028764263598 ] ] ], [ [ [ -50.47658088582304, -21.439779126813672 ], [ -50.476580356700566, -21.439779515948775 ], [ -50.476470498856152, -21.439860672159881 ], [ -50.47635765779539, -21.439940848669892 ], [ -50.476355356530689, -21.439942516003732 ], [ -50.476245139969123, -21.440023937212718 ], [ -50.476132033547316, -21.440105294429443 ], [ -50.476019135928496, -21.440186221007938 ], [ -50.476018931128223, -21.440186368065817 ], [ -50.475905033377487, -21.440268294484408 ], [ -50.475792135760308, -21.440349221061737 ], [ -50.475679396000501, -21.440430034484962 ], [ -50.47556565720901, -21.440510848856714 ], [ -50.475564409888463, -21.440511744514165 ], [ -50.475451771827345, -21.440593481834256 ], [ -50.475339135424989, -21.440674221169001 ], [ -50.475338409719583, -21.44067474456844 ], [ -50.475225409757684, -21.440756744506412 ], [ -50.47522488468487, -21.440757127230707 ], [ -50.475113507450217, -21.440838671243238 ], [ -50.475001135172178, -21.440919221249789 ], [ -50.47500093037101, -21.440919368308307 ], [ -50.474886930410484, -21.441001368246106 ], [ -50.474885355426117, -21.441002516361294 ], [ -50.474775859581861, -21.441083405149268 ], [ -50.474663392731031, -21.441162329222955 ], [ -50.474661079161208, -21.44116398490824 ], [ -50.474550503469523, -21.441244675243997 ], [ -50.474436930074731, -21.441326368353618 ], [ -50.474325813138478, -21.441406452515643 ], [ -50.474324884009455, -21.441407127448549 ], [ -50.47421361045896, -21.441488595549568 ], [ -50.474102343644326, -21.44156807181287 ], [ -50.474100354835258, -21.441569516552565 ], [ -50.473989814989459, -21.441651176583811 ], [ -50.473880808835574, -21.441730453753333 ], [ -50.473769343394885, -21.44181007189248 ], [ -50.473768277685359, -21.441810840010234 ], [ -50.473659177894689, -21.441890185279821 ], [ -50.473548088333665, -21.441968543063414 ], [ -50.473544821349435, -21.4419709122729 ], [ -50.473435007882074, -21.442052773185363 ], [ -50.473327734223247, -21.442132235120532 ], [ -50.473218277389307, -21.442211840056785 ], [ -50.473217194672657, -21.442212634752284 ], [ -50.473109465883489, -21.442292433820821 ], [ -50.473000738053884, -21.442372234028383 ], [ -50.472999094835828, -21.442373457033693 ], [ -50.472893370287345, -21.442453249109999 ], [ -50.472786646756767, -21.442533042368353 ], [ -50.472679646673036, -21.442613042395511 ], [ -50.472679094583924, -21.442613457115723 ], [ -50.472588169146789, -21.442682080056201 ], [ -50.472625460347942, -21.442728774317992 ], [ -50.472724874795595, -21.442659184177781 ], [ -50.472826285125116, -21.442589588827026 ], [ -50.472827460204762, -21.44258877436349 ], [ -50.472927460242147, -21.442518774309935 ], [ -50.472929722838174, -21.442517159855125 ], [ -50.473027021966907, -21.442446396823751 ], [ -50.473127284909744, -21.442377588894793 ], [ -50.473129300729937, -21.44237618172027 ], [ -50.473229128584101, -21.442305303915418 ], [ -50.473330956072651, -21.442233425659502 ], [ -50.473331772900515, -21.442232845080952 ], [ -50.473433656314761, -21.442159928490096 ], [ -50.473534539559097, -21.44208801169265 ], [ -50.473534772751002, -21.442087845128789 ], [ -50.473636772786847, -21.44201484507332 ], [ -50.473638950546651, -21.442013257405861 ], [ -50.473738699652984, -21.441939186255766 ], [ -50.473841428514959, -21.441866090688997 ], [ -50.473843950391128, -21.441864257456288 ], [ -50.473944091354397, -21.441789895322902 ], [ -50.474047222731748, -21.441715521702072 ], [ -50.47405049678207, -21.441713093847937 ], [ -50.47415026123852, -21.441637035762934 ], [ -50.474253005199479, -21.441561953604872 ], [ -50.474254344994463, -21.441560963315936 ], [ -50.474357247462009, -21.441484036194545 ], [ -50.474459149806755, -21.441408108923781 ], [ -50.474459344834329, -21.44140796336788 ], [ -50.474562344865838, -21.441330963310229 ], [ -50.474665344785265, -21.441253963336351 ], [ -50.474665535327418, -21.441253820661071 ], [ -50.474769440036901, -21.441175892094311 ], [ -50.474872344623037, -21.441098963388988 ], [ -50.474975344542443, -21.441021963415118 ], [ -50.474975535084369, -21.441021820739998 ], [ -50.475079439790868, -21.440943892175476 ], [ -50.475182344380229, -21.440866963467727 ], [ -50.475183102561623, -21.440866393000508 ], [ -50.475284886796892, -21.440789313642615 ], [ -50.475389651369767, -21.440713211042709 ], [ -50.475392102398814, -21.440711393053601 ], [ -50.475494342149027, -21.440633968742159 ], [ -50.475596574174467, -21.440558535369853 ], [ -50.475598282806203, -21.440557256154111 ], [ -50.475701909614273, -21.440478539600814 ], [ -50.475805155670905, -21.440401105023845 ], [ -50.47590867443742, -21.440324461288164 ], [ -50.476011573851366, -21.440248535474083 ], [ -50.476012343620354, -21.440247963761646 ], [ -50.476115343651855, -21.440170963703984 ], [ -50.476116282399232, -21.44017025628694 ], [ -50.476219432844339, -21.440091901586797 ], [ -50.476321183731386, -21.44001682322958 ], [ -50.476423791919572, -21.439942108497654 ], [ -50.476424774413225, -21.439941387100816 ], [ -50.476528774446095, -21.439864387042963 ], [ -50.476529727557882, -21.439863675629617 ], [ -50.476630727588052, -21.439787675572862 ], [ -50.476630916637937, -21.439787533088197 ], [ -50.476732916668048, -21.43971053303073 ], [ -50.476834145921465, -21.439634114834917 ], [ -50.47693536738344, -21.439559687256839 ], [ -50.476913906838874, -21.439534104161222 ], [ -50.476913090020695, -21.439534713061775 ], [ -50.476802451805121, -21.439616445762052 ], [ -50.476692716092025, -21.439697251116041 ], [ -50.47658088582304, -21.439779126813672 ] ] ], [ [ [ -50.475527228403195, -21.440903518087428 ], [ -50.475639864760531, -21.440822778718296 ], [ -50.475640590219918, -21.44082225549586 ], [ -50.475752969031959, -21.440740706235715 ], [ -50.475866342977497, -21.440660151030979 ], [ -50.475866864469239, -21.44065977886034 ], [ -50.475979864508766, -21.440578778798834 ], [ -50.476092864425198, -21.440497778825563 ], [ -50.476093068978422, -21.44049763194495 ], [ -50.476206966683264, -21.440415705491983 ], [ -50.476319864257007, -21.440334778879361 ], [ -50.47632006881004, -21.44033463199888 ], [ -50.476434068849514, -21.440252631936684 ], [ -50.476435643581127, -21.440251484004762 ], [ -50.476545501374403, -21.440170327762793 ], [ -50.476658342391097, -21.440090151217781 ], [ -50.47666064341125, -21.440088484059711 ], [ -50.476771379337059, -21.440006679106293 ], [ -50.476883114360504, -21.439924873071924 ], [ -50.476883453378996, -21.439924624147164 ], [ -50.476993453414401, -21.439843624086201 ], [ -50.476993643155872, -21.439843484142241 ], [ -50.477104643191218, -21.439761484080591 ], [ -50.477105176132611, -21.439761088589513 ], [ -50.477152339034902, -21.439725930774131 ], [ -50.477125789907355, -21.439694197120041 ], [ -50.477020789941605, -21.439771197062001 ], [ -50.477018898375718, -21.43977260671836 ], [ -50.476916461611864, -21.439850180155233 ], [ -50.476812209410966, -21.439927624613151 ], [ -50.476705390178267, -21.440006491115167 ], [ -50.476703541069234, -21.440007878018019 ], [ -50.476599557339135, -21.440087103681538 ], [ -50.476494587501158, -21.440164345603829 ], [ -50.476493097146097, -21.440165456270631 ], [ -50.476387838582077, -21.440244896661032 ], [ -50.476282587336627, -21.44032234565686 ], [ -50.476281648946127, -21.440323041696608 ], [ -50.476174648978827, -21.440403041636699 ], [ -50.476173540652397, -21.440403878154211 ], [ -50.476069092671644, -21.440483457532025 ], [ -50.475963116450799, -21.440562692054492 ], [ -50.475857587005443, -21.440640345763569 ], [ -50.475855540401895, -21.440641878236068 ], [ -50.475750540431832, -21.440721878176557 ], [ -50.475749812889475, -21.440722435950125 ], [ -50.475645724983032, -21.440802732298117 ], [ -50.475539648477422, -21.440882041799206 ], [ -50.475538540148158, -21.440882878318874 ], [ -50.475434280347905, -21.440962314321254 ], [ -50.475330027939009, -21.441039758933435 ], [ -50.475327414652135, -21.441041744059632 ], [ -50.475225709658126, -21.441120738193174 ], [ -50.47516040634401, -21.44116924920468 ], [ -50.475188967440118, -21.441148705249756 ], [ -50.47530186501335, -21.441067778637514 ], [ -50.475303115425234, -21.441066872778574 ], [ -50.4754148533655, -21.440985064609059 ], [ -50.475527228403195, -21.440903518087428 ] ] ] ] } },
{ "type": "Feature", "properties": { "CHAVE": null, "FAZENDA": "Faz. ABC", "NOME_FAZ": null, "ZONA": null, "TALHAO": null, "AREA_TOTAL": null, "TIPO_GEO": "VOO_PROCESSADO", "DATA_INICI": "21-03-2026", "DATA_FINAL": "21-03-2026", "HORA_INICI": "12:06:57", "HORA_FINAL": "12:06:57", "CLASSE": "APLICADO", "PILOTO": "valmir alves", "AERONAVE": "PS-CBA", "AREA_HA": 0.001585463424142 }, "geometry": { "type": "Polygon", "coordinates": [ [ [ -50.477721517164206, -21.440905124248111 ], [ -50.477720985665798, -21.44089872483119 ], [ -50.477701735647315, -21.440755286492756 ], [ -50.477701735649028, -21.440755286491481 ], [ -50.477699658376224, -21.440739808034216 ], [ -50.477698467827942, -21.44073342352106 ], [ -50.4776860608413, -21.440681647060153 ], [ -50.477686060835886, -21.440681647054355 ], [ -50.477674462692377, -21.440633246016329 ], [ -50.477671872472158, -21.440624953583193 ], [ -50.477640064495631, -21.440542945338329 ], [ -50.47763798512284, -21.440535810655167 ], [ -50.477620411744788, -21.44044761528027 ], [ -50.477616354232481, -21.440450550502245 ], [ -50.477420246762925, -21.440229875006992 ], [ -50.477325246787672, -21.440303874952377 ], [ -50.477324799381549, -21.440304224797877 ], [ -50.477233120192587, -21.440376187998254 ], [ -50.47713846539925, -21.440447179060751 ], [ -50.477137655243304, -21.440447790885536 ], [ -50.477041655270867, -21.440520790831201 ], [ -50.477041041632589, -21.440521259902507 ], [ -50.476946135553789, -21.440594187697553 ], [ -50.476853146562767, -21.440665413275269 ], [ -50.476757074963132, -21.440736724121546 ], [ -50.47675504140355, -21.440738259977493 ], [ -50.476661051166985, -21.440810484021036 ], [ -50.476565181428199, -21.440881645032555 ], [ -50.476469288223946, -21.440952566017319 ], [ -50.476469074631964, -21.44095272427284 ], [ -50.476372074662358, -21.441024724218785 ], [ -50.476275074587171, -21.441096724243124 ], [ -50.47627467135726, -21.441097024574638 ], [ -50.476179872629729, -21.441167874118705 ], [ -50.476083786324338, -21.441239195881543 ], [ -50.475986504836015, -21.441309675297248 ], [ -50.475984464389597, -21.441311179432969 ], [ -50.475889592289896, -21.441382333476788 ], [ -50.475793736907896, -21.441451507434369 ], [ -50.475792074109904, -21.441452724441831 ], [ -50.475695074140312, -21.441524724387783 ], [ -50.475694464165443, -21.441525179505831 ], [ -50.475600185156964, -21.441595888731811 ], [ -50.475502944822743, -21.441664644495141 ], [ -50.475502588083415, -21.441664897495681 ], [ -50.475405588118107, -21.441733897443154 ], [ -50.475402463944519, -21.44173617957777 ], [ -50.475307591847191, -21.441807333619799 ], [ -50.475211736468239, -21.441876507575191 ], [ -50.47511503918134, -21.441946289093682 ], [ -50.475017343154896, -21.442016071941111 ], [ -50.475016736217789, -21.442016507697879 ], [ -50.474919736251067, -21.442086507644827 ], [ -50.474919123772807, -21.442086951936833 ], [ -50.474823852324384, -21.442156420672415 ], [ -50.474727587612691, -21.442224897604174 ], [ -50.474630587541689, -21.442293897626836 ], [ -50.47462912355698, -21.442294952006385 ], [ -50.47453385210963, -21.442364420741171 ], [ -50.474437587398633, -21.442432897672418 ], [ -50.474436735786519, -21.442433507836213 ], [ -50.47433973581979, -21.442503507783172 ], [ -50.474339123340073, -21.44250395207624 ], [ -50.474244279403756, -21.442573109084641 ], [ -50.47414845235032, -21.442640286785725 ], [ -50.474145505265064, -21.442642405064603 ], [ -50.474051117977766, -21.442711953562483 ], [ -50.47395473553226, -21.442781507875353 ], [ -50.473953505119248, -21.442782405111725 ], [ -50.473859046567341, -21.442852006120305 ], [ -50.473765591798575, -21.442919611669215 ], [ -50.473764504975513, -21.442920405158169 ], [ -50.473670539004004, -21.44298964321327 ], [ -50.473574586755291, -21.443057897877434 ], [ -50.47357250483077, -21.443059405204973 ], [ -50.4734775048613, -21.443129405152291 ], [ -50.473383356405449, -21.443198777669355 ], [ -50.473289217380312, -21.443266161364551 ], [ -50.473287504614142, -21.443267405274984 ], [ -50.473192504644665, -21.443337405222305 ], [ -50.473097928031528, -21.443407093223268 ], [ -50.473003353838074, -21.44347578392415 ], [ -50.47300250439644, -21.443476405345312 ], [ -50.472907616561223, -21.443546322667501 ], [ -50.472814040614331, -21.443615011365182 ], [ -50.472719353622423, -21.443683783993407 ], [ -50.472717880674487, -21.443684867279231 ], [ -50.47270534306751, -21.443694203797993 ], [ -50.472760151745547, -21.443652128413731 ], [ -50.472859357225978, -21.443580425411717 ], [ -50.47286212823051, -21.443578374821268 ], [ -50.472961128259378, -21.443503374765356 ], [ -50.47305983348658, -21.443428598044353 ], [ -50.473159537656038, -21.443353819883729 ], [ -50.473259537577462, -21.443278819909246 ], [ -50.473359537498894, -21.443203819934762 ], [ -50.473459537420297, -21.4431288199603 ], [ -50.473559537341707, -21.443053819985831 ], [ -50.473560315145903, -21.443053232753552 ], [ -50.473660023581935, -21.442977454307769 ], [ -50.473760342186715, -21.442901967007035 ], [ -50.473860951524358, -21.442827257069879 ], [ -50.473861730682565, -21.44282667463953 ], [ -50.473962053702557, -21.442751184016863 ], [ -50.474063370646029, -21.442676686231835 ], [ -50.474065497812568, -21.442675093537183 ], [ -50.474166209288093, -21.442598313466355 ], [ -50.474267148957793, -21.442522113877772 ], [ -50.474368370407575, -21.44244768630865 ], [ -50.474368576048604, -21.442447534837871 ], [ -50.47447118619754, -21.442371822462505 ], [ -50.474573794381023, -21.442297107734024 ], [ -50.474575919288093, -21.442295532251404 ], [ -50.474677350222322, -21.442218961806134 ], [ -50.474780676353198, -21.442142460694868 ], [ -50.474883472902079, -21.442066610781328 ], [ -50.474985369932867, -21.441991686461741 ], [ -50.474986345462064, -21.441990963190548 ], [ -50.475088961464685, -21.441914250222844 ], [ -50.475191394040607, -21.441838668871863 ], [ -50.47529621215952, -21.441761802218352 ], [ -50.475297345221399, -21.441760963268671 ], [ -50.475400061283317, -21.441684175499244 ], [ -50.475503110934454, -21.441607879089993 ], [ -50.475607439882246, -21.441532364772002 ], [ -50.475608211805969, -21.441531802379256 ], [ -50.475713211840215, -21.441454802321225 ], [ -50.475713575013756, -21.441454535172099 ], [ -50.475816393559015, -21.441378669028357 ], [ -50.475921211681097, -21.441301802372521 ], [ -50.476026211601031, -21.441224802398299 ], [ -50.476130826397529, -21.44114808484834 ], [ -50.476235439405897, -21.441072364924718 ], [ -50.476236211327588, -21.441071802533454 ], [ -50.476340826238548, -21.440995084899559 ], [ -50.476445439247478, -21.440919364975528 ], [ -50.476446775450349, -21.440918386792458 ], [ -50.476550775483233, -21.440841386734604 ], [ -50.476654493722968, -21.440764595312348 ], [ -50.476759107687258, -21.440687878372295 ], [ -50.476863004230033, -21.440611953943314 ], [ -50.476864344018168, -21.440610963659452 ], [ -50.476966290003766, -21.440534751578952 ], [ -50.477069221450925, -21.440460522138459 ], [ -50.477070573976981, -21.440459535507042 ], [ -50.477173574009903, -21.440383535449897 ], [ -50.477175495399109, -21.440382094326889 ], [ -50.477276206879353, -21.440305314252431 ], [ -50.477377146561025, -21.440229114654798 ], [ -50.477478368020648, -21.44015468707844 ], [ -50.477295654906115, -21.43993687675664 ], [ -50.477316210239529, -21.439921802827275 ], [ -50.477152339017209, -21.439725930807739 ], [ -50.477215176166581, -21.439679088528052 ], [ -50.477022823980931, -21.439452911418197 ], [ -50.476913906815675, -21.439534104179117 ], [ -50.476744632763555, -21.439332312690333 ], [ -50.476642632796519, -21.439407312633847 ], [ -50.476641083560722, -21.439408466888409 ], [ -50.476539083590836, -21.439485466830945 ], [ -50.476437177977502, -21.439562395543646 ], [ -50.476336747645263, -21.439637966849133 ], [ -50.476233715422737, -21.439714250288397 ], [ -50.476131208261386, -21.439788891393469 ], [ -50.476130426537559, -21.439789464394838 ], [ -50.476027426570496, -21.439865464337675 ], [ -50.476025717718926, -21.439866743716887 ], [ -50.475922185648308, -21.439945388234989 ], [ -50.475820040439892, -21.440021749182169 ], [ -50.475717426328686, -21.440097464415679 ], [ -50.47571722522126, -21.440097613058846 ], [ -50.475613225254129, -21.440174613000988 ], [ -50.475612465600754, -21.440175179079461 ], [ -50.475508465632203, -21.440253179021123 ], [ -50.475507717311949, -21.440253743849713 ], [ -50.475404566817275, -21.440332098517281 ], [ -50.475302426005591, -21.440407464519904 ], [ -50.475300897719201, -21.440408606949752 ], [ -50.475199113431174, -21.440485686279398 ], [ -50.475094348812384, -21.440561788847031 ], [ -50.475091897556368, -21.440563607002858 ], [ -50.474989275717121, -21.44064132059372 ], [ -50.474886655798876, -21.440718036420691 ], [ -50.474886465031922, -21.440718179264191 ], [ -50.474782560273603, -21.44079610779827 ], [ -50.474679655636663, -21.440873036473295 ], [ -50.474576655556078, -21.440950036499427 ], [ -50.474576464788861, -21.440950179343119 ], [ -50.474472560030058, -21.441028107877564 ], [ -50.474369655393851, -21.441105036552045 ], [ -50.474266752766866, -21.441181963724635 ], [ -50.47416485037229, -21.441257890965538 ], [ -50.474164655121648, -21.441258036687806 ], [ -50.474062322126599, -21.441334538019632 ], [ -50.473958994981608, -21.441410046285359 ], [ -50.473956503337483, -21.441411906154116 ], [ -50.473857122851989, -21.441487671441081 ], [ -50.473754777450239, -21.441561478189492 ], [ -50.473753049724621, -21.44156274254652 ], [ -50.473653300570611, -21.441636813668946 ], [ -50.473550571667886, -21.44170990920399 ], [ -50.473548049569096, -21.44171174259694 ], [ -50.473448130901005, -21.441785939595981 ], [ -50.473347343904202, -21.441858071436158 ], [ -50.473246460622583, -21.441929988201753 ], [ -50.473246227209565, -21.441930154923416 ], [ -50.4731446346292, -21.442002863309369 ], [ -50.473043044109957, -21.442074574235349 ], [ -50.473042699379697, -21.442074818283228 ], [ -50.472943701205395, -21.442145106959373 ], [ -50.472842715274425, -21.442214411002887 ], [ -50.472839277275227, -21.442216840147164 ], [ -50.4727414006625, -21.442288023109022 ], [ -50.47264312541985, -21.442356815751623 ], [ -50.472541715059087, -21.442426411070667 ], [ -50.472540539759649, -21.442427225685897 ], [ -50.472440539797027, -21.442497225632337 ], [ -50.472588169114466, -21.442682080090176 ], [ -50.472573094615264, -21.442693457055999 ], [ -50.472570536698413, -21.442695430334552 ], [ -50.472466536724099, -21.442777430274312 ], [ -50.472662847434648, -21.44299566157482 ], [ -50.472627226183754, -21.443021155189189 ], [ -50.472624462608223, -21.443023180034007 ], [ -50.472524462638475, -21.443098179977913 ], [ -50.472713477650323, -21.443319075359167 ], [ -50.472669244892266, -21.443352584993001 ], [ -50.472569642954845, -21.443424574481266 ], [ -50.472566095297424, -21.44342721735083 ], [ -50.472468848323722, -21.4435018715598 ], [ -50.472369642800579, -21.443573574530646 ], [ -50.472368461770827, -21.443574436735624 ], [ -50.472269757689197, -21.443647218501962 ], [ -50.472170753593666, -21.443719491461341 ], [ -50.472070458687398, -21.443790988790834 ], [ -50.472068461543728, -21.443792436809066 ], [ -50.471970453713993, -21.443864705178243 ], [ -50.471870458538035, -21.443935988838497 ], [ -50.471769458463889, -21.444007988862175 ], [ -50.471768869493495, -21.444008410817528 ], [ -50.471669282347861, -21.444080113533047 ], [ -50.471569869409308, -21.44415069669089 ], [ -50.471468041886752, -21.444222574913425 ], [ -50.47146686927136, -21.444223410888814 ], [ -50.471367282126096, -21.444295113604056 ], [ -50.471268116357585, -21.444365521271408 ], [ -50.471169123282579, -21.444434816396917 ], [ -50.471067712929354, -21.444504411710778 ], [ -50.471065941803232, -21.444505645507373 ], [ -50.47096753272934, -21.444575227653473 ], [ -50.470867394179407, -21.444644630582026 ], [ -50.470768821518647, -21.444712337030484 ], [ -50.470667982049164, -21.444781227335305 ], [ -50.470667661150678, -21.444781447156078 ], [ -50.470568821380219, -21.444849337073929 ], [ -50.470467981910303, -21.444918227379034 ], [ -50.470650018233563, -21.445151772572832 ], [ -50.470751018273738, -21.44508277251964 ], [ -50.470751338954599, -21.445082552847786 ], [ -50.470850178693595, -21.445014662900544 ], [ -50.470951018134869, -21.444945772563372 ], [ -50.470951338815439, -21.444945552891721 ], [ -50.471050338854305, -21.444877552839387 ], [ -50.471050872232524, -21.444877184827423 ], [ -50.471151872271278, -21.444807184773687 ], [ -50.471153058306164, -21.444806354495693 ], [ -50.471251177489307, -21.444736977268395 ], [ -50.471352287254845, -21.444667588186924 ], [ -50.471353462349875, -21.44466677371274 ], [ -50.471370436781399, -21.444654891615087 ], [ -50.471290090774517, -21.444713248156919 ], [ -50.471194835906189, -21.444780720327856 ], [ -50.471194215714043, -21.444781161938138 ], [ -50.471099215747429, -21.44484916188647 ], [ -50.471097727500386, -21.444850240676033 ], [ -50.471004468041073, -21.444918697058831 ], [ -50.470910215606104, -21.444986161931642 ], [ -50.470908096819315, -21.444987706047709 ], [ -50.47081509684854, -21.445056705995896 ], [ -50.47072209677647, -21.44512570601924 ], [ -50.470629096704435, -21.445194706042557 ], [ -50.470816054218169, -21.445415565360161 ], [ -50.470752709609997, -21.445464513432231 ], [ -50.470949290538769, -21.445687486511648 ], [ -50.471036529113775, -21.445620074854276 ], [ -50.471051580753972, -21.445608743846755 ], [ -50.471216917454612, -21.445810743039591 ], [ -50.471308598037375, -21.445744972159982 ], [ -50.471400826039918, -21.445679520002926 ], [ -50.471493372267439, -21.445614837130229 ], [ -50.47149427718216, -21.44561419981099 ], [ -50.471587277215654, -21.445548199760704 ], [ -50.471587534304618, -21.445548016913705 ], [ -50.47168153433806, -21.445481016862718 ], [ -50.471682167172929, -21.445480563379093 ], [ -50.471774098410137, -21.445414333321267 ], [ -50.47186801544882, -21.445349085668603 ], [ -50.471869534098644, -21.445348016979544 ], [ -50.471963089769304, -21.445281333655632 ], [ -50.472056643006383, -21.445215647314107 ], [ -50.472059272698473, -21.445213759315987 ], [ -50.472152532116198, -21.445145302906045 ], [ -50.472246784513608, -21.44507783800411 ], [ -50.472247166756404, -21.445077563512761 ], [ -50.472339975793155, -21.445010701060909 ], [ -50.472434784374371, -21.444942838048636 ], [ -50.472435647604378, -21.444942215626455 ], [ -50.472529964970754, -21.444873711405709 ], [ -50.472622276454679, -21.444808200003283 ], [ -50.472623028367607, -21.444807662984509 ], [ -50.472719028400938, -21.444738662932163 ], [ -50.472720041829277, -21.444737928250621 ], [ -50.472813041859915, -21.444669928199303 ], [ -50.472906041789251, -21.44460192822206 ], [ -50.472906679402989, -21.444601459481138 ], [ -50.472998679432266, -21.444533459430023 ], [ -50.472998902528964, -21.444533294219717 ], [ -50.47309190255816, -21.444464294167897 ], [ -50.473093383723658, -21.444463181285133 ], [ -50.473184855163041, -21.444393583419327 ], [ -50.473275322834873, -21.444325981172756 ], [ -50.473276828387696, -21.444324841603496 ], [ -50.47336618627233, -21.444256333860569 ], [ -50.473457538544572, -21.444187819625441 ], [ -50.473458828242116, -21.444186841651142 ], [ -50.473548401403875, -21.444118168862218 ], [ -50.473637537720698, -21.444050821392423 ], [ -50.473727100866533, -21.443984146576504 ], [ -50.473727971911323, -21.443983493306639 ], [ -50.473817971937834, -21.443915493255886 ], [ -50.473818627294172, -21.443914995321915 ], [ -50.473907627319285, -21.443846995271389 ], [ -50.473909140685208, -21.443845823902549 ], [ -50.473995636395969, -21.443778003370252 ], [ -50.474084100582104, -21.443712146668496 ], [ -50.474086288455872, -21.4437104872062 ], [ -50.474173632975003, -21.443642993682783 ], [ -50.474262971580664, -21.443575493372052 ], [ -50.474263420858733, -21.443575152614617 ], [ -50.474351420883906, -21.44350815256476 ], [ -50.474351626865221, -21.443507995462049 ], [ -50.474440523875813, -21.443440074119344 ], [ -50.474528420697467, -21.443373152644863 ], [ -50.47461565056274, -21.443306738967486 ], [ -50.474703096049303, -21.443241891724441 ], [ -50.474792311809111, -21.443177458092887 ], [ -50.474795420437701, -21.443175152752097 ], [ -50.474881881866359, -21.443109324135179 ], [ -50.474970311672479, -21.44304545813662 ], [ -50.474971638366952, -21.443044489125988 ], [ -50.475058977771852, -21.442979977037989 ], [ -50.475148311537936, -21.442915458179741 ], [ -50.47523831147069, -21.44285045820132 ], [ -50.475326748861846, -21.442786586726523 ], [ -50.475417156060125, -21.442724677425311 ], [ -50.475420311240278, -21.442722458314655 ], [ -50.475509663314455, -21.442657926234684 ], [ -50.475600735649429, -21.442593581624322 ], [ -50.475690460284852, -21.442530774354779 ], [ -50.47569100996391, -21.442530387789844 ], [ -50.475783009997436, -21.442465387740253 ], [ -50.475784560279742, -21.442464277965694 ], [ -50.475874788816633, -21.442398837461447 ], [ -50.47596600986293, -21.442334387783021 ], [ -50.47605787427139, -21.442269483555627 ], [ -50.476148738551714, -21.44220557898149 ], [ -50.476149009630255, -21.442205387896021 ], [ -50.476241009663781, -21.442140387846429 ], [ -50.476243447725082, -21.442138629324397 ], [ -50.476333237986417, -21.442072519983356 ], [ -50.476424009528237, -21.442008387889487 ], [ -50.476425802552612, -21.44200710169811 ], [ -50.476517802583288, -21.441940101647489 ], [ -50.476518447517883, -21.441939629391349 ], [ -50.476609447547204, -21.441872629340921 ], [ -50.476609676557381, -21.441872460400944 ], [ -50.476701240696578, -21.441804782529829 ], [ -50.476792802373637, -21.441738101714872 ], [ -50.476793676416605, -21.441737460446465 ], [ -50.476885676445853, -21.441669460395346 ], [ -50.476888666880427, -21.441667192870202 ], [ -50.476977502760192, -21.441598098264887 ], [ -50.477067319910468, -21.441530982122135 ], [ -50.477068380638073, -21.441530182293956 ], [ -50.477160380664444, -21.441460182241869 ], [ -50.477161666660102, -21.441459192942659 ], [ -50.477251666683699, -21.44138919289097 ], [ -50.477253305605728, -21.441387900069451 ], [ -50.477342490860671, -21.441316551830308 ], [ -50.477431666533207, -21.441247192940313 ], [ -50.477433305454078, -21.441245900119711 ], [ -50.477523305474769, -21.441173900067103 ], [ -50.477523796823895, -21.441173505315568 ], [ -50.477611796843263, -21.441102505263849 ], [ -50.47761195208939, -21.441102379839986 ], [ -50.477700874435044, -21.441030442624783 ], [ -50.47772357747656, -21.44101212538877 ], [ -50.477723799772406, -21.441010714127671 ], [ -50.477724540664703, -21.440998789075639 ], [ -50.477721517164206, -21.440905124248111 ] ], [ [ -50.475119414484858, -21.441199744114623 ], [ -50.475017983460958, -21.441278525456145 ], [ -50.474913586260662, -21.441355346003338 ], [ -50.474912278029336, -21.441356319430959 ], [ -50.474807371107097, -21.441435249365718 ], [ -50.474703464300376, -21.441513179435962 ], [ -50.474599464218656, -21.441591179462485 ], [ -50.474599277782893, -21.441591319511055 ], [ -50.474494651560789, -21.441670038252685 ], [ -50.474390406545297, -21.441747477373156 ], [ -50.474285787805776, -21.441824197749071 ], [ -50.474181172737225, -21.441900915433497 ], [ -50.47407655968717, -21.441976635323595 ], [ -50.474074654356365, -21.441978036918453 ], [ -50.473972987113285, -21.442054040552883 ], [ -50.473869343056229, -21.442128071991185 ], [ -50.47376434297896, -21.442203072015868 ], [ -50.473762223011185, -21.442204613755521 ], [ -50.473659275758401, -21.442280834285263 ], [ -50.473555573319658, -21.442354907425113 ], [ -50.473452804515844, -21.442427743538278 ], [ -50.47345234263264, -21.442428072171655 ], [ -50.473347342669769, -21.442503072114633 ], [ -50.473346205320141, -21.442503892365941 ], [ -50.473244000798388, -21.442578313103358 ], [ -50.473141804286648, -21.44265074361126 ], [ -50.473140776198086, -21.44265147861821 ], [ -50.473037288522427, -21.442726109122987 ], [ -50.472934804134539, -21.442798743659711 ], [ -50.47293342164852, -21.442799735009412 ], [ -50.472831421682955, -21.442873734953423 ], [ -50.472831204936369, -21.442873892489526 ], [ -50.472731652865853, -21.442946381832982 ], [ -50.472768195803376, -21.442917569100747 ], [ -50.472872630026302, -21.442838750783029 ], [ -50.47297935350732, -21.44275895749065 ], [ -50.473086353423582, -21.442678957517817 ], [ -50.473086905280795, -21.442678542971464 ], [ -50.473192088142852, -21.442599159644157 ], [ -50.473300262128525, -21.442519765858624 ], [ -50.473300805440516, -21.442519365254476 ], [ -50.473408266006679, -21.442439764800866 ], [ -50.473517722794107, -21.442360159830645 ], [ -50.473518805273599, -21.442359365308526 ], [ -50.47362680530771, -21.442279365248417 ], [ -50.473627178764097, -21.442279087734825 ], [ -50.473735562238595, -21.442198292746728 ], [ -50.473845911852656, -21.442120456826142 ], [ -50.473847722424367, -21.442119159998107 ], [ -50.473957191392579, -21.44203954616993 ], [ -50.474068656790557, -21.44195992799574 ], [ -50.47406972225847, -21.441959160051493 ], [ -50.474179722295325, -21.441879159991014 ], [ -50.474180645276554, -21.441878483455923 ], [ -50.474290657196597, -21.441797213354391 ], [ -50.474401656541104, -21.441717928075352 ], [ -50.474403116100639, -21.441716872560708 ], [ -50.474514652945082, -21.441635211622327 ], [ -50.474625128582232, -21.441555589508244 ], [ -50.474739070110878, -21.441473631532769 ], [ -50.474739920948721, -21.441473015100549 ], [ -50.474849772538299, -21.441392853096669 ], [ -50.474962607456362, -21.441313670666055 ], [ -50.474965644685696, -21.441311483647205 ], [ -50.475075861191797, -21.441230062409804 ], [ -50.475160406395197, -21.441169249183854 ], [ -50.475122027773942, -21.441197758986753 ], [ -50.475119414484858, -21.441199744114623 ] ] ] } }
]
}
